"primary_address_id","wiki_friendly_title","secondary_address_id","setiere_code","sestiere_name","street_name","street_number","sestiere_address","street_and_number","accessory_addresses","latitude","longitude"
"0319004300_","Store location - 0319004300_","","CS","Castello","Ruga Giuffa Santa Apollonia","4300","CS4300","Ruga Giuffa Santa Apollonia 4300","","45.4350021","12.3408626"
"0319004523_","Store location - 0319004523_","","CS","Castello","Salizada San Provolo","4523","CS4523","Salizada San Provolo 4523","","45.43497977","12.34168944"
"0319004533_","Store location - 0319004533_","","CS","Castello","Calle De Le Rasse","4533","CS4533","Calle De Le Rasse 4533","","45.43471898","12.34180248"
"0319004537_","Store location - 0319004537_","","CS","Castello","Calle De Le Rasse","4537","CS4537","Calle De Le Rasse 4537","","45.4345418","12.34178391"
"0319004925A","Store location - 0319004925A","0319004925_;0319004924_","CS","Castello","Salizada Zorzi","4925A","CS4925A","Salizada Zorzi 4925A","Castello Ruga Giuffa 4925;Castello Ruga Giuffa 4924","45.43605112","12.34258771"
"0319005226_","Store location - 0319005226_","","CS","Castello","Calle Longa Santa Maria Formosa","5226","CS5226","Calle Longa Santa Maria Formosa 5226","","45.43763816","12.34171189"
"0319005413_","Store location - 0319005413_","","CS","Castello","Salizada San Lio","5413","CS5413","Salizada San Lio 5413","","45.43697893","12.33963091"
"0319005414A","Store location - 0319005414A","","CS","Castello","Salizada San Lio","5414A","CS5414A","Salizada San Lio 5414A","","45.43701304","12.33958481"
"0319005469_","Store location - 0319005469_","","CS","Castello","Salizada San Lio","5469","CS5469","Salizada San Lio 5469","","45.43712792","12.33941478"
"0319005605_","Store location - 0319005605_","","CS","Castello","Calle Al Ponte Sant'Antonio","5605","CS5605","Calle Al Ponte Sant'Antonio 5605","","45.43754337","12.33816332"
"0319005606_","Store location - 0319005606_","","CS","Castello","Calle Al Ponte Sant'Antonio","5606","CS5606","Calle Al Ponte Sant'Antonio 5606","","45.43754848","12.3381393"
"0319005705_","Store location - 0319005705_","","CS","Castello","Salizada San Lio","5705","CS5705","Salizada San Lio 5705","","45.43729516","12.33917665"
"0319006341_","Store location - 0319006341_","","CS","Castello","Salizada San Zanipolo","6341","CS6341","Salizada San Zanipolo 6341","","45.43878707","12.34238499"
"0319006365_","Store location - 0319006365_","","CS","Castello","Salizada San Zanipolo","6365","CS6365","Salizada San Zanipolo 6365","","45.43881893","12.34243152"
"0319000994_","Store location - 0319000994_","","CS","Castello","Fondamenta Sant'Anna","994","CS994","Fondamenta Sant'Anna 994","","45.43246783","12.3564975"
"0319002249_","Store location - 0319002249_","0319002250_","CS","Castello","Calle Del Tagiapiera","2249","CS2249","Calle Del Tagiapiera 2249","Castello Campiello Del Tagiapiera 2250","45.43371451","12.34960159"
"0319004867_","Store location - 0319004867_","","CS","Castello","Ruga Giuffa","4867","CS4867","Ruga Giuffa 4867","","45.4365962","12.34206253"
"0319004945_","Store location - 0319004945_","","CS","Castello","Salizada Zorzi","4945","CS4945","Salizada Zorzi 4945","","45.43603373","12.34263718"
"0319005274_","Store location - 0319005274_","","CS","Castello","Calle De Le Bande","5274","CS5274","Calle De Le Bande 5274","","45.43665231","12.34003357"
"0319006416_","Store location - 0319006416_","","CS","Castello","Barbaria De Le Tole","6416","CS6416","Barbaria De Le Tole 6416","","45.43864571","12.3431652"
"0319006473_","Store location - 0319006473_","","CS","Castello","Calle Del Cafetier","6473","CS6473","Calle Del Cafetier 6473","","45.4385115","12.344594"
"0319006482_","Store location - 0319006482_","0319006481A;0319006483_;0319006491_","CS","Castello","Calle Del Cafetier","6482","CS6482","Calle Del Cafetier 6482","Castello Calle Del Cafetier 6481 A;Castello Calle Del Cafetier 6483;Castello Campo De Santa Giustina Detto De Barbaria 6491","45.43845469","12.34500694"
"0319000996A","Store location - 0319000996A","","CS","Castello","Fondamenta Sant'Anna","996A","CS996A","Fondamenta Sant'Anna 996A","","45.43245797","12.35633592"
"0319001639_","Store location - 0319001639_","","CS","Castello","Via Garibaldi","1639","CS1639","Via Garibaldi 1639","","45.43199092","12.35153014"
"0319001649_","Store location - 0319001649_","","CS","Castello","Via Garibaldi","1649","CS1649","Via Garibaldi 1649","","45.43208677","12.35096007"
"0319001739_","Store location - 0319001739_","","CS","Castello","Via Garibaldi","1739","CS1739","Via Garibaldi 1739","","45.43222754","12.35201203"
"0319003456_","Store location - 0319003456_","","CS","Castello","Salizada Dei Greci","3456","CS3456","Salizada Dei Greci 3456","","45.43556382","12.34559687"
"0319003467_","Store location - 0319003467_","","CS","Castello","Salizada Dei Greci","3467","CS3467","Salizada Dei Greci 3467","","45.4355699","12.3458007"
"0319003542_","Store location - 0319003542_","0319003542B","CS","Castello","Salizada Sant'Antonin","3542","CS3542","Salizada Sant'Antonin 3542","Castello Salizada Sant'Antonin 3542 B","45.43508787","12.34691701"
"0319003545_","Store location - 0319003545_","","CS","Castello","Salizada Del Pignater","3545","CS3545","Salizada Del Pignater 3545","","45.4349565","12.3470452"
"0319003875_","Store location - 0319003875_","","CS","Castello","Calle Del Pestrin","3875","CS3875","Calle Del Pestrin 3875","","45.4349719","12.3482773"
"0319003876_","Store location - 0319003876_","","CS","Castello","Calle Del Pestrin","3876","CS3876","Calle Del Pestrin 3876","","45.43495535","12.34823596"
"0319005249A","Store location - 0319005249A","","CS","Castello","Campo Santa Maria Formosa","5249A","CS5249A","Campo Santa Maria Formosa 5249A","","45.43703815","12.34161119"
"0319005267A","Store location - 0319005267A","","CS","Castello","Calle De Le Bande","5267A","CS5267A","Calle De Le Bande 5267A","","45.43676014","12.3403954"
"0319005567_","Store location - 0319005567_","","CS","Castello","Calle Larga","5567","CS5567","Calle Larga 5567","","45.43718867","12.33814859"
"0319005672_","Store location - 0319005672_","","CS","Castello","Salizada San Lio","5672","CS5672","Salizada San Lio 5672","","45.43740388","12.33883131"
"0319005846_","Store location - 0319005846_","0319005847_","CS","Castello","Ramo Va In Campo","5846","CS5846","Ramo Va In Campo 5846","Castello Ramo Va In Campo 5847","45.4374402","12.3402537"
"0319006133_","Store location - 0319006133_","","CS","Castello","Calle Longa Santa Maria Formosa","6133","CS6133","Calle Longa Santa Maria Formosa 6133","","45.43750151","12.3413338"
"0319006656_","Store location - 0319006656_","","CS","Castello","Calle Del Cafetier","6656","CS6656","Calle Del Cafetier 6656","","45.43852992","12.3447026"
"0319006657_","Store location - 0319006657_","","CS","Castello","Calle Del Cafetier","6657","CS6657","Calle Del Cafetier 6657","","45.43853229","12.34465758"
"0319000780_","Store location - 0319000780_","","CS","Castello","Fondamenta S. Isepo","780","CS780","Fondamenta S. Isepo 780","","45.43070142","12.35690912"
"0319001000_","Store location - 0319001000_","0319001001_;0319001002_;0319001003_;0319001004_","CS","Castello","Fondamenta Sant'Anna","1000","CS1000","Fondamenta Sant'Anna 1000","Castello Fondamenta Sant'Anna 1001;Castello Fondamenta Sant'Anna 1002;Castello Campiello De Le Ancore 1003;Castello Campiello De Le Ancore 1004","45.43245094","12.35602821"
"0319001558B","Store location - 0319001558B","0319001558A","CS","Castello","Via Garibaldi","1558B","CS1558B","Via Garibaldi 1558B","Castello Via Garibaldi 1558 A","45.43216585","12.35292402"
"0319001592_","Store location - 0319001592_","","CS","Castello","Via Garibaldi","1592","CS1592","Via Garibaldi 1592","","45.432083","12.35233943"
"0319001825_","Store location - 0319001825_","","CS","Castello","Via Garibaldi","1825","CS1825","Via Garibaldi 1825","","45.43254629","12.3554668"
"0319003181_","Store location - 0319003181_","","CS","Castello","Calle Saca","3181","CS3181","Calle Saca 3181","","45.43688263","12.34730625"
"0319003306_","Store location - 0319003306_","","CS","Castello","Salizada Dei Greci","3306","CS3306","Salizada Dei Greci 3306","","45.43561297","12.34575392"
"0319003783_","Store location - 0319003783_","0319003906A;0319003907_;0319003908_;0319003909_","CS","Castello","Calle Crosera","3783","CS3783","Calle Crosera 3783","Castello Calle Crosera 3906 A;Castello Calle Crosera 3907;Castello Calle Crosera 3908;Castello Calle Crosera 3909","45.43454216","12.34742967"
"0319004237A","Store location - 0319004237A","","CS","Castello","Calle Dei Albanesi","4237A","CS4237A","Calle Dei Albanesi 4237A","","45.43487474","12.3415172"
"0319004323_","Store location - 0319004323_","0319004324_","CS","Castello","Ruga Giuffa Santa Apollonia","4323","CS4323","Ruga Giuffa Santa Apollonia 4323","Castello Ruga Giuffa Santa Apollonia 4324","45.4350602","12.3410486"
"0319004716C","Store location - 0319004716C","","CS","Castello","Calle San Provolo","4716C","CS4716C","Calle San Provolo 4716C","","45.43532967","12.34279291"
"0319005767_","Store location - 0319005767_","","CS","Castello","Salizada San Lio","5767","CS5767","Salizada San Lio 5767","","45.43707319","12.33955737"
"0319005908_","Store location - 0319005908_","0319005909_","CS","Castello","Campo Santa Marina","5908","CS5908","Campo Santa Marina 5908","Castello Campo Santa Marina 5909","45.43831903","12.33917173"
"0319006481_","Store location - 0319006481_","","CS","Castello","Calle Del Cafetier","6481","CS6481","Calle Del Cafetier 6481","","45.43846705","12.34491326"
"0319006645_","Store location - 0319006645_","","CS","Castello","Calle Del Cafetier","6645","CS6645","Calle Del Cafetier 6645","","45.43849203","12.34498889"
"0319000790C","Store location - 0319000790C","","CS","Castello","Rio Tera' S. Isepo","790C","CS790C","Rio Tera' S. Isepo 790C","","45.4302447","12.3583199"
"0319001137_","Store location - 0319001137_","","CS","Castello","Via Garibaldi","1137","CS1137","Via Garibaldi 1137","","45.43242","12.3555371"
"0319001254_","Store location - 0319001254_","0319001255_","CS","Castello","Calle San Domenico","1254","CS1254","Calle San Domenico 1254","Castello Calle San Domenico 1255","45.4321778","12.3544701"
"0319001664_","Store location - 0319001664_","","CS","Castello","Via Garibaldi","1664","CS1664","Via Garibaldi 1664","","45.43210256","12.35113612"
"0319001819_","Store location - 0319001819_","0319001820_","CS","Castello","Via Garibaldi","1819","CS1819","Via Garibaldi 1819","Castello Via Garibaldi 1820","45.43253466","12.35519019"
"0319001827_","Store location - 0319001827_","0319001828_","CS","Castello","Fondamentina","1827","CS1827","Fondamentina 1827","Castello Fondamentina 1828","45.43256224","12.35559783"
"0319002142_","Store location - 0319002142_","0319002142A;0319002144_","CS","Castello","Riva San Biasio","2142","CS2142","Riva San Biasio 2142","Castello Riva San Biasio 2142 A;Castello Riva San Biasio 2144","45.4322714","12.3503762"
"0319002408_","Store location - 0319002408_","0319002410_","CS","Castello","Campo De L'Arsenal","2408","CS2408","Campo De L'Arsenal 2408","Castello Fondamenta De Fronte A L'Arsenal 2410","45.434751","12.34965794"
"0319003182_","Store location - 0319003182_","0319003183_","CS","Castello","Salizada De Le Gatte","3182","CS3182","Salizada De Le Gatte 3182","Castello Salizada De Le Gatte 3183","45.43687762","12.34741429"
"0319003183A","Store location - 0319003183A","","CS","Castello","Salizada De Le Gatte","3183A","CS3183A","Salizada De Le Gatte 3183A","","45.4368154","12.3474472"
"0319003189_","Store location - 0319003189_","","CS","Castello","Salizada De Le Gatte","3189","CS3189","Salizada De Le Gatte 3189","","45.43671403","12.34749265"
"0319003452_","Store location - 0319003452_","0319003453_","CS","Castello","Salizada Dei Greci","3452","CS3452","Salizada Dei Greci 3452","Castello Salizada Dei Greci 3453","45.4355732","12.3454424"
"0319003482_","Store location - 0319003482_","","CS","Castello","Salizada Sant'Antonin","3482","CS3482","Salizada Sant'Antonin 3482","","45.43532052","12.34672355"
"0319003604_","Store location - 0319003604_","0319003605_;0319003606_","CS","Castello","Salizada Sant'Antonin","3604","CS3604","Salizada Sant'Antonin 3604","Castello Salizada Sant'Antonin 3605;Castello Salizada Sant'Antonin 3606","45.43498769","12.3468623"
"0319003607_","Store location - 0319003607_","","CS","Castello","Salizada Del Pignater","3607","CS3607","Salizada Del Pignater 3607","","45.43486928","12.3469116"
"0319003723_","Store location - 0319003723_","","CS","Castello","Campo Bandiera E Moro","3723","CS3723","Campo Bandiera E Moro 3723","","45.4346059","12.3463751"
"0319003803_","Store location - 0319003803_","","CS","Castello","Calle Del Dose","3803","CS3803","Calle Del Dose 3803","","45.4343589","12.3463816"
"0319003818_","Store location - 0319003818_","","CS","Castello","Calle Crosera","3818","CS3818","Calle Crosera 3818","","45.43464016","12.34718127"
"0319003977_","Store location - 0319003977_","319003978","CS","Castello","Calle De La Pescaria","3977","CS3977","Calle De La Pescaria 3977","Castello Calle De La Pescaria 3978","45.43392926","12.34753288"
"0319004119_","Store location - 0319004119_","0319004122_","CS","Castello","Riva Dei Schiavoni","4119","CS4119","Riva Dei Schiavoni 4119","Castello Riva Dei Schiavoni 4122","45.43377218","12.34736487"
"0319004540_","Store location - 0319004540_","","CS","Castello","Calle De Le Rasse","4540","CS4540","Calle De Le Rasse 4540","","45.43440899","12.34178298"
"0319004585_","Store location - 0319004585_","","CS","Castello","Calle De Le Rasse","4585","CS4585","Calle De Le Rasse 4585","Castello Calle De Le Rasse 4587","45.43439228","12.34183838"
"0319004590_","Store location - 0319004590_","0319004127_","CS","Castello","Calle De Le Rasse","4590","CS4590","Calle De Le Rasse 4590","Castello Riva Dei Schiavoni 4127","45.43453683","12.34183338"
"0319004616_","Store location - 0319004616_","0319004617_","CS","Castello","Calle De Le Rasse","4616","CS4616","Calle De Le Rasse 4616","Castello Calle De Le Rasse 4617","45.43483403","12.34185216"
"0319004682B","Store location - 0319004682B","","CS","Castello","Calle S. Zaccaria","4682B","CS4682B","Calle S. Zaccaria 4682B","","45.4348944","12.3427459"
"0319004683B","Store location - 0319004683B","","CS","Castello","Campo San Zaccaria","4683B","CS4683B","Campo San Zaccaria 4683B","","45.43473249","12.34291057"
"0319004700_","Store location - 0319004700_","0319004699A","CS","Castello","Campo San Provolo","4700","CS4700","Campo San Provolo 4700","Castello Calle S. Zaccaria 4699 A","45.43497828","12.34258011"
"0319004977D","Store location - 0319004977D","","CS","Castello","Fondamenta De L'Osmarin","4977D","CS4977D","Fondamenta De L'Osmarin 4977D","","45.43566127","12.3442087"
"0319005382_","Store location - 0319005382_","0319005383_","CS","Castello","Calle De Le Bande","5382","CS5382","Calle De Le Bande 5382","Castello Salizada San Lio 5383","45.43665175","12.33995947"
"0319005787_","Store location - 0319005787_","","CS","Castello","Calle Del Mondo Novo","5787","CS5787","Calle Del Mondo Novo 5787","","45.43701522","12.34003005"
"0319006130_","Store location - 0319006130_","0319006131_;0319006132_","CS","Castello","Campo Santa Maria Formosa","6130","CS6130","Campo Santa Maria Formosa 6130","Castello Calle Longa Santa Maria Formosa 6131;Castello Calle Longa Santa Maria Formosa 6132","45.43745358","12.34116325"
"0319006779_","Store location - 0319006779_","0319006780_;0319006781_","CS","Castello","Campo San Zanipolo","6779","CS6779","Campo San Zanipolo 6779","Castello Campo San Zanipolo 6780;Castello Campo San Zanipolo 6781","45.43891813","12.34179889"
"0319006810_","Store location - 0319006810_","0319006811_","CS","Castello","Campo San Zanipolo","6810","CS6810","Campo San Zanipolo 6810","Castello Campo San Zanipolo 6811","45.43901861","12.34136948"
"0319005176B","Store location - 0319005176B","","CS","Castello","Campiello De La Malvasia","5176B","CS5176B","Campiello De La Malvasia 5176B","","45.4379707","12.3422759"
"0319005284_","Store location - 0319005284_","","CS","Castello","Casseleria","5284","CS5284","Casseleria 5284","","45.4363012","12.340075"
"0319005762_","Store location - 0319005762_","","CS","Castello","Calle Del Paradiso","5762","CS5762","Calle Del Paradiso 5762","","45.43721384","12.33953162"
"0319006081_","Store location - 0319006081_","","CS","Castello","Calle Del Cristo","6081","CS6081","Calle Del Cristo 6081","","45.43855495","12.33969872"
"0319006358A","Store location - 0319006358A","0319006357_;0319006358_","CS","Castello","Barbaria De Le Tole","6358A","CS6358A","Barbaria De Le Tole 6358A","Castello Salizada San Zanipolo 6357;Castello Barbaria De Le Tole 6358","45.43872332","12.34268926"
"0319000997A","Store location - 0319000997A","0319000997_","CS","Castello","Fondamenta Sant'Anna","997A","CS997A","Fondamenta Sant'Anna 997A","Castello Fondamenta Sant'Anna 997","45.4324598","12.3562787"
"0319001240_","Store location - 0319001240_","","CS","Castello","Via Garibaldi","1240","CS1240","Via Garibaldi 1240","","45.43240457","12.35535503"
"0319003157_","Store location - 0319003157_","","CS","Castello","Salizada San Francesco","3157","CS3157","Salizada San Francesco 3157","","45.43730593","12.34722915"
"0319003454_","Store location - 0319003454_","","CS","Castello","Salizada Dei Greci","3454","CS3454","Salizada Dei Greci 3454","","45.43556622","12.34551051"
"0319003825_","Store location - 0319003825_","","CS","Castello","Calle Crosera","3825","CS3825","Calle Crosera 3825","","45.43456455","12.34746741"
"0319001765_","Store location - 0319001765_","","CS","Castello","Via Garibaldi","1765","CS1765","Via Garibaldi 1765","","45.43225376","12.35228506"
"0319004830_","Store location - 0319004830_","0319004830A","CS","Castello","Ruga Giuffa","4830","CS4830","Ruga Giuffa 4830","Castello Calle Drio El Magazen 4830 A","45.43636119","12.34222765"
"0319006339_","Store location - 0319006339_","","CS","Castello","Salizada San Zanipolo","6339","CS6339","Salizada San Zanipolo 6339","","45.4388047","12.3422949"
"0319000011S","Store location - 0319000011S","","CS","Castello","Calle Larga De Quintavalle","11S","CS11S","Calle Larga De Quintavalle 11S","","45.4330738","12.3603273"
"0319000060_","Store location - 0319000060_","","CS","Castello","Calle Drio El Campaniel","60","CS60","Calle Drio El Campaniel 60","","45.4338536","12.3587222"
"0319000128_","Store location - 0319000128_","","CS","Castello","Campo De Ruga","128","CS128","Campo De Ruga 128","","45.4339729","12.3571628"
"0319000157A","Store location - 0319000157A","0319000157C","CS","Castello","Calle De Ruga","157A","CS157A","Calle De Ruga 157A","Castello Campo De Ruga 157 C","45.4335199","12.357159"
"0319000157B","Store location - 0319000157B","","CS","Castello","Calle De Ruga","157B","CS157B","Calle De Ruga 157B","","45.4334932","12.3571675"
"0319000159_","Store location - 0319000159_","","CS","Castello","Calle De Ruga","159","CS159","Calle De Ruga 159","","45.43340407","12.35719142"
"0319000187_","Store location - 0319000187_","","CS","Castello","Calle Rielo","187","CS187","Calle Rielo 187","","45.43329116","12.3572065"
"0319000311_","Store location - 0319000311_","","CS","Castello","Calle De Le Ole","311","CS311","Calle De Le Ole 311","","45.4334682","12.357231"
"0319000312_","Store location - 0319000312_","","CS","Castello","Calle De Ruga","312","CS312","Calle De Ruga 312","","45.4335092","12.3571947"
"0319000313_","Store location - 0319000313_","","CS","Castello","Campo De Ruga","313","CS313","Campo De Ruga 313","","45.43355006","12.357237"
"0319000333_","Store location - 0319000333_","","CS","Castello","Campo De Ruga","333","CS333","Campo De Ruga 333","","45.4338981","12.3572754"
"0319001785_","Store location - 0319001785_","","CS","Castello","Via Garibaldi","1785","CS1785","Via Garibaldi 1785","","45.4323464","12.35321793"
"0319001813_","Store location - 0319001813_","0319001813A;0319001814_;0319001814A","CS","Castello","Via Garibaldi","1813","CS1813","Via Garibaldi 1813","Castello Via Garibaldi 1813 A;Castello Via Garibaldi 1814;Castello Via Garibaldi 1814 A","45.4325162","12.35485728"
"0319001817_","Store location - 0319001817_","","CS","Castello","Via Garibaldi","1817","CS1817","Via Garibaldi 1817","","45.43252715","12.35505992"
"0319001829_","Store location - 0319001829_","","CS","Castello","Fondamentina","1829","CS1829","Fondamentina 1829","","45.4325654","12.3556473"
"0319001929A","Store location - 0319001929A","","CS","Castello","Calle San Francesco Di Paola","1929A","CS1929A","Calle San Francesco Di Paola 1929A","","45.4328105","12.3539774"
"0319002147_","Store location - 0319002147_","","CS","Castello","Riva San Biasio","2147","CS2147","Riva San Biasio 2147","","45.4321972","12.3506098"
"0319002184_","Store location - 0319002184_","0319002185_;0319002186_","CS","Castello","Riva De La Ca' Di Dio","2184","CS2184","Riva De La Ca' Di Dio 2184","Castello Riva De La Ca' Di Dio 2185;Castello Riva De La Ca' Di Dio 2186","45.4333328","12.34866416"
"0319002282A","Store location - 0319002282A","","CS","Castello","Calle De La Pegola","2282A","CS2282A","Calle De La Pegola 2282A","","45.4340367","12.3494101"
"0319002315_","Store location - 0319002315_","0319002316_","CS","Castello","Calle De La Pegola","2315","CS2315","Calle De La Pegola 2315","Castello Calle De La Pegola 2316","45.4340178","12.3493329"
"0319002341A","Store location - 0319002341A","","CS","Castello","Calle De La Pegola","2341A","CS2341A","Calle De La Pegola 2341A","","45.434034","12.349598"
"0319002397_","Store location - 0319002397_","","CS","Castello","Campo De L'Arsenal","2397","CS2397","Campo De L'Arsenal 2397","","45.4346612","12.3496536"
"0319002398_","Store location - 0319002398_","","CS","Castello","Campo De L'Arsenal","2398","CS2398","Campo De L'Arsenal 2398","","45.4346765","12.3496549"
"0319002415_","Store location - 0319002415_","","CS","Castello","Fondamenta De Fronte A L'Arsenal","2415","CS2415","Fondamenta De Fronte A L'Arsenal 2415","","45.4347994","12.3494473"
"0319002429_","Store location - 0319002429_","","CS","Castello","Fondamenta Dei Penini","2429","CS2429","Fondamenta Dei Penini 2429","","45.4350018","12.3488271"
"0319002448_","Store location - 0319002448_","","CS","Castello","Campo De Le Gorne","2448","CS2448","Campo De Le Gorne 2448","","45.4354411","12.3490584"
"0319002461A","Store location - 0319002461A","","CS","Castello","Campiello De La Grana","2461A","CS2461A","Campiello De La Grana 2461A","","45.4352922","12.3482443"
"0319002476_","Store location - 0319002476_","","CS","Castello","Campo De Le Gorne","2476","CS2476","Campo De Le Gorne 2476","","45.43550336","12.34898281"
"0319002490_","Store location - 0319002490_","","CS","Castello","Calle Del Bastion","2490","CS2490","Calle Del Bastion 2490","","45.4355528","12.3489247"
"0319002492_","Store location - 0319002492_","","CS","Castello","Calle Del Bastion","2492","CS2492","Calle Del Bastion 2492","","45.4355834","12.3488844"
"0319002495_","Store location - 0319002495_","","CS","Castello","Calle Del Bastion","2495","CS2495","Calle Del Bastion 2495","","45.4356351","12.3488199"
"0319002498_","Store location - 0319002498_","","CS","Castello","Calle Del Bastion","2498","CS2498","Calle Del Bastion 2498","","45.43568055","12.34876707"
"0319002539_","Store location - 0319002539_","","CS","Castello","Corte Rota","2539","CS2539","Corte Rota 2539","","45.4358644","12.3483973"
"0319002539A","Store location - 0319002539A","","CS","Castello","Corte Rota","2539A","CS2539A","Corte Rota 2539A","","45.4359048","12.3483597"
"0319002610_","Store location - 0319002610_","","CS","Castello","Campo Dei Do Pozzi","2610","CS2610","Campo Dei Do Pozzi 2610","","45.4361373","12.3487212"
"0319002622_","Store location - 0319002622_","","CS","Castello","Campo Dei Do Pozzi","2622","CS2622","Campo Dei Do Pozzi 2622","","45.43598134","12.3484504"
"0319002625_","Store location - 0319002625_","","CS","Castello","Calle Del Forno","2625","CS2625","Calle Del Forno 2625","","45.43586046","12.34824251"
"0319002631_","Store location - 0319002631_","0319002632_","CS","Castello","Campo Dei Do Pozzi","2631","CS2631","Campo Dei Do Pozzi 2631","Castello Calle Del Mandolin 2632","45.4360412","12.3483466"
"0319002635_","Store location - 0319002635_","","CS","Castello","Calle Dei Scudi","2635","CS2635","Calle Dei Scudi 2635","","45.4358848","12.3480237"
"0319002635B","Store location - 0319002635B","","CS","Castello","Calle Dei Scudi","2635B","CS2635B","Calle Dei Scudi 2635B","","45.4358537","12.3480452"
"0319002636_","Store location - 0319002636_","","CS","Castello","Calle Dei Scudi","2636","CS2636","Calle Dei Scudi 2636","","45.4358318","12.3480604"
"0319002669_","Store location - 0319002669_","","CS","Castello","Calle Del Mandolin","2669","CS2669","Calle Del Mandolin 2669","","45.4360331","12.3482444"
"0319002670_","Store location - 0319002670_","","CS","Castello","Calle Del Mandolin","2670","CS2670","Calle Del Mandolin 2670","","45.4360583","12.3482968"
"0319002677_","Store location - 0319002677_","","CS","Castello","Campo Dei Do Pozzi","2677","CS2677","Campo Dei Do Pozzi 2677","","45.43609","12.3483581"
"0319002678_","Store location - 0319002678_","0319002679_","CS","Castello","Campo Dei Do Pozzi","2678","CS2678","Campo Dei Do Pozzi 2678","Castello Campo Dei Do Pozzi 2679","45.4361018","12.3483814"
"0319002682_","Store location - 0319002682_","","CS","Castello","Campo Dei Do Pozzi","2682","CS2682","Campo Dei Do Pozzi 2682","","45.4361868","12.3485367"
"0319002731_","Store location - 0319002731_","","CS","Castello","Campo De La Celestia","2731","CS2731","Campo De La Celestia 2731","","45.4376895","12.3493402"
"0319002782_","Store location - 0319002782_","","CS","Castello","Campo San Francesco","2782","CS2782","Campo San Francesco 2782","","45.4378715","12.3480098"
"0319002860_","Store location - 0319002860_","","CS","Castello","Salizada Santa Giustina","2860","CS2860","Salizada Santa Giustina 2860","","45.4374091","12.3463345"
"0319002907A","Store location - 0319002907A","","CS","Castello","Salizada Santa Giustina","2907A","CS2907A","Salizada Santa Giustina 2907A","","45.43743499","12.34642762"
"0319002916_","Store location - 0319002916_","","CS","Castello","Salizada Santa Giustina","2916","CS2916","Salizada Santa Giustina 2916","","45.4374199","12.3466174"
"0319002918_","Store location - 0319002918_","","CS","Castello","Salizada Santa Giustina","2918","CS2918","Salizada Santa Giustina 2918","","45.43737601","12.34665269"
"0319002929_","Store location - 0319002929_","","CS","Castello","Salizada Santa Giustina","2929","CS2929","Salizada Santa Giustina 2929","","45.43739014","12.34692588"
"0319003004_","Store location - 0319003004_","0319003005_;0319003006_","CS","Castello","Calle De L'Ogio","3004","CS3004","Calle De L'Ogio 3004","Castello Calle De L'Ogio 3005;Castello Ramo Corte De La Vida 3006","45.4369054","12.34794373"
"0319003042_","Store location - 0319003042_","0319003042A;0319003043_;0319003043A","CS","Castello","Ramo Corte De La Vida","3042","CS3042","Ramo Corte De La Vida 3042","Castello Ramo Corte De La Vida 3042 A;Castello Calle De L'Ogio 3043;Castello Calle De L'Ogio 3043 A","45.4369708","12.3480215"
"0319003054_","Store location - 0319003054_","","CS","Castello","Campo Santa Ternita","3054","CS3054","Campo Santa Ternita 3054","","45.4372724","12.3486093"
"0319003063_","Store location - 0319003063_","","CS","Castello","Campo A Fianco La Chiesa","3063","CS3063","Campo A Fianco La Chiesa 3063","","45.4371077","12.3488194"
"0319003083_","Store location - 0319003083_","0319003084_","CS","Castello","Corte Baffo","3083","CS3083","Corte Baffo 3083","Castello Calle De L'Ogio 3084","45.4369187","12.348657"
"0319003140_","Store location - 0319003140_","","CS","Castello","Salizada De Le Gatte","3140","CS3140","Salizada De Le Gatte 3140","","45.43687542","12.34747454"
"0319003141_","Store location - 0319003141_","","CS","Castello","Salizada De Le Gatte","3141","CS3141","Salizada De Le Gatte 3141","","45.4368868","12.3474736"
"0319003146_","Store location - 0319003146_","","CS","Castello","Salizada San Francesco","3146","CS3146","Salizada San Francesco 3146","","45.43697511","12.34735147"
"0319003161_","Store location - 0319003161_","","CS","Castello","Salizada San Francesco","3161","CS3161","Salizada San Francesco 3161","","45.43718645","12.34724625"
"0319003190_","Store location - 0319003190_","","CS","Castello","Salizada De Le Gatte","3190","CS3190","Salizada De Le Gatte 3190","","45.43667855","12.34755978"
"0319003191_","Store location - 0319003191_","","CS","Castello","Salizada De Le Gatte","3191","CS3191","Salizada De Le Gatte 3191","","45.43666213","12.34756772"
"0319003193_","Store location - 0319003193_","","CS","Castello","Salizada De Le Gatte","3193","CS3193","Salizada De Le Gatte 3193","","45.43664068","12.34758365"
"0319003197_","Store location - 0319003197_","","CS","Castello","Salizada De Le Gatte","3197","CS3197","Salizada De Le Gatte 3197","","45.43656702","12.34762421"
"0319003206_","Store location - 0319003206_","","CS","Castello","Campo De Le Gatte","3206","CS3206","Campo De Le Gatte 3206","","45.43640028","12.34761373"
"0319003210_","Store location - 0319003210_","0319003209_","CS","Castello","Campo De Le Gatte","3210","CS3210","Campo De Le Gatte 3210","Castello Calle Dei Scudi 3209","45.43633435","12.34758266"
"0319003213_","Store location - 0319003213_","","CS","Castello","Campo De Le Gatte","3213","CS3213","Campo De Le Gatte 3213","","45.43628499","12.34737517"
"0319003220_","Store location - 0319003220_","","CS","Castello","Campo De Le Gatte","3220","CS3220","Campo De Le Gatte 3220","","45.43642049","12.34750741"
"0319003222_","Store location - 0319003222_","","CS","Castello","Campo De Le Gatte","3222","CS3222","Campo De Le Gatte 3222","","45.4364043","12.3474266"
"0319003225_","Store location - 0319003225_","","CS","Castello","Campo De Le Gatte","3225","CS3225","Campo De Le Gatte 3225","","45.43624854","12.34721278"
"0319003227_","Store location - 0319003227_","","CS","Castello","Calle Dei Furlani","3227","CS3227","Calle Dei Furlani 3227","","45.4361849","12.3471801"
"0319003229_","Store location - 0319003229_","","CS","Castello","Calle Dei Furlani","3229","CS3229","Calle Dei Furlani 3229","","45.4361827","12.3470848"
"0319003230_","Store location - 0319003230_","","CS","Castello","Calle Dei Furlani","3230","CS3230","Calle Dei Furlani 3230","","45.43618207","12.34702818"
"0319003232_","Store location - 0319003232_","","CS","Castello","Calle Dei Furlani","3232","CS3232","Calle Dei Furlani 3232","","45.4361791","12.346946"
"0319003235_","Store location - 0319003235_","","CS","Castello","Calle Dei Furlani","3235","CS3235","Calle Dei Furlani 3235","","45.4361738","12.3467967"
"0319003266A","Store location - 0319003266A","","CS","Castello","Calle Dei Furlani","3266A","CS3266A","Calle Dei Furlani 3266A","","45.4361395","12.3471581"
"0319003275_","Store location - 0319003275_","","CS","Castello","Calle Dei Furlani","3275","CS3275","Calle Dei Furlani 3275","","45.4361327","12.346613"
"0319003276_","Store location - 0319003276_","","CS","Castello","Calle Dei Furlani","3276","CS3276","Calle Dei Furlani 3276","","45.43612967","12.34656279"
"0319003278_","Store location - 0319003278_","","CS","Castello","Calle Dei Furlani","3278","CS3278","Calle Dei Furlani 3278","","45.43612899","12.34645792"
"0319003279_","Store location - 0319003279_","","CS","Castello","Calle Dei Furlani","3279","CS3279","Calle Dei Furlani 3279","","45.4361287","12.3464125"
"0319003281_","Store location - 0319003281_","","CS","Castello","Calle Dei Furlani","3281","CS3281","Calle Dei Furlani 3281","","45.4361264","12.3462931"
"0319003301_","Store location - 0319003301_","","CS","Castello","Fondamenta Dei Furlani","3301","CS3301","Fondamenta Dei Furlani 3301","","45.43573872","12.34613442"
"0319003346_","Store location - 0319003346_","","CS","Castello","Calle Del Magazen","3346","CS3346","Calle Del Magazen 3346","","45.4357711","12.3454312"
"0319003349A","Store location - 0319003349A","","CS","Castello","Calle Coppo","3349A","CS3349A","Calle Coppo 3349A","","45.4358686","12.3453363"
"0319003386A","Store location - 0319003386A","","CS","Castello","Calle Lion","3386A","CS3386A","Calle Lion 3386A","","45.4362059","12.3450154"
"0319003468_","Store location - 0319003468_","","CS","Castello","Salizada Dei Greci","3468","CS3468","Salizada Dei Greci 3468","","45.4355701","12.3458327"
"0319003484_","Store location - 0319003484_","","CS","Castello","Salizada Sant'Antonin","3484","CS3484","Salizada Sant'Antonin 3484","","45.4352536","12.3467649"
"0319003487_","Store location - 0319003487_","0319003487A","CS","Castello","Salizada Sant'Antonin","3487","CS3487","Salizada Sant'Antonin 3487","Castello Salizada Sant'Antonin 3487 A","45.4351757","12.3467964"
"0319003488_","Store location - 0319003488_","","CS","Castello","Salizada Sant'Antonin","3488","CS3488","Salizada Sant'Antonin 3488","","45.43513078","12.34680968"
"0319003490_","Store location - 0319003490_","0319003491_;0319003492_","CS","Castello","Salizada Sant'Antonin","3490","CS3490","Salizada Sant'Antonin 3490","Castello Calle De La Morte 3491;Castello Calle De La Morte 3492","45.43504399","12.34684311"
"0319003508_","Store location - 0319003508_","","CS","Castello","Calle De L'Arco","3508","CS3508","Calle De L'Arco 3508","","45.4354217","12.3470272"
"0319003510_","Store location - 0319003510_","","CS","Castello","Calle De L'Arco","3510","CS3510","Calle De L'Arco 3510","","45.4354386","12.3471046"
"0319003549_","Store location - 0319003549_","","CS","Castello","Salizada Del Pignater","3549","CS3549","Salizada Del Pignater 3549","","45.4350109","12.3472981"
"0319003550_","Store location - 0319003550_","","CS","Castello","Salizada Del Pignater","3550","CS3550","Salizada Del Pignater 3550","","45.4350218","12.3473461"
"0319003583_","Store location - 0319003583_","","CS","Castello","Salizada Del Pignater","3583","CS3583","Salizada Del Pignater 3583","","45.4349955","12.3475386"
"0319003585_","Store location - 0319003585_","","CS","Castello","Salizada Del Pignater","3585","CS3585","Salizada Del Pignater 3585","","45.4349712","12.3474563"
"0319003587A","Store location - 0319003587A","","CS","Castello","Salizada Del Pignater","3587A","CS3587A","Salizada Del Pignater 3587A","","45.43494803","12.34737443"
"0319003591_","Store location - 0319003591_","","CS","Castello","Salizada Del Pignater","3591","CS3591","Salizada Del Pignater 3591","","45.434925","12.3472846"
"0319003592_","Store location - 0319003592_","","CS","Castello","Salizada Del Pignater","3592","CS3592","Salizada Del Pignater 3592","","45.4349167","12.347254"
"0319003595_","Store location - 0319003595_","","CS","Castello","Calle Dei Preti","3595","CS3595","Calle Dei Preti 3595","","45.4348073","12.3471994"
"0319003600C","Store location - 0319003600C","","CS","Castello","Salizada Del Pignater","3600C","CS3600C","Salizada Del Pignater 3600C","","45.4348698","12.3470797"
"0319003683_","Store location - 0319003683_","","CS","Castello","Calle Bosello","3683","CS3683","Calle Bosello 3683","","45.43506699","12.34508391"
"0319003728_","Store location - 0319003728_","","CS","Castello","Calle Del Dose","3728","CS3728","Calle Del Dose 3728","","45.4343869","12.3463557"
"0319003728A","Store location - 0319003728A","","CS","Castello","Calle Del Dose","3728A","CS3728A","Calle Del Dose 3728A","","45.43436","12.3463534"
"0319003741_","Store location - 0319003741_","","CS","Castello","Calle Del Dose","3741","CS3741","Calle Del Dose 3741","","45.43421531","12.34636716"
"0319003829_","Store location - 0319003829_","","CS","Castello","Calle Dei Corazzieri","3829","CS3829","Calle Dei Corazzieri 3829","","45.4347212","12.3477539"
"0319003839_","Store location - 0319003839_","0319005582_","CS","Castello","Calle Dei Corazzieri","3839","CS3839","Calle Dei Corazzieri 3839","Castello Calle Seconda De La Fava 5582","45.4350182","12.34759043"
"0319003882_","Store location - 0319003882_","","CS","Castello","Calle Del Pestrin","3882","CS3882","Calle Del Pestrin 3882","","45.4348761","12.3480184"
"0319003903_","Store location - 0319003903_","","CS","Castello","Calle Crosera","3903","CS3903","Calle Crosera 3903","","45.4345892","12.3472477"
"0319003960A","Store location - 0319003960A","","CS","Castello","Calle Crosera","3960A","CS3960A","Calle Crosera 3960A","","45.4343996","12.347604"
"0319003962A","Store location - 0319003962A","","CS","Castello","Calle Crosera","3962A","CS3962A","Calle Crosera 3962A","","45.43434081","12.3476411"
"0319003976_","Store location - 0319003976_","","CS","Castello","Calle De La Pescaria","3976","CS3976","Calle De La Pescaria 3976","","45.4338822","12.34750451"
"0319004118_","Store location - 0319004118_","","CS","Castello","Riva Dei Schiavoni","4118","CS4118","Riva Dei Schiavoni 4118","","45.43375118","12.34749537"
"0319004129_","Store location - 0319004129_","","CS","Castello","Riva Dei Schiavoni","4129","CS4129","Riva Dei Schiavoni 4129","","45.4338473","12.3468503"
"0319004229_","Store location - 0319004229_","","CS","Castello","Calle Dei Albanesi","4229","CS4229","Calle Dei Albanesi 4229","","45.43455268","12.34144946"
"0319004236_","Store location - 0319004236_","","CS","Castello","Calle Dei Albanesi","4236","CS4236","Calle Dei Albanesi 4236","","45.4348111","12.3415028"
"0319004254_","Store location - 0319004254_","","CS","Castello","Calle Dei Albanesi","4254","CS4254","Calle Dei Albanesi 4254","","45.43456535","12.34141561"
"0319004263_","Store location - 0319004263_","","CS","Castello","Calle Dei Albanesi","4263","CS4263","Calle Dei Albanesi 4263","","45.4347004","12.3414521"
"0319004267_","Store location - 0319004267_","","CS","Castello","Calle Dei Albanesi","4267","CS4267","Calle Dei Albanesi 4267","","45.4348021","12.3414749"
"0319004269A","Store location - 0319004269A","","CS","Castello","Calle Dei Albanesi","4269A","CS4269A","Calle Dei Albanesi 4269A","","45.4348981","12.3414922"
"0319004316_","Store location - 0319004316_","","CS","Castello","Ruga Giuffa Santa Apollonia","4316","CS4316","Ruga Giuffa Santa Apollonia 4316","","45.43501211","12.34080586"
"0319004402_","Store location - 0319004402_","","CS","Castello","Fondamenta Del Rimedio","4402","CS4402","Fondamenta Del Rimedio 4402","","45.4360089","12.3410067"
"0319004421A","Store location - 0319004421A","","CS","Castello","Calle Del Rimedio","4421A","CS4421A","Calle Del Rimedio 4421A","","45.436053","12.3407038"
"0319004452A","Store location - 0319004452A","","CS","Castello","Calle De La Sacrestia","4452A","CS4452A","Calle De La Sacrestia 4452A","","45.4355076","12.3421292"
"0319004474_","Store location - 0319004474_","","CS","Castello","Calle Pianton","4474","CS4474","Calle Pianton 4474","","45.4354872","12.3422515"
"0319004491_","Store location - 0319004491_","","CS","Castello","Calle De La Sacrestia","4491","CS4491","Calle De La Sacrestia 4491","","45.4354928","12.3420948"
"0319004500A","Store location - 0319004500A","","CS","Castello","Calle Rimpetto La Sacrestia","4500A","CS4500A","Calle Rimpetto La Sacrestia 4500A","","45.4353586","12.3417323"
"0319004506_","Store location - 0319004506_","","CS","Castello","Calle Rimpetto La Sacrestia","4506","CS4506","Calle Rimpetto La Sacrestia 4506","","45.43523152","12.34171214"
"0319004516_","Store location - 0319004516_","","CS","Castello","Salizada San Provolo","4516","CS4516","Salizada San Provolo 4516","","45.4350141","12.34191154"
"0319004683C","Store location - 0319004683C","","CS","Castello","Campo San Zaccaria","4683C","CS4683C","Campo San Zaccaria 4683C","","45.4346999","12.3429171"
"0319004714A","Store location - 0319004714A","","CS","Castello","Sotoportego San Provolo","4714A","CS4714A","Sotoportego San Provolo 4714A","","45.43531019","12.34276399"
"0319004719_","Store location - 0319004719_","","CS","Castello","Calle San Provolo","4719","CS4719","Calle San Provolo 4719","","45.43546554","12.34292533"
"0319004897B","Store location - 0319004897B","","CS","Castello","Ruga Giuffa","4897B","CS4897B","Ruga Giuffa 4897B","","45.43642301","12.34224457"
"0319004903_","Store location - 0319004903_","","CS","Castello","Calle De L'Arco Detta Bon","4903","CS4903","Calle De L'Arco Detta Bon 4903","","45.4364558","12.3425464"
"0319004933_","Store location - 0319004933_","","CS","Castello","Salizada Zorzi","4933","CS4933","Salizada Zorzi 4933","","45.43610131","12.34291909"
"0319004942_","Store location - 0319004942_","","CS","Castello","Salizada Zorzi","4942","CS4942","Salizada Zorzi 4942","","45.4360724","12.3427834"
"0319004959_","Store location - 0319004959_","","CS","Castello","Calle Corte Rota","4959","CS4959","Calle Corte Rota 4959","","45.43564524","12.34291067"
"0319004976B","Store location - 0319004976B","","CS","Castello","Fondamenta De L'Osmarin","4976B","CS4976B","Fondamenta De L'Osmarin 4976B","","45.43563893","12.34393141"
"0319005000_","Store location - 0319005000_","","CS","Castello","Campo San Severo","5000","CS5000","Campo San Severo 5000","","45.4359523","12.3434008"
"0319005029A","Store location - 0319005029A","","CS","Castello","Fondamenta San Lorenzo","5029A","CS5029A","Fondamenta San Lorenzo 5029A","","45.4361457","12.3442737"
"0319005032_","Store location - 0319005032_","","CS","Castello","Fondamenta San Lorenzo","5032","CS5032","Fondamenta San Lorenzo 5032","","45.43624301","12.3442611"
"0319005087A","Store location - 0319005087A","","CS","Castello","Borgoloco San Lorenzo","5087A","CS5087A","Borgoloco San Lorenzo 5087A","","45.4370574","12.3429827"
"0319005134_","Store location - 0319005134_","","CS","Castello","Calle Larga San Lorenzo","5134","CS5134","Calle Larga San Lorenzo 5134","","45.4372642","12.343054"
"0319005134A","Store location - 0319005134A","","CS","Castello","Calle Larga San Lorenzo","5134A","CS5134A","Calle Larga San Lorenzo 5134A","","45.43726","12.3429815"
"0319005142_","Store location - 0319005142_","","CS","Castello","Calle De La Madoneta","5142","CS5142","Calle De La Madoneta 5142","","45.4373751","12.342919"
"0319005162A","Store location - 0319005162A","","CS","Castello","Calle De La Madoneta","5162A","CS5162A","Calle De La Madoneta 5162A","","45.4376169","12.3429741"
"0319005164_","Store location - 0319005164_","","CS","Castello","Calle De La Madoneta","5164","CS5164","Calle De La Madoneta 5164","","45.4376526","12.342979"
"0319005185_","Store location - 0319005185_","","CS","Castello","Calle Longa Santa Maria Formosa","5185","CS5185","Calle Longa Santa Maria Formosa 5185","","45.4377367","12.34201307"
"0319005186_","Store location - 0319005186_","","CS","Castello","Calle Longa Santa Maria Formosa","5186","CS5186","Calle Longa Santa Maria Formosa 5186","","45.43771505","12.34195088"
"0319005223_","Store location - 0319005223_","","CS","Castello","Calle Longa Santa Maria Formosa","5223","CS5223","Calle Longa Santa Maria Formosa 5223","","45.437685","12.34185466"
"0319005233_","Store location - 0319005233_","","CS","Castello","Calle Longa Santa Maria Formosa","5233","CS5233","Calle Longa Santa Maria Formosa 5233","","45.43757906","12.34154866"
"0319005268_","Store location - 0319005268_","","CS","Castello","Calle De Le Bande","5268","CS5268","Calle De Le Bande 5268","","45.4367483","12.34035093"
"0319005305_","Store location - 0319005305_","","CS","Castello","Calle Al Ponte De L'Anzolo","5305","CS5305","Calle Al Ponte De L'Anzolo 5305","","45.4361242","12.3398295"
"0319005311_","Store location - 0319005311_","","CS","Castello","Calle Al Ponte De L'Anzolo","5311","CS5311","Calle Al Ponte De L'Anzolo 5311","","45.4359738","12.3400174"
"0319005324_","Store location - 0319005324_","","CS","Castello","Calle De Casseleria","5324","CS5324","Calle De Casseleria 5324","","45.43618441","12.33981513"
"0319005409_","Store location - 0319005409_","0319005408_","CS","Castello","Salizada San Lio","5409","CS5409","Salizada San Lio 5409","Castello Salizada San Lio 5408","45.43684283","12.33978818"
"0319005410_","Store location - 0319005410_","","CS","Castello","Salizada San Lio","5410","CS5410","Salizada San Lio 5410","","45.43689046","12.33973929"
"0319005432_","Store location - 0319005432_","","CS","Castello","Calle Sant'Antonio","5432","CS5432","Calle Sant'Antonio 5432","","45.43692066","12.3393881"
"0319005433_","Store location - 0319005433_","","CS","Castello","Calle Sant'Antonio","5433","CS5433","Calle Sant'Antonio 5433","","45.43690872","12.33937385"
"0319005481_","Store location - 0319005481_","","CS","Castello","Corte Perini","5481","CS5481","Corte Perini 5481","","45.4370816","12.3390062"
"0319005483_","Store location - 0319005483_","","CS","Castello","Calle De La Malvasia","5483","CS5483","Calle De La Malvasia 5483","","45.437","12.33890566"
"0319005484_","Store location - 0319005484_","","CS","Castello","Calle De La Malvasia","5484","CS5484","Calle De La Malvasia 5484","","45.4369548","12.3389074"
"0319005608_","Store location - 0319005608_","","CS","Castello","Calle Al Ponte Sant'Antonio","5608","CS5608","Calle Al Ponte Sant'Antonio 5608","","45.43756449","12.33806522"
"0319005619A","Store location - 0319005619A","","CS","Castello","Calle Al Ponte Sant'Antonio","5619A","CS5619A","Calle Al Ponte Sant'Antonio 5619A","","45.43759887","12.33804415"
"0319005662_","Store location - 0319005662_","","CS","Castello","Salizada San Lio","5662","CS5662","Salizada San Lio 5662","","45.43741931","12.33875183"
"0319005738_","Store location - 0319005738_","","CS","Castello","Calle Del Paradiso","5738","CS5738","Calle Del Paradiso 5738","","45.43735332","12.33966597"
"0319005740_","Store location - 0319005740_","","CS","Castello","Calle Del Paradiso","5740","CS5740","Calle Del Paradiso 5740","","45.4373978","12.3397291"
"0319005751_","Store location - 0319005751_","0319005750_;0319005752_","CS","Castello","Calle Del Paradiso","5751","CS5751","Calle Del Paradiso 5751","Castello Calle Del Paradiso 5750;Castello Calle Del Paradiso 5752","45.43742249","12.33981712"
"0319005754_","Store location - 0319005754_","0319001830_","CS","Castello","Calle Del Paradiso","5754","CS5754","Calle Del Paradiso 5754","Castello Fondamentina 1830","45.43735516","12.33971628"
"0319005758_","Store location - 0319005758_","0319005757_","CS","Castello","Calle Del Paradiso","5758","CS5758","Calle Del Paradiso 5758","Castello Calle Del Paradiso 5757","45.43728764","12.3396282"
"0319005887_","Store location - 0319005887_","","CS","Castello","Calle Marcello O Pindemonte","5887","CS5887","Calle Marcello O Pindemonte 5887","","45.4382151","12.3397865"
"0319005889_","Store location - 0319005889_","0319005890_","CS","Castello","Calle Marcello O Pindemonte","5889","CS5889","Calle Marcello O Pindemonte 5889","Castello Calle Marcello O Pindemonte 5890","45.43822748","12.33972324"
"0319005891_","Store location - 0319005891_","0319005892_","CS","Castello","Calle Marcello O Pindemonte","5891","CS5891","Calle Marcello O Pindemonte 5891","Castello Calle Marcello O Pindemonte 5892","45.4382397","12.339662"
"0319005892A","Store location - 0319005892A","","CS","Castello","Calle Larga","5892A","CS5892A","Calle Larga 5892A","","45.4382113","12.3395302"
"0319005907_","Store location - 0319005907_","","CS","Castello","Campo Santa Marina","5907","CS5907","Campo Santa Marina 5907","","45.43831333","12.33922662"
"0319005987A","Store location - 0319005987A","0319005988_;0319005988A","CS","Castello","Calle De La Malvasia","5987A","CS5987A","Calle De La Malvasia 5987A","Castello Calle De La Malvasia 5988;Castello Calle Del Pistor 5988 A","45.4381721","12.3385754"
"0319005992_","Store location - 0319005992_","","CS","Castello","Calle Del Pistor","5992","CS5992","Calle Del Pistor 5992","","45.43814672","12.3384553"
"0319006014B","Store location - 0319006014B","","CS","Castello","Corte Spechiera","6014B","CS6014B","Corte Spechiera 6014B","","45.4383102","12.3385282"
"0319006031_","Store location - 0319006031_","","CS","Castello","Calle Scaleta","6031","CS6031","Calle Scaleta 6031","","45.4383884","12.3386492"
"0319006040_","Store location - 0319006040_","","CS","Castello","Calle Scaleta","6040","CS6040","Calle Scaleta 6040","","45.43843529","12.33857652"
"0319006042_","Store location - 0319006042_","","CS","Castello","Calle Scaleta","6042","CS6042","Calle Scaleta 6042","","45.4383668","12.3388298"
"0319006042A","Store location - 0319006042A","","CS","Castello","Campo Santa Marina","6042A","CS6042A","Campo Santa Marina 6042A","","45.43837927","12.33893969"
"0319006044_","Store location - 0319006044_","","CS","Castello","Campo Santa Marina","6044","CS6044","Campo Santa Marina 6044","","45.4384519","12.3389635"
"0319006045_","Store location - 0319006045_","","CS","Castello","Ramo Bragadin O Carabba","6045","CS6045","Ramo Bragadin O Carabba 6045","","45.4385361","12.3387227"
"0319006052B","Store location - 0319006052B","","CS","Castello","Ramo Bragadin O Carabba","6052B","CS6052B","Ramo Bragadin O Carabba 6052B","","45.4385264","12.3389286"
"0319006053_","Store location - 0319006053_","","CS","Castello","Campiello De La Chiesa","6053","CS6053","Campiello De La Chiesa 6053","","45.43855516","12.33898007"
"0319006098_","Store location - 0319006098_","","CS","Castello","Campo Santa Marina","6098","CS6098","Campo Santa Marina 6098","","45.4383703","12.3396136"
"0319006102A","Store location - 0319006102A","","CS","Castello","Calle Marcello O Pindemonte","6102A","CS6102A","Calle Marcello O Pindemonte 6102A","","45.4382622","12.339707"
"0319006290_","Store location - 0319006290_","","CS","Castello","Corte Del Verier","6290","CS6290","Corte Del Verier 6290","","45.43875683","12.34216463"
"0319006297_","Store location - 0319006297_","","CS","Castello","Corte Del Verier","6297","CS6297","Corte Del Verier 6297","","45.4386456","12.3420865"
"0319006315A","Store location - 0319006315A","","CS","Castello","Fondamenta Dei Felzi","6315A","CS6315A","Fondamenta Dei Felzi 6315A","","45.438478","12.3417543"
"0319006359_","Store location - 0319006359_","","CS","Castello","Barbaria De Le Tole","6359","CS6359","Barbaria De Le Tole 6359","","45.43871733","12.34271011"
"0319006384_","Store location - 0319006384_","","CS","Castello","Fondamenta San Giovanni Laterano","6384","CS6384","Fondamenta San Giovanni Laterano 6384","","45.43826517","12.34272865"
"0319006400_","Store location - 0319006400_","","CS","Castello","Calle De L'Ospedaleto","6400","CS6400","Calle De L'Ospedaleto 6400","","45.43854219","12.34289156"
"0319006431_","Store location - 0319006431_","","CS","Castello","Barbaria De Le Tole","6431","CS6431","Barbaria De Le Tole 6431","","45.4386026","12.3434697"
"0319006440_","Store location - 0319006440_","","CS","Castello","Barbaria De Le Tole","6440","CS6440","Barbaria De Le Tole 6440","","45.43854786","12.34396878"
"0319006443_","Store location - 0319006443_","","CS","Castello","Barbaria De Le Tole","6443","CS6443","Barbaria De Le Tole 6443","","45.43852408","12.34409378"
"0319006471_","Store location - 0319006471_","","CS","Castello","Calle Del Cafetier","6471","CS6471","Calle Del Cafetier 6471","","45.43852267","12.34445681"
"0319006477A","Store location - 0319006477A","0319006476_","CS","Castello","Calle Del Cafetier","6477A","CS6477A","Calle Del Cafetier 6477A","Castello Calle Del Cafetier 6476","45.43849556","12.34470153"
"0319006479A","Store location - 0319006479A","","CS","Castello","Calle Del Cafetier","6479A","CS6479A","Calle Del Cafetier 6479A","","45.43848078","12.34481688"
"0319006514_","Store location - 0319006514_","","CS","Castello","Calle Zon","6514","CS6514","Calle Zon 6514","","45.43824775","12.34562257"
"0319006549_","Store location - 0319006549_","","CS","Castello","Calle Zon","6549","CS6549","Calle Zon 6549","","45.4382561","12.3455405"
"0319006658A","Store location - 0319006658A","0319006658B","CS","Castello","Calle Del Cafetier","6658A","CS6658A","Calle Del Cafetier 6658A","Castello Calle Nicolo' Massa 6658 B","45.43855092","12.34455881"
"031900668A","Store location - 031900668A","","CS","Castello","Barbaria De Le Tole","6680A","CS6680A","Barbaria De Le Tole 6680A","","45.438853","12.3433472"
"0319001597_","Store location - 0319001597_","","CS","Castello","Via Garibaldi","1597","CS1597","Via Garibaldi 1597","","45.43206342","12.35204833"
"0319001791_","Store location - 0319001791_","","CS","Castello","Via Garibaldi","1791","CS1791","Via Garibaldi 1791","","45.43239108","12.35351261"
"0319001815_","Store location - 0319001815_","","CS","Castello","Via Garibaldi","1815","CS1815","Via Garibaldi 1815","","45.43252033","12.35496209"
"0319003148A","Store location - 0319003148A","","CS","Castello","Salizada San Francesco","3148A","CS3148A","Salizada San Francesco 3148A","","45.4370282","12.3473452"
"0319003314_","Store location - 0319003314_","","CS","Castello","Salizada Dei Greci","3314","CS3314","Salizada Dei Greci 3314","","45.43563026","12.34537514"
"0319003371A","Store location - 0319003371A","","CS","Castello","Fondamenta San Giorgio Dei Schiavoni","3371A","CS3371A","Fondamenta San Giorgio Dei Schiavoni 3371A","","45.4360875","12.34570889"
"0319003403_","Store location - 0319003403_","","CS","Castello","Calle De La Madona","3403","CS3403","Calle De La Madona 3403","","45.4357615","12.3449035"
"0319003478A","Store location - 0319003478A","","CS","Castello","Salizada Sant'Antonin","3478A","CS3478A","Salizada Sant'Antonin 3478A","","45.43540007","12.3465261"
"0319003600B","Store location - 0319003600B","","CS","Castello","Salizada Del Pignater","3600B","CS3600B","Salizada Del Pignater 3600B","","45.43488338","12.34713113"
"0319003725_","Store location - 0319003725_","0319003726_","CS","Castello","Campo Bandiera E Moro","3725","CS3725","Campo Bandiera E Moro 3725","Castello Campo Bandiera E Moro 3726","45.434526","12.34636619"
"0319003800_","Store location - 0319003800_","","CS","Castello","Calle Del Dose","3800","CS3800","Calle Del Dose 3800","","45.43429166","12.34637223"
"0319003913_","Store location - 0319003913_","","CS","Castello","Calle Crosera","3913","CS3913","Calle Crosera 3913","","45.43443418","12.34762397"
"0319003964_","Store location - 0319003964_","","CS","Castello","Campiello Pescaria","3964","CS3964","Campiello Pescaria 3964","","45.4342739","12.3476491"
"0319004275_","Store location - 0319004275_","","CS","Castello","Campo Santi Filippo E Giacomo","4275","CS4275","Campo Santi Filippo E Giacomo 4275","","45.4350307","12.3413394"
"0319004702_","Store location - 0319004702_","","CS","Castello","Campo San Provolo","4702","CS4702","Campo San Provolo 4702","","45.43510732","12.34264157"
"0319004716B","Store location - 0319004716B","","CS","Castello","Calle San Provolo","4716B","CS4716B","Calle San Provolo 4716B","","45.43535485","12.34282895"
"0319004851B","Store location - 0319004851B","","CS","Castello","Ruga Giuffa","4851B","CS4851B","Ruga Giuffa 4851B","","45.43674382","12.3418586"
"0319005174_","Store location - 0319005174_","","CS","Castello","Fondamenta Tetta","5174","CS5174","Fondamenta Tetta 5174","","45.4379612","12.34251213"
"0319005239_","Store location - 0319005239_","","CS","Castello","Calle Longa Santa Maria Formosa","5239","CS5239","Calle Longa Santa Maria Formosa 5239","","45.4374936","12.341381"
"0319005254_","Store location - 0319005254_","","CS","Castello","Campo Santa Maria Formosa","5254","CS5254","Campo Santa Maria Formosa 5254","","45.4368046","12.3412154"
"0319005349_","Store location - 0319005349_","","CS","Castello","Calle De Le Bande","5349","CS5349","Calle De Le Bande 5349","","45.43653096","12.33980637"
"0319005366_","Store location - 0319005366_","0319005365_","CS","Castello","Calle Al Ponte De La Guerra","5366","CS5366","Calle Al Ponte De La Guerra 5366","Castello Calle Al Ponte De La Guerra 5365","45.43636822","12.33939763"
"0319005374_","Store location - 0319005374_","","CS","Castello","Calle Al Ponte De La Guerra","5374","CS5374","Calle Al Ponte De La Guerra 5374","","45.43647084","12.339584"
"0319005604_","Store location - 0319005604_","0319005603_","CS","Castello","Campo San Lio","5604","CS5604","Campo San Lio 5604","Castello Campo San Lio 5603","45.43752996","12.33823628"
"0319005786_","Store location - 0319005786_","","CS","Castello","Calle Del Mondo Novo","5786","CS5786","Calle Del Mondo Novo 5786","","45.4369662","12.33991918"
"0319005791_","Store location - 0319005791_","","CS","Castello","Calle Del Mondo Novo","5791","CS5791","Calle Del Mondo Novo 5791","","45.43709036","12.34019959"
"0319005842_","Store location - 0319005842_","","CS","Castello","Fondamenta Dei Preti","5842","CS5842","Fondamenta Dei Preti 5842","","45.4374799","12.3402103"
"0319005851_","Store location - 0319005851_","","CS","Castello","Campo Santa Maria Formosa","5851","CS5851","Campo Santa Maria Formosa 5851","","45.43721999","12.34059134"
"0319006031A","Store location - 0319006031A","","CS","Castello","Calle Scaleta","6031A","CS6031A","Calle Scaleta 6031A","","45.4384041","12.3385846"
"0319006096_","Store location - 0319006096_","","CS","Castello","Campo Santa Marina","6096","CS6096","Campo Santa Marina 6096","","45.43839459","12.33962207"
"0319006252_","Store location - 0319006252_","","CS","Castello","Calle Longa Santa Maria Formosa","6252","CS6252","Calle Longa Santa Maria Formosa 6252","","45.4378099","12.3421649"
"0319006442_","Store location - 0319006442_","","CS","Castello","Barbaria De Le Tole","6442","CS6442","Barbaria De Le Tole 6442","","45.4385291","12.34406376"
"0319006666_","Store location - 0319006666_","0319006668A;0319006667_","CS","Castello","Barbaria De Le Tole","6666","CS6666","Barbaria De Le Tole 6666","Castello Barbaria De Le Tole 6668 A;Castello Barbaria De Le Tole 6667","45.43861479","12.34386716"
"0319003320_","Store location - 0319003320_","","CS","Castello","Salizada Dei Greci","3320","CS3320","Salizada Dei Greci 3320","","45.43572573","12.34511727"
"0319004695_","Store location - 0319004695_","","CS","Castello","Campo San Zaccaria","4695","CS4695","Campo San Zaccaria 4695","","45.4348853","12.3431141"
"0319006374_","Store location - 0319006374_","0319006373A","CS","Castello","Calle De L'Ospedaleto","6374","CS6374","Calle De L'Ospedaleto 6374","Castello Calle De L'Ospedaleto 6373 A","45.43853054","12.34282616"
"0319000986_","Store location - 0319000986_","","CS","Castello","Seco Marina","986","CS986","Seco Marina 986","","45.43115872","12.35676464"
"0319001735_","Store location - 0319001735_","","CS","Castello","Via Garibaldi","1735","CS1735","Via Garibaldi 1735","","45.4321941","12.3518474"
"0319004826_","Store location - 0319004826_","","CS","Castello","Ruga Giuffa","4826","CS4826","Ruga Giuffa 4826","","45.43621481","12.34233395"
"0319005237_","Store location - 0319005237_","","CS","Castello","Calle Longa Santa Maria Formosa","5237","CS5237","Calle Longa Santa Maria Formosa 5237","","45.43752645","12.34144618"
"0319001767_","Store location - 0319001767_","","CS","Castello","Via Garibaldi","1767","CS1767","Via Garibaldi 1767","","45.43226582","12.3524382"
"0319001787_","Store location - 0319001787_","","CS","Castello","Via Garibaldi","1787","CS1787","Via Garibaldi 1787","","45.43235594","12.3532936"
"0319003385E","Store location - 0319003385E","","CS","Castello","Calle Lion","3385E","CS3385E","Calle Lion 3385E","","45.4362042","12.3453531"
"0319005029_","Store location - 0319005029_","","CS","Castello","Fondamenta San Lorenzo","5029","CS5029","Fondamenta San Lorenzo 5029","","45.43608108","12.3442735"
"0319005248A","Store location - 0319005248A","","CS","Castello","Campo Santa Maria Formosa","5248A","CS5248A","Campo Santa Maria Formosa 5248A","","45.4370965","12.3415532"
"0319005381_","Store location - 0319005381_","","CS","Castello","Calle De Le Bande","5381","CS5381","Calle De Le Bande 5381","","45.43659844","12.33984606"
"0319005661A","Store location - 0319005661A","0319005661_","CS","Castello","Campo San Lio","5661A","CS5661A","Campo San Lio 5661A","Castello Campo San Lio 5661","45.43767738","12.33861301"
"0319006153_","Store location - 0319006153_","","CS","Castello","Calle Longa Santa Maria Formosa","6153","CS6153","Calle Longa Santa Maria Formosa 6153","","45.43756768","12.34146016"
"0319006184_","Store location - 0319006184_","","CS","Castello","Calle Longa Santa Maria Formosa","6184","CS6184","Calle Longa Santa Maria Formosa 6184","","45.43760413","12.34153151"
"0319004700A","Store location - 0319004700A","","CS","Castello","Campo San Provolo","4700A","CS4700A","Campo San Provolo 4700A","","45.43501705","12.34259874"
"0319005673_","Store location - 0319005673_","0319005674_","CS","Castello","Salizada San Lio","5673","CS5673","Salizada San Lio 5673","Castello Salizada San Lio 5674","45.43738661","12.33889728"
"0319006187_","Store location - 0319006187_","","CS","Castello","Calle Longa Santa Maria Formosa","6187","CS6187","Calle Longa Santa Maria Formosa 6187","","45.43763885","12.34162155"
"0319001129_","Store location - 0319001129_","03190011130_;0319001131_","CS","Castello","Campiello De Le Ancore","1129","CS1129","Campiello De Le Ancore 1129","Castello Campiello De Le Ancore 1130;Castello Fondamenta Sant'Anna 1131","45.43241789","12.35584884"
"0319006141_","Store location - 0319006141_","","CS","Castello","Ramo Del Pestrin","6141","CS6141","Ramo Del Pestrin 6141","","45.4379692","12.3411584"
"0319006661V","Store location - 0319006661V","","CS","Castello","Calle Nicolo' Massa","6661V","CS6661V","Calle Nicolo' Massa 6661V","","45.4388481","12.3446046"
"0319001513_","Store location - 0319001513_","","CS","Castello","Via Garibaldi","1513","CS1513","Via Garibaldi 1513","","45.43220422","12.35327097"
"0319003402_","Store location - 0319003402_","","CS","Castello","Campiello De La Fraterna","3402","CS3402","Campiello De La Fraterna 3402","","45.4357807","12.3450341"
"0319006095_","Store location - 0319006095_","","CS","Castello","Campo Santa Marina","6095","CS6095","Campo Santa Marina 6095","","45.43843269","12.33964074"
"0319006371_","Store location - 0319006371_","","CS","Castello","Calle De L'Ospedaleto","6371","CS6371","Calle De L'Ospedaleto 6371","","45.4385941","12.3428692"
"0319006468_","Store location - 0319006468_","","CS","Castello","Barbaria De Le Tole","6468","CS6468","Barbaria De Le Tole 6468","","45.43850911","12.34425301"
"0319001342_","Store location - 0319001342_","","CS","Castello","Via Garibaldi","1342","CS1342","Via Garibaldi 1342","","45.43229242","12.35382252"
"0319002141_","Store location - 0319002141_","","CS","Castello","Riva San Biasio","2141","CS2141","Riva San Biasio 2141","","45.4322802","12.3503311"
"0319004515_","Store location - 0319004515_","","CS","Castello","Salizada San Provolo","4515","CS4515","Salizada San Provolo 4515","","45.43501649","12.3418613"
"0319004977_","Store location - 0319004977_","","CS","Castello","Fondamenta De L'Osmarin","4977","CS4977","Fondamenta De L'Osmarin 4977","","45.43565056","12.3440829"
"0319005377_","Store location - 0319005377_","","CS","Castello","Calle Al Ponte De La Guerra","5377","CS5377","Calle Al Ponte De La Guerra 5377","","45.43651506","12.33967254"
"0319005727_","Store location - 0319005727_","","CS","Castello","Salizada San Lio","5727","CS5727","Salizada San Lio 5727","","45.43722375","12.33932524"
"0319003169_","Store location - 0319003169_","","CS","Castello","Salizada San Francesco","3169","CS3169","Salizada San Francesco 3169","","45.43692829","12.34729831"
"0319003495_","Store location - 0319003495_","","CS","Castello","Salizada Sant'Antonin","3495","CS3495","Salizada Sant'Antonin 3495","Castello Salizada Sant'Antonin 3496","45.4354384","12.3466374"
"0319003966_","Store location - 0319003966_","","CS","Castello","Campiello Pescaria","3966","CS3966","Campiello Pescaria 3966","","45.4342237","12.3476393"
"0319004319_","Store location - 0319004319_","","CS","Castello","Ruga Giuffa Santa Apollonia","4319","CS4319","Ruga Giuffa Santa Apollonia 4319","","45.43503157","12.34090515"
"0319004379A","Store location - 0319004379A","","CS","Castello","Calle Rimpetto La Sacrestia","4379A","CS4379A","Calle Rimpetto La Sacrestia 4379A","","45.4354643","12.3417089"
"0319005644_","Store location - 0319005644_","","CS","Castello","Calle Del Pistor","5644","CS5644","Calle Del Pistor 5644","","45.4379216","12.3383778"
"0319006006A","Store location - 0319006006A","","CS","Castello","Sotoportego Spechiera","6006A","CS6006A","Sotoportego Spechiera 6006A","","45.4382547","12.33843535"
"0319006231_","Store location - 0319006231_","","CS","Castello","Calle Longa Santa Maria Formosa","6231","CS6231","Calle Longa Santa Maria Formosa 6231","","45.4377113","12.34183835"
"0319006336_","Store location - 0319006336_","","CS","Castello","Campo San Zanipolo","6336","CS6336","Campo San Zanipolo 6336","","45.43881736","12.34222884"
"0319000319_","Store location - 0319000319_","0319000320_","CS","Castello","Calle Maraffoni","319","CS319","Calle Maraffoni 319","Castello Calle Maraffoni 320;Castello Calle Maraffoni 321","45.4335947","12.3575849"
"0319000768_","Store location - 0319000768_","","CS","Castello","Seco Marina","768","CS768","Seco Marina 768","","45.43109033","12.35672208"
"0319000769_","Store location - 0319000769_","","CS","Castello","Corte Del Solda'","769","CS769","Corte Del Solda' 769","","45.43107206","12.35670448"
"0319000981_","Store location - 0319000981_","","CS","Castello","Seco Marina","981","CS981","Seco Marina 981","","45.4310303","12.3562095"
"0319001797_","Store location - 0319001797_","0319001797B;0319001798_","CS","Castello","Via Garibaldi","1797","CS1797","Via Garibaldi 1797","Castello Via Garibaldi 1797 B;Castello Via Garibaldi 1798","45.43243679","12.35383454"
"0319001800_","Store location - 0319001800_","","CS","Castello","Via Garibaldi","1800","CS1800","Via Garibaldi 1800","","45.43245904","12.35400465"
"0319002422_","Store location - 0319002422_","","CS","Castello","Fondamenta De Fronte A L'Arsenal","2422","CS2422","Fondamenta De Fronte A L'Arsenal 2422","","45.4347997","12.34921845"
"0319002913_","Store location - 0319002913_","0319002914_;0319002910_;0319002911_","CS","Castello","Salizada Santa Giustina","2913","CS2913","Salizada Santa Giustina 2913","Castello Salizada Santa Giustina 2914;Castello Salizada Santa Giustina 2910;Castello Salizada Santa Giustina 2911","45.43738856","12.34657703"
"0319003455_","Store location - 0319003455_","","CS","Castello","Salizada Dei Greci","3455","CS3455","Salizada Dei Greci 3455","","45.43556377","12.34555396"
"0319003540_","Store location - 0319003540_","","CS","Castello","Salizada Sant'Antonin","3540","CS3540","Salizada Sant'Antonin 3540","","45.43516865","12.34688639"
"0319003925_","Store location - 0319003925_","","CS","Castello","Calle Crosera","3925","CS3925","Calle Crosera 3925","","45.43434349","12.34771203"
"0319004608_","Store location - 0319004608_","","CS","Castello","Calle De Le Rasse","4608","CS4608","Calle De Le Rasse 4608","","45.4345817","12.3418331"
"0319004833_","Store location - 0319004833_","","CS","Castello","Ruga Giuffa","4833","CS4833","Ruga Giuffa 4833","","45.43644784","12.34216117"
"0319005065_","Store location - 0319005065_","","CS","Castello","Calle San Lorenzo","5065","CS5065","Calle San Lorenzo 5065","","45.4370029","12.3450174"
"0319005793A","Store location - 0319005793A","0319005793_","CS","Castello","Calle Del Mondo Novo","5793A","CS5793A","Calle Del Mondo Novo 5793A","Castello Calle Del Mondo Novo 5793","45.43714688","12.34031554"
"0319005816_","Store location - 0319005816_","0319005814_;0319005815_;0319005817_;0319005818_;0319005819_","CS","Castello","Calle Del Mondo Novo","5816","CS5816","Calle Del Mondo Novo 5816","Castello Calle Del Mondo Novo 5814;Castello Calle Del Mondo Novo 5815;Salizada San Lio 5817;Castello Salizada San Lio 5818;Castello Salizada San Lio 5819","45.4368848","12.33981093"
"0319005989_","Store location - 0319005989_","0319005979_","CS","Castello","Calle Del Pistor","5989","CS5989","Calle Del Pistor 5989","Castello Calle Martinengo Dalle Palle 5979","45.43808412","12.33845492"
"0319005991_","Store location - 0319005991_","0319005991A","CS","Castello","Fondamenta Del Pistor","5991","CS5991","Fondamenta Del Pistor 5991","Castello Fondamenta Del Pistor 5991 A","45.43806344","12.33840175"
"0319000766A","Store location - 0319000766A","","CS","Castello","Seco Marina","766A","CS766A","Seco Marina 766A","","45.43113385","12.35688587"
"0319000956_","Store location - 0319000956_","","CS","Castello","Fondamenta S. Isepo","956","CS956","Fondamenta S. Isepo 956","","45.43051819","12.35622713"
"0319001563_","Store location - 0319001563_","","CS","Castello","Via Garibaldi","1563","CS1563","Via Garibaldi 1563","","45.43213607","12.35270514"
"0319001665_","Store location - 0319001665_","","CS","Castello","Via Garibaldi","1665","CS1665","Via Garibaldi 1665","","45.43211094","12.35120056"
"0319001786_","Store location - 0319001786_","","CS","Castello","Via Garibaldi","1786","CS1786","Via Garibaldi 1786","","45.43235143","12.35325602"
"0319002432_","Store location - 0319002432_","","CS","Castello","Fondamenta Dei Penini","2432","CS2432","Fondamenta Dei Penini 2432","","45.43512698","12.34877893"
"0319002594_","Store location - 0319002594_","","CS","Castello","Calle De L'Anzolo","2594","CS2594","Calle De L'Anzolo 2594","","45.4363762","12.3490538"
"0319002855A","Store location - 0319002855A","","CS","Castello","Calle Del Fontego","2855A","CS2855A","Calle Del Fontego 2855A","","45.4375594","12.3462996"
"0319003924_","Store location - 0319003924_","","CS","Castello","Calle Crosera","3924","CS3924","Calle Crosera 3924","","45.43437482","12.34768347"
"0319004827_","Store location - 0319004827_","0319004828_","CS","Castello","Ruga Giuffa","4827","CS4827","Ruga Giuffa 4827","Castello Ruga Giuffa 4828","45.43624444","12.34230367"
"0319005174A","Store location - 0319005174A","","CS","Castello","Fondamenta Tetta","5174A","CS5174A","Fondamenta Tetta 5174A","","45.43793262","12.34250578"
"0319005328_","Store location - 0319005328_","","CS","Castello","Calle De Casseleria","5328","CS5328","Calle De Casseleria 5328","","45.436258","12.339964"
"0319005611_","Store location - 0319005611_","","CS","Castello","Calle Al Ponte Sant'Antonio","5611","CS5611","Calle Al Ponte Sant'Antonio 5611","","45.4376001","12.33790988"
"0319005789A","Store location - 0319005789A","","CS","Castello","Calle Del Mondo Novo","5789A","CS5789A","Calle Del Mondo Novo 5789A","","45.43704901","12.34010132"
"0319005906_","Store location - 0319005906_","","CS","Castello","Campo Santa Marina","5906","CS5906","Campo Santa Marina 5906","","45.43830196","12.33928899"
"0319006100_","Store location - 0319006100_","","CS","Castello","Campo Santa Marina","6100","CS6100","Campo Santa Marina 6100","","45.43830863","12.33958853"
"0319006639_","Store location - 0319006639_","","CS","Castello","Campo De Santa Giustina Detto De Barbaria","6639","CS6639","Campo De Santa Giustina Detto De Barbaria 6639","","45.43850988","12.34521279"
"0319006807_","Store location - 0319006807_","0319006806_","CS","Castello","Campo San Zanipolo","6807","CS6807","Campo San Zanipolo 6807","Castello Sotoportego Bressana 6806","45.43896914","12.3415833"
"0319003155_","Store location - 0319003155_","","CS","Castello","Salizada San Francesco","3155","CS3155","Salizada San Francesco 3155","","45.43725319","12.34731629"
"0319003303_","Store location - 0319003303_","","CS","Castello","Salizada Dei Greci","3303","CS3303","Salizada Dei Greci 3303","","45.4356162","12.345944"
"0319003811_","Store location - 0319003811_","0319003811A","CS","Castello","Campo Bandiera E Moro","3811","CS3811","Campo Bandiera E Moro 3811","Castello Campo Bandiera E Moro 3811 A","45.43460656","12.34693599"
"0319005026_","Store location - 0319005026_","","CS","Castello","Calle Dei Preti","5026","CS5026","Calle Dei Preti 5026","","45.4360522","12.3440774"
"0319005821_","Store location - 0319005821_","0319005822_;0319005823_;0319005824_;0319005825_;0319005835_","CS","Castello","Salizada San Lio","5821","CS5821","Salizada San Lio 5821","Castello Salizada San Lio 5822;Castello Salizada San Lio 5823;Calle De Le Bande 5824;Calle De Le Bande 5825;Calle De Le Bande 5835","45.43675089","12.33992909"
"0319006121A","Store location - 0319006121A","","CS","Castello","Campo Santa Maria Formosa","6121A","CS6121A","Campo Santa Maria Formosa 6121A","","45.4379413","12.3406608"
"0319001650_","Store location - 0319001650_","","CS","Castello","Via Garibaldi","1650","CS1650","Via Garibaldi 1650","","45.43208952","12.35103394"
"0319001931_","Store location - 0319001931_","","CS","Castello","Calle Contarini","1931","CS1931","Calle Contarini 1931","","45.43283481","12.35383517"
"0319003257_","Store location - 0319003257_","","CS","Castello","Corte San Giovanni Di Malta","3257","CS3257","Corte San Giovanni Di Malta 3257","","45.4364","12.346037"
"0319003405_","Store location - 0319003405_","","CS","Castello","Calle De La Madona","3405","CS3405","Calle De La Madona 3405","","45.4357697","12.3447986"
"0319003541_","Store location - 0319003541_","","CS","Castello","Salizada Sant'Antonin","3541","CS3541","Salizada Sant'Antonin 3541","","45.43512906","12.34690021"
"0319003608_","Store location - 0319003608_","0319003609_","CS","Castello","Campo Bandiera E Moro","3608","CS3608","Campo Bandiera E Moro 3608","Castello Campo Bandiera E Moro 3609","45.4348398","12.3467565"
"0319003649_","Store location - 0319003649_","0319003650_;0319003651_;03190036052_;03190036053_;03190036054_;03190036055_;03190036056_;03190036057_","CS","Castello","Corte Bollani","3649","CS3649","Corte Bollani 3649","Castello Sotoportego Corte Bollani 3650;Castello Calle Drio La Pieta' 3651;Castello Calle Bosello 3652;Castello Calle Bosello 3653;Castello Calle Bosello 3654;Castello Calle Bosello 3655;Castello Calle Bosello 3656;Castello Calle Bosello 3657","45.434943","12.3453079"
"0319003801_","Store location - 0319003801_","0319003801A","CS","Castello","Calle Del Dose","3801","CS3801","Calle Del Dose 3801","Castello Calle Del Dose 3801 A","45.4343136","12.3463763"
"0319003845_","Store location - 0319003845_","","CS","Castello","Ramo Dei Corazzieri","3845","CS3845","Ramo Dei Corazzieri 3845","","45.4350082","12.34774698"
"0319003980_","Store location - 0319003980_","0319003979_;0319003979A","CS","Castello","Calle De La Pescaria","3980","CS3980","Calle De La Pescaria 3980","Castello Calle De La Pescaria 3979;Castello Calle De La Pescaria 3979 A","45.43400799","12.34760979"
"0319004093_","Store location - 0319004093_","0319004097_;0319004098_;0319004099_;0319004109_;0319004110_;0319004111_;0319004112_;0319004113_;0319004114_;0319004115_","CS","Castello","Riva Dei Schiavoni","4093","CS4093","Riva Dei Schiavoni 4093","Castello Riva Dei Schiavoni 4097;Castello Riva Dei Schiavoni 4098;Castello Riva Dei Schiavoni 4099;Castello Riva Dei Schiavoni 4108;Castello Riva Dei Schiavoni 4109;Castello Riva Dei Schiavoni 4110;Castello Riva Dei Schiavoni 4111;Castello Riva Dei Schiavoni 4112;Castello Riva Dei Schiavoni 4113;Castello Riva Dei Schiavoni 4114;Castello Riva Dei Schiavoni 4115","45.43362581","12.34792331"
"0319004152_","Store location - 0319004152_","","CS","Castello","Riva Dei Schiavoni","4152","CS4152","Riva Dei Schiavoni 4152","","45.434045","12.3446341"
"0319004163_","Store location - 0319004163_","0319004164_","CS","Castello","Riva Dei Schiavoni","4163","CS4163","Riva Dei Schiavoni 4163","Castello Riva Dei Schiavoni 4164","45.434078","12.3437583"
"0319004166_","Store location - 0319004166_","0319004167_;0319004168_;0319004169_","CS","Castello","Riva Dei Schiavoni","4166","CS4166","Riva Dei Schiavoni 4166","Castello Riva Dei Schiavoni 4167;Castello Riva Dei Schiavoni 4168;Castello Riva Dei Schiavoni 4169","45.43407","12.3436408"
"0319004181_","Store location - 0319004181_","0319004182_","CS","Castello","Riva Dei Schiavoni","4181","CS4181","Riva Dei Schiavoni 4181","Castello Riva Dei Schiavoni 4182","45.4340403","12.3431345"
"0319004187_","Store location - 0319004187_","","CS","Castello","Riva Dei Schiavoni","4187","CS4187","Riva Dei Schiavoni 4187","","45.4340188","12.3428465"
"0319004194_","Store location - 0319004194_","0319004193_;0319004195_;0319004196_;0319004197_;0319004198_;0319004199_;0319004200_;","CS","Castello","Riva Dei Schiavoni","4194","CS4194","Riva Dei Schiavoni 4194","Castello Riva Dei Schiavoni 4193;Castello Riva Dei Schiavoni 4195;Castello Riva Dei Schiavoni 4196;Castello Riva Dei Schiavoni 4197;Castello Riva Dei Schiavoni 4198;Castello Riva Dei Schiavoni 4199;Castello Calle Dei Albanesi 4210","45.4338795","12.342152"
"0319004248_","Store location - 0319004248_","","CS","Castello","Calle Dei Albanesi","4248","CS4248","Calle Dei Albanesi 4248","","45.4343877","12.3414084"
"0319004270_","Store location - 0319004270_","","CS","Castello","Calle Dei Albanesi","4270","CS4270","Calle Dei Albanesi 4270","","45.4349425","12.3415008"
"0319004358_","Store location - 0319004358_","0319004358A","CS","Castello","Campo Santi Filippo E Giacomo","4358","CS4358","Campo Santi Filippo E Giacomo 4358","Castello Campo Santi Filippo E Giacomo 4358 A","45.4351712","12.3415565"
"0319004365_","Store location - 0319004365_","","CS","Castello","Calle Del Figher","4365","CS4365","Calle Del Figher 4365","","45.4354262","12.341535"
"0319004370_","Store location - 0319004370_","","CS","Castello","Calle Del Figher","4370","CS4370","Calle Del Figher 4370","","45.4354069","12.3411384"
"0319004388_","Store location - 0319004388_","","CS","Castello","Campo San Zuane Novo","4388","CS4388","Campo San Zuane Novo 4388","","45.435629","12.3412281"
"0319004410_","Store location - 0319004410_","0319004413_;0319004412_;0319004411_","CS","Castello","Corte Rota Detta Campana","4410","CS4410","Corte Rota Detta Campana 4410","Castello Corte Rota Detta Campana 4413;Castello Corte Rota Detta Campana 4412;Castello Corte Rota Detta Campana 4411","45.4358424","12.3406195"
"0319004416_","Store location - 0319004416_","0319004418_","CS","Castello","Calle Del Rimedio","4416","CS4416","Calle Del Rimedio 4416","Castello Calle Del Rimedio 4418","45.4358422","12.3403798"
"0319004422C","Store location - 0319004422C","0319004423_","CS","Castello","Fondamenta Del Rimedio","4422C","CS4422C","Fondamenta Del Rimedio 4422C","Castello Fondamenta Del Rimedio 4423","45.436244","12.3407738"
"0319004428_","Store location - 0319004428_","0319004429_","CS","Castello","Fondamenta Del Rimedio","4428","CS4428","Fondamenta Del Rimedio 4428","Castello Fondamenta Del Rimedio 4429","45.4360811","12.3410311"
"0319004432_","Store location - 0319004432_","0319004432A","CS","Castello","Campo San Zuane Novo","4432","CS4432","Campo San Zuane Novo 4432","Castello Campo San Zuane Novo 4432 A","45.4359771","12.3411384"
"0319004497_","Store location - 0319004497_","0319004498_","CS","Castello","Calle Rimpetto La Sacrestia","4497","CS4497","Calle Rimpetto La Sacrestia 4497","Castello Calle Rimpetto La Sacrestia 4498","45.435471","12.3417491"
"0319004534_","Store location - 0319004534_","","CS","Castello","Calle De Le Rasse","4534","CS4534","Calle De Le Rasse 4534","","45.4346796","12.3417995"
"0319004541_","Store location - 0319004541_","","CS","Castello","Ramo Dei Padovani","4541","CS4541","Ramo Dei Padovani 4541","","45.4343667","12.3416423"
"0319004549_","Store location - 0319004549_","0319004550_;0319004551_;0319004551A","CS","Castello","Calle De Le Rasse","4549","CS4549","Calle De Le Rasse 4549","Castello Calle De Le Rasse 4550;Castello Calle De Le Rasse 4551;Castello Calle De Le Rasse 4551 A","45.4343424","12.3417912"
"0319004590_","Store location - 0319004590_","0319004127_","CS","Castello","Calle De Le Rasse","4590","CS4590","Calle De Le Rasse 4590","Castello Riva Dei Schiavoni 4127","45.43453683","12.34183338"
"0319004646_","Store location - 0319004646_","0319004646A;0319004647_","CS","Castello","Calle Del Vin","4646","CS4646","Calle Del Vin 4646","Castello Calle Del Vin 4646 A;Castello Campiello Del Vin 4647","45.4342859","12.3425781"
"0319004656_","Store location - 0319004656_","","CS","Castello","Fondamenta Del Vin","4656","CS4656","Fondamenta Del Vin 4656","","45.4346664","12.3422665"
"0319004661_","Store location - 0319004661_","","CS","Castello","Fondamenta Del Vin","4661","CS4661","Fondamenta Del Vin 4661","","45.4347852","12.3422503"
"0319004684_","Store location - 0319004684_","","CS","Castello","Campo San Zaccaria","4684","CS4684","Campo San Zaccaria 4684","","45.4345795","12.3429292"
"0319004687_","Store location - 0319004687_","0319004687A","CS","Castello","Calle San Zaccaria","4687","CS4687","Calle San Zaccaria 4687","Castello Calle San Zaccaria 4687 A","45.4343047","12.3428686"
"0319004701A","Store location - 0319004701A","0319004701_","CS","Castello","Campo San Provolo","4701A","CS4701A","Campo San Provolo 4701A","Castello Campo San Provolo 4701","45.43507414","12.34262537"
"0319004765_","Store location - 0319004765_","","CS","Castello","Ponte Storto","4765","CS4765","Ponte Storto 4765","","45.4359466","12.3419202"
"0319004838_","Store location - 0319004838_","0319004840_","CS","Castello","Ruga Giuffa","4838","CS4838","Ruga Giuffa 4838","Castello Ruga Giuffa 4840","45.43658468","12.34202949"
"0319004852_","Store location - 0319004852_","","CS","Castello","Ruga Giuffa","4852","CS4852","Ruga Giuffa 4852","","45.4368331","12.3417691"
"0319004857_","Store location - 0319004857_","","CS","Castello","Ramo Grimani","4857","CS4857","Ramo Grimani 4857","","45.4368788","12.3420474"
"0319004860_","Store location - 0319004860_","","CS","Castello","Ramo Grimani","4860","CS4860","Ramo Grimani 4860","","45.4368017","12.3419633"
"0319004972_","Store location - 0319004972_","","CS","Castello","Fondamenta De L'Osmarin","4972","CS4972","Fondamenta De L'Osmarin 4972","","45.4355905","12.3435535"
"0319004973_","Store location - 0319004973_","","CS","Castello","Fondamenta De L'Osmarin","4973","CS4973","Fondamenta De L'Osmarin 4973","","45.4356016","12.3436089"
"0319004979_","Store location - 0319004979_","0319004979B","CS","Castello","Calle Del Diavolo","4979","CS4979","Calle Del Diavolo 4979","Castello Calle Del Diavolo 4979 B","45.4358528","12.3436204"
"0319004985_","Store location - 0319004985_","","CS","Castello","Fondamenta De L'Osmarin","4985","CS4985","Fondamenta De L'Osmarin 4985","","45.4357498","12.344129"
"0319005242_","Store location - 0319005242_","","CS","Castello","Calle Longa Santa Maria Formosa","5242","CS5242","Calle Longa Santa Maria Formosa 5242","","45.4374309","12.3412543"
"0319005243_","Store location - 0319005243_","","CS","Castello","Campo Santa Maria Formosa","5243","CS5243","Campo Santa Maria Formosa 5243","","45.43738622","12.34126763"
"0319005246_","Store location - 0319005246_","","CS","Castello","Campo Santa Maria Formosa","5246","CS5246","Campo Santa Maria Formosa 5246","","45.4372557","12.3414074"
"0319005257_","Store location - 0319005257_","","CS","Castello","Campiello Querini Stampalia","5257","CS5257","Campiello Querini Stampalia 5257","","45.4366095","12.3410651"
"0319005298_","Store location - 0319005298_","","CS","Castello","Casseleria","5298","CS5298","Casseleria 5298","","45.4362192","12.3401398"
"0319005487_","Store location - 0319005487_","0319005488_;0319005489_","CS","Castello","Calle De La Malvasia","5487","CS5487","Calle De La Malvasia 5487","Castello Calle De La Malvasia 5488;Castello Calle De La Malvasia 5489","45.43685421","12.33894419"
"0319005492A","Store location - 0319005492A","0319005492B","CS","Castello","Calle De La Malvasia","5492A","CS5492A","Calle De La Malvasia 5492A","Castello Ponte De La Malvasia 5492 B","45.4365966","12.3386549"
"0319005607_","Store location - 0319005607_","","CS","Castello","Calle Al Ponte Sant'Antonio","5607","CS5607","Calle Al Ponte Sant'Antonio 5607","","45.4375573","12.338099"
"0319005659_","Store location - 0319005659_","","CS","Castello","Campo San Lio","5659","CS5659","Campo San Lio 5659","","45.4377151","12.3383954"
"0319005726A","Store location - 0319005726A","0319005726_","CS","Castello","Salizada San Lio","5726A","CS5726A","Salizada San Lio 5726A","Castello Calle Del Frutarol 5726","45.43724889","12.33929175"
"0319005841_","Store location - 0319005841_","","CS","Castello","Fondamenta Dei Preti","5841","CS5841","Fondamenta Dei Preti 5841","","45.43749904","12.34019392"
"0319005866_","Store location - 0319005866_","0319005866A","CS","Castello","Campo Santa Maria Formosa","5866","CS5866","Campo Santa Maria Formosa 5866","Castello Campo Santa Maria Formosa 5866 A","45.4377537","12.3406518"
"0319005871_","Store location - 0319005871_","","CS","Castello","Calle Del Dose","5871","CS5871","Calle Del Dose 5871","","45.4381395","12.3401534"
"0319006066A","Store location - 0319006066A","0319006065_;0319006067_;0319006067A;0319006068_;0319006069_;0319006070_","CS","Castello","Campo Santa Marina","6066A","CS6066A","Campo Santa Marina 6066A","Castello Campiello De La Chiesa 6065;Castello Campo Santa Marina 6067;Castello Campo Santa Marina 6067 A;Castello Campo Santa Marina 6068;Castello Campo Santa Marina 6069;Castello Campo Santa Marina 6070","45.4384645","12.3390525"
"0319006104_","Store location - 0319006104_","0319006105_","CS","Castello","Calle Marcello O Pindemonte","6104","CS6104","Calle Marcello O Pindemonte 6104","Castello Calle Marcello O Pindemonte 6105","45.4382526","12.3397559"
"0319006317_","Store location - 0319006317_","","CS","Castello","Fondamenta Dei Felzi","6317","CS6317","Fondamenta Dei Felzi 6317","","45.43848598","12.3416409"
"0319006401_","Store location - 0319006401_","0319006402_","CS","Castello","Calle De L'Ospedaleto","6401","CS6401","Calle De L'Ospedaleto 6401","Castello Calle De L'Ospedaleto 6402","45.43858382","12.34291333"
"0319004148_","Store location - 0319004148_","","CS","Castello","Riva Dei Schiavoni","4148","CS4148","Riva Dei Schiavoni 4148","","45.4339924","12.3452469"
"0319004161_","Store location - 0319004161_","0319004160_;0319004162_","CS","Castello","Riva Dei Schiavoni","4161","CS4161","Riva Dei Schiavoni 4161","Castello Riva Dei Schiavoni 4160;Castello Riva Dei Schiavoni 4162","45.43408597","12.34385101"
"0319004242A","Store location - 0319004242A","0319004242_","CS","Castello","Corte Santa Scolastica","4242A","CS4242A","Corte Santa Scolastica 4242A","Castello Corte Santa Scolastica 4242","45.43435631","12.34124051"
"0319000996_","Store location - 0319000996_","","CS","Castello","Fondamenta Sant'Anna","996","CS996","Fondamenta Sant'Anna 996","","45.43246417","12.35638181"
"0319003150_","Store location - 0319003150_","","CS","Castello","Salizada San Francesco","3150","CS3150","Salizada San Francesco 3150","","45.43711811","12.34733559"
"0319003196A","Store location - 0319003196A","","CS","Castello","Salizada De Le Gatte","3196A","CS3196A","Salizada De Le Gatte 3196A","","45.43658258","12.34756186"
"0319003198_","Store location - 0319003198_","0319003199A","CS","Castello","Salizada De Le Gatte","3198","CS3198","Salizada De Le Gatte 3198","Castello Salizada De Le Gatte 3199 A","45.4365055","12.3476518"
"0319003199_","Store location - 0319003199_","","CS","Castello","Salizada De Le Gatte","3199","CS3199","Salizada De Le Gatte 3199","","45.43649482","12.34766001"
"0319003200_","Store location - 0319003200_","","CS","Castello","Campo De Le Gatte","3200","CS3200","Campo De Le Gatte 3200","","45.43645173","12.3476147"
"0319003247A","Store location - 0319003247A","","CS","Castello","Calle Dei Furlani","3247A","CS3247A","Calle Dei Furlani 3247A","","45.43617223","12.34632226"
"0319003310_","Store location - 0319003310_","","CS","Castello","Salizada Dei Greci","3310","CS3310","Salizada Dei Greci 3310","","45.43560988","12.34555359"
"0319003385_","Store location - 0319003385_","","CS","Castello","Calle Lion","3385","CS3385","Calle Lion 3385","","45.4362007","12.3451365"
"0319004422A","Store location - 0319004422A","0319004422B","CS","Castello","Fondamenta Del Rimedio","4422A","CS4422A","Fondamenta Del Rimedio 4422A","Castello Fondamenta Del Rimedio 4422 B","45.43616444","12.34085292"
"0319004920_","Store location - 0319004920_","0319004922_;0319004923_","CS","Castello","Ruga Giuffa","4920","CS4920","Ruga Giuffa 4920","Castello Ruga Giuffa 4922;Castello Ruga Giuffa 4923","45.43619213","12.34240354"
"0319005576_","Store location - 0319005576_","","CS","Castello","Salizada San Lio","5576","CS5576","Salizada San Lio 5576","","45.4374608","12.3383685"
"0319005616_","Store location - 0319005616_","","CS","Castello","Calle Al Ponte Sant'Antonio","5616","CS5616","Calle Al Ponte Sant'Antonio 5616","","45.4376211","12.3379245"
"0319005926_","Store location - 0319005926_","0319005927_;0319005928_;0319005929_;0319005930_;0319005944_;0319005983_;0319005984_;0319006019_;0319006021_;0319006022_;0319006023A;0319006024A","CS","Castello","Corte Fontana","5926","CS5926","Corte Fontana 5926","Castello Corte Fontana 5927;Castello Calle Del Frutarol 5928;Castello Calle Del Frutarol 5929;Castello Calle Del Piombo 5930;Castello Calle Del Frutarol 5944;Castello Calle Del Frutarol 5983;Castello Calle De La Malvasia 5984;Castello Calle De La Malvasia 6019;Castello Calle De La Malvasia 6021;Castello Calle De La Malvasia 6022;Castello Calle Del Frutarol 6023 A;Castello Calle Del Frutarol 6024 A","45.43819951","12.33891667"
"0319006036_","Store location - 0319006036_","","CS","Castello","Calle Scaleta","6036","CS6036","Calle Scaleta 6036","","45.4385081","12.3382478"
"0319006052_","Store location - 0319006052_","","CS","Castello","Ramo Bragadin O Carabba","6052","CS6052","Ramo Bragadin O Carabba 6052","","45.4385422","12.3388372"
"0319006106_","Store location - 0319006106_","","CS","Castello","Ponte Marcello O Pindemonte","6106","CS6106","Ponte Marcello O Pindemonte 6106","","45.43823779","12.33983151"
"0319006419_","Store location - 0319006419_","","CS","Castello","Barbaria De Le Tole","6419","CS6419","Barbaria De Le Tole 6419","","45.43862185","12.34335242"
"0319006471A","Store location - 0319006471A","","CS","Castello","Calle Del Cafetier","6471A","CS6471A","Calle Del Cafetier 6471A","","45.4385196","12.3445143"
"0319006661L","Store location - 0319006661L","","CS","Castello","Calle Nicolo' Massa","6661L","CS6661L","Calle Nicolo' Massa 6661L","","45.4389935","12.3446562"
"0319003315_","Store location - 0319003315_","","CS","Castello","Salizada Dei Greci","3315","CS3315","Salizada Dei Greci 3315","","45.43564871","12.34530744"
"0319003518_","Store location - 0319003518_","","CS","Castello","Calle De L'Arco","3518","CS3518","Calle De L'Arco 3518","","45.4355421","12.3476205"
"0319003867_","Store location - 0319003867_","","CS","Castello","Fondamenta Del Tintor","3867","CS3867","Fondamenta Del Tintor 3867","","45.4349056","12.3484496"
"0319004297_","Store location - 0319004297_","","CS","Castello","Ruga Giuffa Santa Apollonia","4297","CS4297","Ruga Giuffa Santa Apollonia 4297","","45.43502185","12.34097076"
"0319004308_","Store location - 0319004308_","","CS","Castello","Fondamenta Santa Apollonia","4308","CS4308","Fondamenta Santa Apollonia 4308","","45.43487371","12.34073677"
"0319004318_","Store location - 0319004318_","","CS","Castello","Ruga Giuffa Santa Apollonia","4318","CS4318","Ruga Giuffa Santa Apollonia 4318","","45.43502789","12.34088434"
"0319004504_","Store location - 0319004504_","","CS","Castello","Calle Rimpetto La Sacrestia","4504","CS4504","Calle Rimpetto La Sacrestia 4504","","45.43526333","12.34171565"
"0319004580_","Store location - 0319004580_","","CS","Castello","Calle De Le Rasse","4580","CS4580","Calle De Le Rasse 4580","","45.4342818","12.3418474"
"0319004589_","Store location - 0319004589_","","CS","Castello","Calle De Le Rasse","4589","CS4589","Calle De Le Rasse 4589","","45.43450408","12.34182997"
"0319004613_","Store location - 0319004613_","","CS","Castello","Calle De Le Rasse","4613","CS4613","Calle De Le Rasse 4613","","45.43474887","12.34184525"
"0319004697A","Store location - 0319004697A","0319004697_","CS","Castello","Calle S. Zaccaria","4697A","CS4697A","Calle S. Zaccaria 4697A","Castello Calle S. Zaccaria 4697","45.43492836","12.34281365"
"0319004703A","Store location - 0319004703A","","CS","Castello","Campo San Provolo","4703A","CS4703A","Campo San Provolo 4703A","","45.43515842","12.34266379"
"0319004719A","Store location - 0319004719A","","CS","Castello","Calle San Provolo","4719A","CS4719A","Calle San Provolo 4719A","","45.43543605","12.34294195"
"0319004745_","Store location - 0319004745_","03190047745A","CS","Castello","Ruga Giuffa","4745","CS4745","Ruga Giuffa 4745","Castello Calle De La Corona 4745 A","45.43604247","12.34253688"
"0319004755_","Store location - 0319004755_","","CS","Castello","Ruga Giuffa","4755","CS4755","Ruga Giuffa 4755","","45.43611122","12.34245347"
"0319004897A","Store location - 0319004897A","","CS","Castello","Ruga Giuffa","4897A","CS4897A","Ruga Giuffa 4897A","","45.43644541","12.34221152"
"0319004976_","Store location - 0319004976_","","CS","Castello","Fondamenta De L'Osmarin","4976","CS4976","Fondamenta De L'Osmarin 4976","","45.43562846","12.34380033"
"0319005184_","Store location - 0319005184_","","CS","Castello","Calle Longa Santa Maria Formosa","5184","CS5184","Calle Longa Santa Maria Formosa 5184","","45.43775202","12.34206053"
"0319005336_","Store location - 0319005336_","","CS","Castello","Casseleria","5336","CS5336","Casseleria 5336","","45.4364787","12.3398647"
"0319005379_","Store location - 0319005379_","","CS","Castello","Calle De Le Bande","5379","CS5379","Calle De Le Bande 5379","","45.43656613","12.33977863"
"0319005545_","Store location - 0319005545_","","CS","Castello","Salizada San Lio","5545","CS5545","Salizada San Lio 5545","","45.43734737","12.33882769"
"0319005764A","Store location - 0319005764A","","CS","Castello","Calle Del Paradiso","5764A","CS5764A","Calle Del Paradiso 5764A","","45.43715585","12.33945306"
"0319005781_","Store location - 0319005781_","","CS","Castello","Salizada San Lio","5781","CS5781","Salizada San Lio 5781","","45.43703235","12.3396158"
"0319005800_","Store location - 0319005800_","","CS","Castello","Calle Del Mondo Novo","5800","CS5800","Calle Del Mondo Novo 5800","","45.43711134","12.34028695"
"0319005844_","Store location - 0319005844_","","CS","Castello","Fondamenta Dei Preti","5844","CS5844","Fondamenta Dei Preti 5844","","45.4374544","12.3402381"
"0319006376A","Store location - 0319006376A","","CS","Castello","Calle De L'Ospedaleto","6376A","CS6376A","Calle De L'Ospedaleto 6376A","","45.43841086","12.34278038"
"0319005387_","Store location - 0319005387_","","CS","Castello","Salizada San Lio","5387","CS5387","Salizada San Lio 5387","","45.43676452","12.33986698"
"0319005540_","Store location - 0319005540_","","CS","Castello","Salizada San Lio","5540","CS5540","Salizada San Lio 5540","","45.43729824","12.33899205"
"0319006135_","Store location - 0319006135_","","CS","Castello","Calle Longa Santa Maria Formosa","6135","CS6135","Calle Longa Santa Maria Formosa 6135","","45.43752497","12.34137872"
"0319004899_","Store location - 0319004899_","","CS","Castello","Ruga Giuffa","4899","CS4899","Ruga Giuffa 4899","","45.43638024","12.34228053"
"0319005785A","Store location - 0319005785A","0319005785C","CS","Castello","Salizada San Lio","5785A","CS5785A","Salizada San Lio 5785A","Castello Calle Del Mondo Novo 5785 C","45.43690821","12.33977087"
"0319006247_","Store location - 0319006247_","","CS","Castello","Calle Longa Santa Maria Formosa","6247","CS6247","Calle Longa Santa Maria Formosa 6247","","45.43775642","12.34198478"
"0319004861_","Store location - 0319004861_","0319004862_","CS","Castello","Ruga Giuffa","4861","CS4861","Ruga Giuffa 4861","Castello Ruga Giuffa 4862","45.43672954","12.3419181"
"0319004618_","Store location - 0319004618_","","CS","Castello","Calle De Le Rasse","4618","CS4618","Calle De Le Rasse 4618","","45.43487812","12.34185778"
"0319005276_","Store location - 0319005276_","","CS","Castello","Calle De Le Bande","5276","CS5276","Calle De Le Bande 5276","","45.43658469","12.3399049"
"0319001738_","Store location - 0319001738_","","CS","Castello","Via Garibaldi","1738","CS1738","Via Garibaldi 1738","","45.43221973","12.35196242"
"0319005609_","Store location - 0319005609_","","CS","Castello","Calle Al Ponte Sant'Antonio","5609","CS5609","Calle Al Ponte Sant'Antonio 5609","","45.43758551","12.33797293"
"0319006206_","Store location - 0319006206_","","CS","Castello","Calle Longa Santa Maria Formosa","6206","CS6206","Calle Longa Santa Maria Formosa 6206","","45.43766165","12.34168105"
"0319006368_","Store location - 0319006368_","","CS","Castello","Salizada San Zanipolo","6368","CS6368","Salizada San Zanipolo 6368","","45.43878325","12.34259615"
"0319001794_","Store location - 0319001794_","","CS","Castello","Via Garibaldi","1794","CS1794","Via Garibaldi 1794","","45.4324204","12.3537121"
"0319001809_","Store location - 0319001809_","","CS","Castello","Via Garibaldi","1809","CS1809","Via Garibaldi 1809","","45.4325027","12.3547075"
"0319001810_","Store location - 0319001810_","","CS","Castello","Via Garibaldi","1810","CS1810","Via Garibaldi 1810","","45.43250647","12.3547424"
"0319006251_","Store location - 0319006251_","","CS","Castello","Calle Longa Santa Maria Formosa","6251","CS6251","Calle Longa Santa Maria Formosa 6251","","45.4378012","12.34213387"
"0319005470_","Store location - 0319005470_","","CS","Castello","Salizada San Lio","5470","CS5470","Salizada San Lio 5470","","45.43716634","12.33935267"
"0319001764_","Store location - 0319001764_","","CS","Castello","Via Garibaldi","1764","CS1764","Via Garibaldi 1764","","45.43224983","12.35223938"
"0319001793_","Store location - 0319001793_","","CS","Castello","Via Garibaldi","1793","CS1793","Via Garibaldi 1793","","45.43240506","12.35362259"
"0319002930_","Store location - 0319002930_","","CS","Castello","Salizada Santa Giustina","2930","CS2930","Salizada Santa Giustina 2930","","45.437343","12.3469506"
"0319004900_","Store location - 0319004900_","","CS","Castello","Ruga Giuffa","4900","CS4900","Ruga Giuffa 4900","","45.43635399","12.34230106"
"0319001778_","Store location - 0319001778_","","CS","Castello","Via Garibaldi","1778","CS1778","Via Garibaldi 1778","","45.43229924","12.35286449"
"0319001792_","Store location - 0319001792_","","CS","Castello","Via Garibaldi","1792","CS1792","Via Garibaldi 1792","","45.43240014","12.35358709"
"0319001823_","Store location - 0319001823_","0319001824_","CS","Castello","Via Garibaldi","1823","CS1823","Via Garibaldi 1823","Castello Via Garibaldi 1824","45.43254031","12.35537747"
"0319003469_","Store location - 0319003469_","0319003470_","CS","Castello","Salizada Dei Greci","3469","CS3469","Salizada Dei Greci 3469","Castello Salizada Dei Greci 3470","45.4355705","12.3458905"
"0319004514_","Store location - 0319004514_","0319004513_;0319004514A","CS","Castello","Salizada San Provolo","4514","CS4514","Salizada San Provolo 4514","Castello Campo Santi Filippo E Giacomo 4513;Castello Salizada San Provolo 4514 A","45.43502096","12.34181965"
"0319005620A","Store location - 0319005620A","","CS","Castello","Campo San Lio","5620A","CS5620A","Campo San Lio 5620A","","45.43758238","12.33824425"
"0319006127_","Store location - 0319006127_","0319006128_","CS","Castello","Campo Santa Maria Formosa","6127","CS6127","Campo Santa Maria Formosa 6127","Castello Campo Santa Maria Formosa 6128","45.43753647","12.34108423"
"0319003224_","Store location - 0319003224_","","CS","Castello","Campo De Le Gatte","3224","CS3224","Campo De Le Gatte 3224","","45.43627518","12.34720093"
"0319003309_","Store location - 0319003309_","","CS","Castello","Salizada Dei Greci","3309","CS3309","Salizada Dei Greci 3309","","45.43561057","12.34563753"
"0319004496_","Store location - 0319004496_","","CS","Castello","Calle Rimpetto La Sacrestia","4496","CS4496","Calle Rimpetto La Sacrestia 4496","","45.43551803","12.34175651"
"0319005248_","Store location - 0319005248_","","CS","Castello","Campo Santa Maria Formosa","5248","CS5248","Campo Santa Maria Formosa 5248","","45.43716342","12.34148943"
"0319002281_","Store location - 0319002281_","","CS","Castello","Calle Dei Forni","2281","CS2281","Calle Dei Forni 2281","","45.4339758","12.3493595"
"0319001776_","Store location - 0319001776_","","CS","Castello","Via Garibaldi","1776","CS1776","Via Garibaldi 1776","","45.43229238","12.35278812"
"0319003483_","Store location - 0319003483_","","CS","Castello","Salizada Sant'Antonin","3483","CS3483","Salizada Sant'Antonin 3483","","45.4352818","12.3467533"
"0319003538_","Store location - 0319003538_","","CS","Castello","Salizada Sant'Antonin","3538","CS3538","Salizada Sant'Antonin 3538","","45.4352162","12.3468727"
"0319004379A","Store location - 0319004379A","","CS","Castello","Calle Rimpetto La Sacrestia","4379A","CS4379A","Calle Rimpetto La Sacrestia 4379A","","45.4354643","12.3417089"
"0319004499_","Store location - 0319004499_","","CS","Castello","Calle Rimpetto La Sacrestia","4499","CS4499","Calle Rimpetto La Sacrestia 4499","","45.4354118","12.3417396"
"0319005281_","Store location - 0319005281_","0319005282_;0319005283_","CS","Castello","Casseleria","5281","CS5281","Casseleria 5281","Castello Casseleria 5282;Castello Casseleria 5283","45.4364036","12.3399673"
"0319005706_","Store location - 0319005706_","","CS","Castello","Salizada San Lio","5706","CS5706","Salizada San Lio 5706","","45.43727481","12.33923201"
"0319005799A","Store location - 0319005799A","","CS","Castello","Calle Del Mondo Novo","5799A","CS5799A","Calle Del Mondo Novo 5799A","","45.4371338","12.3403354"
"0319006249_","Store location - 0319006249_","","CS","Castello","Calle Longa Santa Maria Formosa","6249","CS6249","Calle Longa Santa Maria Formosa 6249","","45.4377766","12.3420559"
"0319006331_","Store location - 0319006331_","","CS","Castello","Campo San Zanipolo","6331","CS6331","Campo San Zanipolo 6331","","45.43888968","12.34191599"
"0319006342_","Store location - 0319006342_","","CS","Castello","Salizada San Zanipolo","6342","CS6342","Salizada San Zanipolo 6342","","45.43877682","12.34243413"
"0319006417_","Store location - 0319006417_","","CS","Castello","Barbaria De Le Tole","6417","CS6417","Barbaria De Le Tole 6417","","45.43863696","12.34323214"
"0319006651_","Store location - 0319006651_","","CS","Castello","Calle Del Cafetier","6651","CS6651","Calle Del Cafetier 6651","","45.43852054","12.34477548"
"0319006672_","Store location - 0319006672_","","CS","Castello","Barbaria De Le Tole","6672","CS6672","Barbaria De Le Tole 6672","","45.43865537","12.34353203"
"0319001253_","Store location - 0319001253_","","CS","Castello","Via Garibaldi","1253","CS1253","Via Garibaldi 1253","","45.43238036","12.35517447"
"0319001495A","Store location - 0319001495A","","CS","Castello","Via Garibaldi","1495A","CS1495A","Via Garibaldi 1495A","","45.43223102","12.35342321"
"0319002948_","Store location - 0319002948_","","CS","Castello","Salizada Santa Giustina","2948","CS2948","Salizada Santa Giustina 2948","","45.43736695","12.34718438"
"0319003312_","Store location - 0319003312_","","CS","Castello","Salizada Dei Greci","3312","CS3312","Salizada Dei Greci 3312","","45.43561427","12.34545586"
"0319004918_","Store location - 0319004918_","","CS","Castello","Ruga Giuffa","4918","CS4918","Ruga Giuffa 4918","","45.43625722","12.34239284"
"0319005412_","Store location - 0319005412_","","CS","Castello","Salizada San Lio","5412","CS5412","Salizada San Lio 5412","","45.43695382","12.33966773"
"0319006441_","Store location - 0319006441_","","CS","Castello","Barbaria De Le Tole","6441","CS6441","Barbaria De Le Tole 6441","","45.43854072","12.34399073"
"0319003864_","Store location - 0319003864_","","CS","Castello","Calle Del Pestrin","3864","CS3864","Calle Del Pestrin 3864","","45.4350028","12.3483149"
"0319005632_","Store location - 0319005632_","","CS","Castello","Calle Del Pistor","5632","CS5632","Calle Del Pistor 5632","","45.4377444","12.3383091"
"0319005760_","Store location - 0319005760_","0319005759_","CS","Castello","Calle Del Paradiso","5760","CS5760","Calle Del Paradiso 5760","Castello Calle Del Paradiso 5759","45.43725617","12.33958904"
"0319006025_","Store location - 0319006025_","","CS","Castello","Calle Del Frutarol","6025","CS6025","Calle Del Frutarol 6025","","45.43822755","12.33888446"
"0319006082A","Store location - 0319006082A","","CS","Castello","Campo Santa Marina","6082A","CS6082A","Campo Santa Marina 6082A","","45.4385205","12.3396793"
"0319006416_","Store location - 0319006416_","","CS","Castello","Barbaria De Le Tole","6416","CS6416","Barbaria De Le Tole 6416","","45.43864571","12.3431652"
"0319006551A","Store location - 0319006551A","","CS","Castello","Campo De Santa Giustina Detto De Barbaria","6551A","CS6551A","Campo De Santa Giustina Detto De Barbaria 6551A","","45.43839866","12.34534875"
"0319000738_","Store location - 0319000738_","","CS","Castello","Seco Marina","738","CS738","Seco Marina 738","","45.43122599","12.35724095"
"0319000754_","Store location - 0319000754_","","CS","Castello","Fondamenta S. Isepo","754","CS754","Fondamenta S. Isepo 754","","45.43083206","12.35740161"
"0319000930_","Store location - 0319000930_","0319000905_","CS","Castello","Fondamenta S. Isepo","930","CS930","Fondamenta S. Isepo 930","Castello Corte Del Solda' 905","45.43066991","12.35679189"
"0319000985_","Store location - 0319000985_","","CS","Castello","Seco Marina","985","CS985","Seco Marina 985","","45.4311234","12.35662286"
"0319001135_","Store location - 0319001135_","","CS","Castello","Fondamenta Sant'Anna","1135","CS1135","Fondamenta Sant'Anna 1135","","45.43241919","12.35558617"
"0319001252A","Store location - 0319001252A","0319001252_","CS","Castello","Via Garibaldi","1252A","CS1252A","Via Garibaldi 1252A","Castello Via Garibaldi 1252","45.43239371","12.35527289"
"0319001309_","Store location - 0319001309_","0319001309A","CS","Castello","Via Garibaldi","1309","CS1309","Via Garibaldi 1309","Castello Via Garibaldi 1309 A","45.43233033","12.35437875"
"0319001341_","Store location - 0319001341_","","CS","Castello","Via Garibaldi","1341","CS1341","Via Garibaldi 1341","","45.43229826","12.35388614"
"0319001476_","Store location - 0319001476_","","CS","Castello","Via Garibaldi","1476","CS1476","Via Garibaldi 1476","","45.4321861","12.35358186"
"0319001533_","Store location - 0319001533_","","CS","Castello","Via Garibaldi","1533","CS1533","Via Garibaldi 1533","","45.43216547","12.35310763"
"0319001580_","Store location - 0319001580_","","CS","Castello","Via Garibaldi","1580","CS1580","Via Garibaldi 1580","","45.43210896","12.35251786"
"0319001621_","Store location - 0319001621_","","CS","Castello","Via Garibaldi","1621","CS1621","Via Garibaldi 1621","","45.43205012","12.35197716"
"0319001643C","Store location - 0319001643C","0319001643D","CS","Castello","Riva Dei Sette Martiri","1643C","CS1643C","Riva Dei Sette Martiri 1643C","Castello Riva Dei Sette Martiri 1643 D","45.43182021","12.35146265"
"0319001648_","Store location - 0319001648_","","CS","Castello","Via Garibaldi","1648","CS1648","Via Garibaldi 1648","","45.432082","12.3509168"
"0319001666_","Store location - 0319001666_","","CS","Castello","Via Garibaldi","1666","CS1666","Via Garibaldi 1666","","45.43211563","12.35125743"
"0319001667_","Store location - 0319001667_","","CS","Castello","Via Garibaldi","1667","CS1667","Via Garibaldi 1667","","45.43212167","12.35131808"
"0319001698_","Store location - 0319001698_","","CS","Castello","Via Garibaldi","1698","CS1698","Via Garibaldi 1698","","45.4321447","12.35147477"
"0319001726_","Store location - 0319001726_","","CS","Castello","Via Garibaldi","1726","CS1726","Via Garibaldi 1726","","45.4321642","12.35166746"
"0319001773_","Store location - 0319001773_","0319001774_;0319001775_","CS","Castello","Via Garibaldi","1773","CS1773","Via Garibaldi 1773","Castello Via Garibaldi 1774;Castello Via Garibaldi 1775","45.4322903","12.3526811"
"0319001789_","Store location - 0319001789_","","CS","Castello","Via Garibaldi","1789","CS1789","Via Garibaldi 1789","","45.4323704","12.3533919"
"0319002158_","Store location - 0319002158_","","CS","Castello","Campo De La Tana","2158","CS2158","Campo De La Tana 2158","","45.4332389","12.3506355"
"0319002386_","Store location - 0319002386_","0319002387_","CS","Castello","Campo De L'Arsenal","2386","CS2386","Campo De L'Arsenal 2386","Castello Campo De L'Arsenal 2387","45.434474","12.3497065"
"0319002389_","Store location - 0319002389_","","CS","Castello","Campo De L'Arsenal","2389","CS2389","Campo De L'Arsenal 2389","","45.43463869","12.34972187"
"0319002613_","Store location - 0319002613_","0319002614_","CS","Castello","Campo Dei Do Pozzi","2613","CS2613","Campo Dei Do Pozzi 2613","Castello Calle De Le Muneghete 2614","45.4360193","12.348494"
"0319003129_","Store location - 0319003129_","","CS","Castello","Calle De L'Ogio","3129","CS3129","Calle De L'Ogio 3129","","45.43689681","12.34786042"
"0319003305_","Store location - 0319003305_","","CS","Castello","Salizada Dei Greci","3305","CS3305","Salizada Dei Greci 3305","","45.43561412","12.34583251"
"0319003416_","Store location - 0319003416_","0319003416A","CS","Castello","Salizada Dei Greci","3416","CS3416","Salizada Dei Greci 3416","Castello Salizada Dei Greci 3416 A","45.4357033","12.3450698"
"0319003417_","Store location - 0319003417_","","CS","Castello","Salizada Dei Greci","3417","CS3417","Salizada Dei Greci 3417","","45.4356631","12.3451074"
"0319003446_","Store location - 0319003446_","","CS","Castello","Salizada Dei Greci","3446","CS3446","Salizada Dei Greci 3446","","45.43563113","12.34520937"
"0319003479_","Store location - 0319003479_","0319003480_","CS","Castello","Salizada Sant'Antonin","3479","CS3479","Salizada Sant'Antonin 3479","Castello Salizada Sant'Antonin 3480","45.4353897","12.3465916"
"0319003705B","Store location - 0319003705B","","CS","Castello","Calle De La Pieta'","3705B","CS3705B","Calle De La Pieta' 3705B","","45.43442214","12.34516994"
"0319003734_","Store location - 0319003734_","","CS","Castello","Calle Del Dose","3734","CS3734","Calle Del Dose 3734","","45.4340491","12.3463255"
"0319003782_","Store location - 0319003782_","","CS","Castello","Calle Del Forno","3782","CS3782","Calle Del Forno 3782","","45.4344947","12.3474304"
"0319003819_","Store location - 0319003819_","0319003820_;0319003821_","CS","Castello","Calle Crosera","3819","CS3819","Calle Crosera 3819","Castello Calle Crosera 3820;Castello Calle Crosera 3821","45.43464","12.3472773"
"0319003886_","Store location - 0319003886_","","CS","Castello","Calle Del Pestrin","3886","CS3886","Calle Del Pestrin 3886","","45.43482994","12.34793177"
"0319003911_","Store location - 0319003911_","0319003898_","CS","Castello","Calle Crosera","3911","CS3911","Calle Crosera 3911","Castello Calle Del Pestrin 3898","45.4345114","12.34754434"
"0319003958_","Store location - 0319003958_","","CS","Castello","Calle Crosera","3958","CS3958","Calle Crosera 3958","","45.4344815","12.3474979"
"0319003969_","Store location - 0319003969_","0319003968;0319003970_","CS","Castello","Campiello Pescaria","3969","CS3969","Campiello Pescaria 3969","Castello Campiello Pescaria 3968;Castello Campiello Pescaria 3970","45.43412081","12.34760803"
"0319003983_","Store location - 0319003983_","","CS","Castello","Campiello Pescaria","3983","CS3983","Campiello Pescaria 3983","","45.43425288","12.34773805"
"0319003991_","Store location - 0319003991_","0319003990_","CS","Castello","Campiello Pescaria","3991","CS3991","Campiello Pescaria 3991","Castello Campiello Pescaria 3990","45.43413587","12.34787474"
"0319004089_","Store location - 0319004089_","","CS","Castello","Riva Dei Schiavoni","4089","CS4089","Riva Dei Schiavoni 4089","","45.4335882","12.3480592"
"0319004132_","Store location - 0319004132_","","CS","Castello","Riva Dei Schiavoni","4132","CS4132","Riva Dei Schiavoni 4132","","45.4338651","12.3466953"
"0319004153_","Store location - 0319004153_","0319004154_","CS","Castello","Riva Dei Schiavoni","4153","CS4153","Riva Dei Schiavoni 4153","Castello Riva Dei Schiavoni 4154","45.43405475","12.34459426"
"0319004157_","Store location - 0319004157_","","CS","Castello","Riva Dei Schiavoni","4157","CS4157","Riva Dei Schiavoni 4157","","45.4341002","12.3440787"
"0319004171_","Store location - 0319004171_","","CS","Castello","Riva Dei Schiavoni","4171","CS4171","Riva Dei Schiavoni 4171","","45.4340591","12.3434853"
"0319004183_","Store location - 0319004183_","0319004184_","CS","Castello","Riva Dei Schiavoni","4183","CS4183","Riva Dei Schiavoni 4183","Castello Riva Dei Schiavoni 4184","45.4340369","12.3430653"
"0319004188_","Store location - 0319004188_","","CS","Castello","Riva Dei Schiavoni","4188","CS4188","Riva Dei Schiavoni 4188","","45.4340123","12.3428096"
"0319004227_","Store location - 0319004227_","","CS","Castello","Calle Dei Albanesi","4227","CS4227","Calle Dei Albanesi 4227","","45.43448744","12.34144394"
"0319004232_","Store location - 0319004232_","","CS","Castello","Calle Dei Albanesi","4232","CS4232","Calle Dei Albanesi 4232","","45.43467063","12.34147307"
"0319004250_","Store location - 0319004250_","0319004251_;0319004252_","CS","Castello","Calle Dei Albanesi","4250","CS4250","Calle Dei Albanesi 4250","Castello Calle Dei Albanesi 4251;Castello Calle Dei Albanesi 4252","45.43443038","12.34140698"
"0319004260_","Store location - 0319004260_","","CS","Castello","Calle Dei Albanesi","4260","CS4260","Calle Dei Albanesi 4260","","45.4346237","12.341432"
"0319004263A","Store location - 0319004263A","","CS","Castello","Calle Dei Albanesi","4263A","CS4263A","Calle Dei Albanesi 4263A","","45.43471606","12.34145454"
"0319004294_","Store location - 0319004294_","","CS","Castello","Ruga Giuffa Santa Apollonia","4294","CS4294","Ruga Giuffa Santa Apollonia 4294","","45.43503209","12.34103955"
"0319004338_","Store location - 0319004338_","0319004336_;0319004337_","CS","Castello","Campo Santi Filippo E Giacomo","4338","CS4338","Campo Santi Filippo E Giacomo 4338","Castello Campo Santi Filippo E Giacomo 4336;Castello Campo Santi Filippo E Giacomo 4337","45.43513511","12.34135905"
"0319004357_","Store location - 0319004357_","0319004355_;0319004359_;0319004360_","CS","Castello","Campo Santi Filippo E Giacomo","4357","CS4357","Campo Santi Filippo E Giacomo 4357","Castello Campo Santi Filippo E Giacomo 4355;Castello Campo Santi Filippo E Giacomo 4359;Castello Calle Rimpetto La Sacrestia 4360","45.43516808","12.34152108"
"0319004442_","Store location - 0319004442_","0319004440_","CS","Castello","Calle De La Sacrestia","4442","CS4442","Calle De La Sacrestia 4442","Castello Calle Rimpetto La Sacrestia 4440 A","45.43555777","12.34184979"
"0319004508_","Store location - 0319004508_","","CS","Castello","Campo Santi Filippo E Giacomo","4508","CS4508","Campo Santi Filippo E Giacomo 4508","","45.43518933","12.34170685"
"0319004525_","Store location - 0319004525_","0319004526_;0319004527_","CS","Castello","Salizada San Provolo","4525","CS4525","Salizada San Provolo 4525","Castello Calle De Le Rasse 4526;Castello Calle De Le Rasse 4527","45.43497391","12.34178359"
"0319004535_","Store location - 0319004535_","","CS","Castello","Calle De Le Rasse","4535","CS4535","Calle De Le Rasse 4535","","45.4346427","12.3417951"
"0319004538_","Store location - 0319004538_","0319004539_","CS","Castello","Calle De Le Rasse","4538","CS4538","Calle De Le Rasse 4538","Castello Calle De Le Rasse 4539","45.43450427","12.34178394"
"0319004604_","Store location - 0319004604_","","CS","Castello","Corte Michiel","4604","CS4604","Corte Michiel 4604","","45.4346322","12.3419847"
"0319004612_","Store location - 0319004612_","0319004610_;0319004611_","CS","Castello","Calle De Le Rasse","4612","CS4612","Calle De Le Rasse 4612","Castello Calle De Le Rasse 4610;Castello Calle De Le Rasse 4611","45.43471801","12.34184169"
"0319004620_","Store location - 0319004620_","0319004621_","CS","Castello","Calle De Le Rasse","4620","CS4620","Calle De Le Rasse 4620","Castello Salizada San Provolo 4621","45.43492792","12.34186093"
"0319004625_","Store location - 0319004625_","","CS","Castello","Salizada San Provolo","4625","CS4625","Salizada San Provolo 4625","","45.43494478","12.34211753"
"0319004668_","Store location - 0319004668_","0319004648_","CS","Castello","Corte Nova","4668","CS4668","Corte Nova 4668","Castello Corte Nova 4668 A","45.4348354","12.34259325"
"0319004706_","Store location - 0319004706_","0319004707_;0319004708_","CS","Castello","Campo San Provolo","4706","CS4706","Campo San Provolo 4706","Castello Campo San Provolo 4707;Castello Campo San Provolo 4708","45.4350156","12.3423263"
"0319004712_","Store location - 0319004712_","","CS","Castello","Campo San Provolo","4712","CS4712","Campo San Provolo 4712","Castello Campo San Provolo 4710;Castello Sotoportego San Provolo 4713","45.43529299","12.34265167"
"0319004738A","Store location - 0319004738A","0319004739_","CS","Castello","Calle Corte Rota","4738A","CS4738A","Calle Corte Rota 4738A","Castello Calle De La Corona 4739","45.43598468","12.34255383"
"0319004814_","Store location - 0319004814_","0319004815_;0319004816_;0319004817_","CS","Castello","Corte Del Pozzo Roverso","4814","CS4814","Corte Del Pozzo Roverso 4814","Castello Corte Del Pozzo Roverso 4815;Castello Corte Del Pozzo Roverso 4816;Castello Corte Del Pozzo Roverso 4817","45.436256","12.3420202"
"0319004829_","Store location - 0319004829_","0319004830;0319004830A_","CS","Castello","Ruga Giuffa","4829","CS4829","Ruga Giuffa 4829","Castello Ruga Giuffa 4830;Castello Calle Drio El Magazen 4830 A","45.43631331","12.34225631"
"0319004832_","Store location - 0319004832_","","CS","Castello","Ruga Giuffa","4832","CS4832","Ruga Giuffa 4832","","45.43641386","12.34218965"
"0319004835_","Store location - 0319004835_","","CS","Castello","Ruga Giuffa","4835","CS4835","Ruga Giuffa 4835","","45.43651951","12.34209692"
"0319004864_","Store location - 0319004864_","","CS","Castello","Ruga Giuffa","4864","CS4864","Ruga Giuffa 4864","","45.43665143","12.34199942"
"0319004928_","Store location - 0319004928_","","CS","Castello","Salizada Zorzi","4928","CS4928","Salizada Zorzi 4928","","45.43607961","12.34272127"
"0319004989_","Store location - 0319004989_","0319004988_","CS","Castello","Fondamenta San Lorenzo","4989","CS4989","Fondamenta San Lorenzo 4989","Castello Fondamenta San Lorenzo 4988","45.43593535","12.34428007"
"0319004990_","Store location - 0319004990_","","CS","Castello","Fondamenta San Lorenzo","4990","CS4990","Fondamenta San Lorenzo 4990","","45.4359765","12.3442812"
"0319005018_","Store location - 0319005018_","","CS","Castello","Campo San Severo","5018","CS5018","Campo San Severo 5018","","45.436021","12.3434674"
"0319005183_","Store location - 0319005183_","","CS","Castello","Calle Longa Santa Maria Formosa","5183","CS5183","Calle Longa Santa Maria Formosa 5183","","45.43778415","12.34216867"
"0319005224_","Store location - 0319005224_","","CS","Castello","Calle Longa Santa Maria Formosa","5224","CS5224","Calle Longa Santa Maria Formosa 5224","","45.43767195","12.341814"
"0319005271B","Store location - 0319005271B","0319005272_","CS","Castello","Calle De Le Bande","5271B","CS5271B","Calle De Le Bande 5271B","Castello Calle De Le Bande 5272","45.43671305","12.34023229"
"0319005306_","Store location - 0319005306_","","CS","Castello","Calle Al Ponte De L'Anzolo","5306","CS5306","Calle Al Ponte De L'Anzolo 5306","","45.436081","12.3398821"
"0319005353_","Store location - 0319005353_","","CS","Castello","Calle Al Ponte De La Guerra","5353","CS5353","Calle Al Ponte De La Guerra 5353","","45.43646089","12.33962232"
"0319005356_","Store location - 0319005356_","","CS","Castello","Calle Al Ponte De La Guerra","5356","CS5356","Calle Al Ponte De La Guerra 5356","","45.43641268","12.33952901"
"0319005467_","Store location - 0319005467_","","CS","Castello","Salizada San Lio","5467","CS5467","Salizada San Lio 5467","","45.43707581","12.33948803"
"0319005471_","Store location - 0319005471_","","CS","Castello","Salizada San Lio","5471","CS5471","Salizada San Lio 5471","","45.4371914","12.3392969"
"0319005490_","Store location - 0319005490_","0319005491_","CS","Castello","Calle De La Malvasia","5490","CS5490","Calle De La Malvasia 5490","Castello Calle De La Malvasia 5491","45.43666567","12.33875743"
"0319005532_","Store location - 0319005532_","0319005533_","CS","Castello","Calle De La Malvasia","5532","CS5532","Calle De La Malvasia 5532","Castello Corte Perini 5533","45.43702809","12.33888293"
"0319005547_","Store location - 0319005547_","","CS","Castello","Salizada San Lio","5547","CS5547","Salizada San Lio 5547","","45.4373665","12.33871034"
"0319005572_","Store location - 0319005572_","0319005570_;0319005570A;0319005571","CS","Castello","Salizada San Lio","5572","CS5572","Salizada San Lio 5572","Castello Calle Del Cafetier 5570;Castello Calle Del Cafetier 5570 A;Castello Salizada San Lio 5571","45.43740036","12.33857607"
"0319005658_","Store location - 0319005658_","0319005655_;0319005657A;0319005657_","CS","Castello","Campo San Lio","5658","CS5658","Campo San Lio 5658","Castello Calle Del Pistor 5655;Castello Calle Del Pistor 5657;Castello Calle Del Pistor 5657 A","45.43772384","12.33836886"
"0319005689_","Store location - 0319005689_","","CS","Castello","Salizada San Lio","5689","CS5689","Salizada San Lio 5689","","45.43734591","12.33903731"
"0319005731_","Store location - 0319005731_","0319005730_;0319005734_;0319005735_","CS","Castello","Calle Del Paradiso","5731","CS5731","Calle Del Paradiso 5731","Castello Calle Del Paradiso 5730;Castello Calle Del Paradiso 5734;Castello Calle Del Paradiso 5735","45.43723552","12.33951584"
"0319005746_","Store location - 0319005746_","","CS","Castello","Calle Del Paradiso","5746","CS5746","Calle Del Paradiso 5746","","45.437497","12.33989986"
"0319005801_","Store location - 0319005801_","0319005801A","CS","Castello","Calle Del Mondo Novo","5801","CS5801","Calle Del Mondo Novo 5801","Castello Calle Del Mondo Novo 5801 A","45.4370678","12.3401929"
"0319005840_","Store location - 0319005840_","","CS","Castello","Campo Santa Maria Formosa","5840","CS5840","Campo Santa Maria Formosa 5840","","45.43716874","12.34056433"
"0319005853_","Store location - 0319005853_","0319005854_;0319005855_;0319005856_","CS","Castello","Campo Santa Maria Formosa","5853","CS5853","Campo Santa Maria Formosa 5853","Castello Campo Santa Maria Formosa 5854;Castello Campo Santa Maria Formosa 5855;Castello Campo Santa Maria Formosa 5856","45.43726399","12.34067968"
"0319005870_","Store location - 0319005870_","0319005870A","CS","Castello","Calle Del Dose","5870","CS5870","Calle Del Dose 5870","Castello Calle De Borgoloco 5870 A","45.4380645","12.3401082"
"0319005902A","Store location - 0319005902A","0319005892B","CS","Castello","Campo Santa Marina","5902A","CS5902A","Campo Santa Marina 5902A","Castello Campo Santa Marina 5902 B","45.43827155","12.33948262"
"0319005911_","Store location - 0319005911_","0319005910_;0319005912_;0319005913_;0319005914_;0319005915_;0319005917_;0319005918_;0319005919_;0319006416_","CS","Castello","Campo Santa Marina","5911","CS5911","Campo Santa Marina 5911","Castello Campo Santa Marina 5910 ;Castello Campo Santa Marina 5912 ;Castello Calle Del Frutarol 5913 ;Castello Calle Del Frutarol 5914 ;Castello Calle Del Frutarol 5915 ;Castello Calle Del Frutarol 5917 ;Castello Calle Del Frutarol 5918 ;Castello Calle Del Frutarol 5919 ;Castello Barbaria De Le Tole 6416","45.43833999","12.33905366"
"0319006015_","Store location - 0319006015_","0319006014_;0319006016_;0319006017_","CS","Castello","Calle De La Malvasia","6015","CS6015","Calle De La Malvasia 6015","Castello Sotoportego Spechiera 6014;Castello Calle De La Malvasia 6016;Castello Calle De La Malvasia 6017","45.43820877","12.33848385"
"0319006316_","Store location - 0319006316_","","CS","Castello","Fondamenta Dei Felzi","6316","CS6316","Fondamenta Dei Felzi 6316","","45.43848271","12.34171301"
"0319006398_","Store location - 0319006398_","0319006397A","CS","Castello","Calle De L'Ospedaleto","6398","CS6398","Calle De L'Ospedaleto 6398","Castello Calle De L'Ospedaleto 6397 A","45.43848057","12.34286198"
"0319006404_","Store location - 0319006404_","0319006403_","CS","Castello","Barbaria De Le Tole","6404","CS6404","Barbaria De Le Tole 6404","Castello Calle De L'Ospedaleto 6403","45.4386696","12.34299908"
"0319006418_","Store location - 0319006418_","","CS","Castello","Barbaria De Le Tole","6418","CS6418","Barbaria De Le Tole 6418","","45.43862998","12.34329199"
"0319006553_","Store location - 0319006553_","","CS","Castello","Campo De Santa Giustina Detto De Barbaria","6553","CS6553","Campo De Santa Giustina Detto De Barbaria 6553","","45.43852422","12.3453747"
"0319006661A","Store location - 0319006661A","","CS","Castello","Calle Del Cafetier","6661A","CS6661A","Calle Del Cafetier 6661A","","45.4385597","12.3444792"
"0319006671_","Store location - 0319006671_","","CS","Castello","Barbaria De Le Tole","6671","CS6671","Barbaria De Le Tole 6671","","45.4386492","12.34359395"
"0319006823_","Store location - 0319006823_","0319006824_;0319006825_;0319006825B;0319006825A","CS","Castello","Campo San Zanipolo","6823","CS6823","Campo San Zanipolo 6823","Castello Calle Crosera 3824;Castello Campo San Zanipolo 6825;Castello Campo San Zanipolo 6825 B;Castello Campo San Zanipolo 6825 A","45.43905687","12.34120394"
"0319001762_","Store location - 0319001762_","","CS","Castello","Via Garibaldi","1762","CS1762","Via Garibaldi 1762","","45.4322463","12.3521411"
"0319002617_","Store location - 0319002617_","","CS","Castello","Piscina San Martin","2617","CS2617","Piscina San Martin 2617","","45.4357741","12.3486791"
"0319004272_","Store location - 0319004272_","","CS","Castello","Campo Santi Filippo E Giacomo","4272","CS4272","Campo Santi Filippo E Giacomo 4272","","45.43502909","12.34142281"
"0319004313A","Store location - 0319004313A","","CS","Castello","Ruga Giuffa Santa Apollonia","4313A","CS4313A","Ruga Giuffa Santa Apollonia 4313A","","45.4349846","12.3406849"
"0319004946_","Store location - 0319004946_","","CS","Castello","Calle De La Corona","4946","CS4946","Calle De La Corona 4946","","45.43602098","12.34259572"
"0319005178_","Store location - 0319005178_","0319005177_","CS","Castello","Calle Longa Santa Maria Formosa","5178","CS5178","Calle Longa Santa Maria Formosa 5178","Castello Campiello De La Malvasia 5177","45.43782463","12.34220462"
"0319005234_","Store location - 0319005234_","","CS","Castello","Calle Longa Santa Maria Formosa","5234","CS5234","Calle Longa Santa Maria Formosa 5234","","45.437569","12.3415268"
"0319005277_","Store location - 0319005277_","0319005278_","CS","Castello","Calle De Le Bande","5277","CS5277","Calle De Le Bande 5277","Castello Casseleria 5278","45.436555","12.33985901"
"0319005473_","Store location - 0319005473_","0319005472_","CS","Castello","Salizada San Lio","5473","CS5473","Salizada San Lio 5473","Castello Salizada San Lio 5472","45.43723533","12.33916196"
"0319005476_","Store location - 0319005476_","0319005477_","CS","Castello","Salizada San Lio","5476","CS5476","Salizada San Lio 5476","Castello Corte Perini 5477","45.4372616","12.3390991"
"0319005641_","Store location - 0319005641_","","CS","Castello","Calle Del Pistor","5641","CS5641","Calle Del Pistor 5641","","45.43785936","12.33835284"
"0319005690_","Store location - 0319005690_","","CS","Castello","Salizada San Lio","5690","CS5690","Salizada San Lio 5690","","45.43732861","12.33908662"
"0319006663_","Store location - 0319006663_","","CS","Castello","Barbaria De Le Tole","6663","CS6663","Barbaria De Le Tole 6663","","45.43857475","12.34427365"
"0319001596_","Store location - 0319001596_","","CS","Castello","Via Garibaldi","1596","CS1596","Via Garibaldi 1596","","45.4320661","12.3521307"
"0319002416_","Store location - 0319002416_","","CS","Castello","Fondamenta De Fronte A L'Arsenal","2416","CS2416","Fondamenta De Fronte A L'Arsenal 2416","","45.4348011","12.3493582"
"0319003201_","Store location - 0319003201_","","CS","Castello","Sotoportego Corte Del Cristo","3201","CS3201","Sotoportego Corte Del Cristo 3201","","45.4364523","12.3476144"
"0319003449_","Store location - 0319003449_","0319003450_","CS","Castello","Salizada Dei Greci","3449","CS3449","Salizada Dei Greci 3449","Castello Salizada Dei Greci 3450","45.43560126","12.34530655"
"0319003486_","Store location - 0319003486_","","CS","Castello","Salizada Sant'Antonin","3486","CS3486","Salizada Sant'Antonin 3486","","45.43522597","12.34677385"
"0319003536_","Store location - 0319003536_","","CS","Castello","Salizada Sant'Antonin","3536","CS3536","Salizada Sant'Antonin 3536","","45.43533535","12.3468257"
"0319003537A","Store location - 0319003537A","0319003537B","CS","Castello","Salizada Sant'Antonin","3537A","CS3537A","Salizada Sant'Antonin 3537A","Castello Salizada Sant'Antonin 3537 B","45.4352709","12.3468582"
"0319003738_","Store location - 0319003738_","","CS","Castello","Calle Del Dose","3738","CS3738","Calle Del Dose 3738","","45.4341612","12.3463535"
"0319003902A","Store location - 0319003902A","","CS","Castello","Calle Crosera","3902A","CS3902A","Calle Crosera 3902A","","45.4346047","12.3471762"
"0319003974_","Store location - 0319003974_","","CS","Castello","Calle De La Pescaria","3974","CS3974","Calle De La Pescaria 3974","","45.43383201","12.34748035"
"0319004123_","Store location - 0319004123_","","CS","Castello","Riva Dei Schiavoni","4123","CS4123","Riva Dei Schiavoni 4123","","45.4338064","12.3471797"
"0319004123A","Store location - 0319004123A","","CS","Castello","Riva Dei Schiavoni","4123A","CS4123A","Riva Dei Schiavoni 4123A","","45.4338033","12.3471954"
"0319004124_","Store location - 0319004124_","","CS","Castello","Riva Dei Schiavoni","4124","CS4124","Riva Dei Schiavoni 4124","","45.4338206","12.3470777"
"0319004128_","Store location - 0319004128_","","CS","Castello","Riva Dei Schiavoni","4128","CS4128","Riva Dei Schiavoni 4128","","45.4338419","12.3468982"
"0319004131_","Store location - 0319004131_","","CS","Castello","Riva Dei Schiavoni","4131","CS4131","Riva Dei Schiavoni 4131","","45.4338606","12.346734"
"0319004134_","Store location - 0319004134_","0319004135_","CS","Castello","Riva Dei Schiavoni","4134","CS4134","Riva Dei Schiavoni 4134","Castello Riva Dei Schiavoni 4135","45.4338773","12.3465898"
"0319004139_","Store location - 0319004139_","","CS","Castello","Riva Dei Schiavoni","4139","CS4139","Riva Dei Schiavoni 4139","","45.43389257","12.34646332"
"0319004145_","Store location - 0319004145_","","CS","Castello","Riva Dei Schiavoni","4145","CS4145","Riva Dei Schiavoni 4145","","45.43396703","12.34561331"
"0319004147_","Store location - 0319004147_","","CS","Castello","Riva Dei Schiavoni","4147","CS4147","Riva Dei Schiavoni 4147","","45.43397487","12.34554014"
"0319004151_","Store location - 0319004151_","","CS","Castello","Riva Dei Schiavoni","4151","CS4151","Riva Dei Schiavoni 4151","","45.43404703","12.34465861"
"0319004261_","Store location - 0319004261_","","CS","Castello","Calle Dei Albanesi","4261","CS4261","Calle Dei Albanesi 4261","","45.4346416","12.3414367"
"0319004292_","Store location - 0319004292_","","CS","Castello","Campo Santi Filippo E Giacomo","4292","CS4292","Campo Santi Filippo E Giacomo 4292","","45.43502998","12.34119636"
"0319004293_","Store location - 0319004293_","","CS","Castello","Campo Santi Filippo E Giacomo","4293","CS4293","Campo Santi Filippo E Giacomo 4293","","45.43503376","12.34113636"
"0319004293A","Store location - 0319004293A","","CS","Castello","Ruga Giuffa Santa Apollonia","4293A","CS4293A","Ruga Giuffa Santa Apollonia 4293A","","45.43503314","12.34108277"
"0319004299_","Store location - 0319004299_","","CS","Castello","Ruga Giuffa Santa Apollonia","4299","CS4299","Ruga Giuffa Santa Apollonia 4299","","45.43500735","12.34089901"
"0319004314_","Store location - 0319004314_","0319004315_","CS","Castello","Ruga Giuffa Santa Apollonia","4314","CS4314","Ruga Giuffa Santa Apollonia 4314","Castello Ruga Giuffa Santa Apollonia 4315","45.43500435","12.34076837"
"0319004321_","Store location - 0319004321_","","CS","Castello","Ruga Giuffa Santa Apollonia","4321","CS4321","Ruga Giuffa Santa Apollonia 4321","","45.43504764","12.34098868"
"0319004322_","Store location - 0319004322_","","CS","Castello","Ruga Giuffa Santa Apollonia","4322","CS4322","Ruga Giuffa Santa Apollonia 4322","","45.43505463","12.34101429"
"0319004334_","Store location - 0319004334_","","CS","Castello","Campo Santi Filippo E Giacomo","4334","CS4334","Campo Santi Filippo E Giacomo 4334","","45.43509854","12.34117812"
"0319004361_","Store location - 0319004361_","","CS","Castello","Calle Rimpetto La Sacrestia","4361","CS4361","Calle Rimpetto La Sacrestia 4361","","45.43536614","12.34169395"
"0319004362A","Store location - 0319004362A","","CS","Castello","Calle Rimpetto La Sacrestia","4362A","CS4362A","Calle Rimpetto La Sacrestia 4362A","","45.43539509","12.3416967"
"0319004395A","Store location - 0319004395A","0319004395B","CS","Castello","Campo San Zuane Novo","4395A","CS4395A","Campo San Zuane Novo 4395A","Castello Sotoportego De La Stua 4395 B","45.43573722","12.34121759"
"0319004517_","Store location - 0319004517_","","CS","Castello","Salizada San Provolo","4517","CS4517","Salizada San Provolo 4517","","45.43501123","12.34196819"
"0319004518_","Store location - 0319004518_","","CS","Castello","Salizada San Provolo","4518","CS4518","Salizada San Provolo 4518","","45.4350063","12.3420254"
"0319004522_","Store location - 0319004522_","","CS","Castello","Campo Santi Filippo E Giacomo","4522","CS4522","Campo Santi Filippo E Giacomo 4522","","45.43498305","12.34165059"
"0319004528_","Store location - 0319004528_","0319004532_","CS","Castello","Calle De Le Rasse","4528","CS4528","Calle De Le Rasse 4528","Castello Calle De Le Rasse 4532","45.43483188","12.34181578"
"0319004536_","Store location - 0319004536_","","CS","Castello","Calle De Le Rasse","4536","CS4536","Calle De Le Rasse 4536","","45.4346053","12.3417905"
"0319004545_","Store location - 0319004545_","","CS","Castello","Ramo Dei Padovani","4545","CS4545","Ramo Dei Padovani 4545","","45.4343601","12.3415082"
"0319004581_","Store location - 0319004581_","0319004582_;0319004583_;0319004584_","CS","Castello","Calle De Le Rasse","4581","CS4581","Calle De Le Rasse 4581","Castello Calle De Le Rasse 4582;Castello Calle De Le Rasse 4583;Castello Calle De Le Rasse 4584","45.43429694","12.34184887"
"0319004609_","Store location - 0319004609_","","CS","Castello","Calle De Le Rasse","4609","CS4609","Calle De Le Rasse 4609","","45.43461038","12.34183631"
"0319004615_","Store location - 0319004615_","","CS","Castello","Calle De Le Rasse","4615","CS4615","Calle De Le Rasse 4615","","45.43480187","12.34184908"
"0319004623_","Store location - 0319004623_","","CS","Castello","Salizada San Provolo","4623","CS4623","Salizada San Provolo 4623","","45.4349538","12.3420168"
"0319004696B","Store location - 0319004696B","","CS","Castello","Campo San Zaccaria","4696B","CS4696B","Campo San Zaccaria 4696B","","45.4349023","12.3429848"
"0319004703A","Store location - 0319004703A","","CS","Castello","Campo San Provolo","4703A","CS4703A","Campo San Provolo 4703A","","45.43515842","12.34266379"
"0319004850_","Store location - 0319004850_","","CS","Castello","Ruga Giuffa","4850","CS4850","Ruga Giuffa 4850","","45.4366536","12.3419651"
"0319004961A","Store location - 0319004961A","","CS","Castello","Calle Corte Rota","4961A","CS4961A","Calle Corte Rota 4961A","","45.43558837","12.34298082"
"0319004968_","Store location - 0319004968_","","CS","Castello","Fondamenta De L'Osmarin","4968","CS4968","Fondamenta De L'Osmarin 4968","","45.43553495","12.34328791"
"0319004974_","Store location - 0319004974_","","CS","Castello","Fondamenta De L'Osmarin","4974","CS4974","Fondamenta De L'Osmarin 4974","","45.43561487","12.34369195"
"0319004976A","Store location - 0319004976A","","CS","Castello","Fondamenta De L'Osmarin","4976A","CS4976A","Fondamenta De L'Osmarin 4976A","","45.43564624","12.34403861"
"0319004976C","Store location - 0319004976C","","CS","Castello","Fondamenta De L'Osmarin","4976C","CS4976C","Fondamenta De L'Osmarin 4976C","","45.43563353","12.34385987"
"0319004977C","Store location - 0319004977C","","CS","Castello","Fondamenta De L'Osmarin","4977C","CS4977C","Fondamenta De L'Osmarin 4977C","","45.43565735","12.34418326"
"0319004987_","Store location - 0319004987_","0319004987A","CS","Castello","Fondamenta San Lorenzo","4987","CS4987","Fondamenta San Lorenzo 4987","Castello Fondamenta San Lorenzo 4987 A","45.43582546","12.34427247"
"0319005174B","Store location - 0319005174B","0319005175_","CS","Castello","Calle Longa Santa Maria Formosa","5174B","CS5174B","Calle Longa Santa Maria Formosa 5174B","Castello Calle Longa Santa Maria Formosa 5175","45.43786993","12.34246708"
"0319005228_","Store location - 0319005228_","","CS","Castello","Calle Longa Santa Maria Formosa","5228","CS5228","Calle Longa Santa Maria Formosa 5228","","45.43761159","12.34163359"
"0319005269_","Store location - 0319005269_","","CS","Castello","Calle De Le Bande","5269","CS5269","Calle De Le Bande 5269","","45.43673253","12.34030555"
"0319005326_","Store location - 0319005326_","0319005327_","CS","Castello","Calle De Casseleria","5326","CS5326","Calle De Casseleria 5326","Castello Calle De Casseleria 5327","45.4362162","12.3398831"
"0319005351A","Store location - 0319005351A","","CS","Castello","Calle Al Ponte De La Guerra","5351A","CS5351A","Calle Al Ponte De La Guerra 5351A","","45.43651029","12.33971667"
"0319005352_","Store location - 0319005352_","","CS","Castello","Calle Al Ponte De La Guerra","5352","CS5352","Calle Al Ponte De La Guerra 5352","","45.43648077","12.33966261"
"0319005362_","Store location - 0319005362_","","CS","Castello","Calle Al Ponte De La Guerra","5362","CS5362","Calle Al Ponte De La Guerra 5362","","45.43632846","12.33938516"
"0319005370_","Store location - 0319005370_","0319005372_;0319005373_","CS","Castello","Calle Al Ponte De La Guerra","5370","CS5370","Calle Al Ponte De La Guerra 5370","Castello Calle Al Ponte De La Guerra 5372;Castello Calle Al Ponte De La Guerra 5373","45.4364432","12.3395375"
"0319005378_","Store location - 0319005378_","","CS","Castello","Calle Al Ponte De La Guerra","5378","CS5378","Calle Al Ponte De La Guerra 5378","","45.43653861","12.33971924"
"0319005386_","Store location - 0319005386_","","CS","Castello","Salizada San Lio","5386","CS5386","Salizada San Lio 5386","","45.43673502","12.33989689"
"0319005468_","Store location - 0319005468_","","CS","Castello","Salizada San Lio","5468","CS5468","Salizada San Lio 5468","","45.4371009","12.33945063"
"0319005573_","Store location - 0319005573_","","CS","Castello","Salizada San Lio","5573","CS5573","Salizada San Lio 5573","","45.43742046","12.33849995"
"0319005612_","Store location - 0319005612_","","CS","Castello","Ponte Sant'Antonio","5612","CS5612","Ponte Sant'Antonio 5612","","45.43761151","12.33785315"
"0319005618_","Store location - 0319005618_","","CS","Castello","Calle Al Ponte Sant'Antonio","5618","CS5618","Calle Al Ponte Sant'Antonio 5618","","45.43760723","12.33800132"
"0319005630_","Store location - 0319005630_","","CS","Castello","Campo San Lio","5630","CS5630","Campo San Lio 5630","","45.43766752","12.33827873"
"0319005756_","Store location - 0319005756_","0319005755_","CS","Castello","Calle Del Paradiso","5756","CS5756","Calle Del Paradiso 5756","Castello Calle Del Paradiso 5755","45.43731923","12.33967068"
"0319005766_","Store location - 0319005766_","","CS","Castello","Salizada San Lio","5766","CS5766","Salizada San Lio 5766","","45.43708885","12.33953196"
"0319005783_","Store location - 0319005783_","","CS","Castello","Salizada San Lio","5783","CS5783","Salizada San Lio 5783","","45.43700871","12.33964817"
"0319005792_","Store location - 0319005792_","","CS","Castello","Calle Del Mondo Novo","5792","CS5792","Calle Del Mondo Novo 5792","","45.43711311","12.34024517"
"0319006010_","Store location - 0319006010_","","CS","Castello","Corte Spechiera","6010","CS6010","Corte Spechiera 6010","","45.43832726","12.33841312"
"0319006185_","Store location - 0319006185_","","CS","Castello","Calle Longa Santa Maria Formosa","6185","CS6185","Calle Longa Santa Maria Formosa 6185","","45.43761813","12.34156095"
"0319006332_","Store location - 0319006332_","","CS","Castello","Campo San Zanipolo","6332","CS6332","Campo San Zanipolo 6332","","45.43887083","12.34200718"
"0319006335_","Store location - 0319006335_","","CS","Castello","Campo San Zanipolo","6335","CS6335","Campo San Zanipolo 6335","","45.4388464","12.34210412"
"0319006360A","Store location - 0319006360A","","CS","Castello","Barbaria De Le Tole","6360A","CS6360A","Barbaria De Le Tole 6360A","","45.43870768","12.34276955"
"0319006662A","Store location - 0319006662A","","CS","Castello","Calle Del Cafetier","6662A","CS6662A","Calle Del Cafetier 6662A","","45.4385684","12.34436056"
"0319006676_","Store location - 0319006676_","","CS","Castello","Barbaria De Le Tole","6676","CS6676","Barbaria De Le Tole 6676","","45.4386747","12.34326659"
"0319001138_","Store location - 0319001138_","","CS","Castello","Via Garibaldi","1138","CS1138","Via Garibaldi 1138","","45.43241556","12.35545277"
"0319005054A","Store location - 0319005054A","","CS","Castello","Fondamenta San Lorenzo","5054A","CS5054A","Fondamenta San Lorenzo 5054A","","45.43696132","12.34421479"
"0319002139A","Store location - 0319002139A","","CS","Castello","Riva San Biasio","2139A","CS2139A","Riva San Biasio 2139A","","45.4323443","12.3502107"
"0319002924A","Store location - 0319002924A","","CS","Castello","Salizada Santa Giustina","2924A","CS2924A","Salizada Santa Giustina 2924A","","45.43736059","12.34681224"
"0319004685_","Store location - 0319004685_","","CS","Castello","Calle San Zaccaria","4685","CS4685","Calle San Zaccaria 4685","","45.43443784","12.34291022"
"0319004758_","Store location - 0319004758_","","CS","Castello","Ruga Giuffa","4758","CS4758","Ruga Giuffa 4758","","45.43616474","12.3423906"
"0319004977B","Store location - 0319004977B","","CS","Castello","Fondamenta De L'Osmarin","4977B","CS4977B","Fondamenta De L'Osmarin 4977B","","45.43565463","12.34413047"
"0319005275_","Store location - 0319005275_","","CS","Castello","Calle De Le Bande","5275","CS5275","Calle De Le Bande 5275","","45.43662012","12.33996528"
"0319005765_","Store location - 0319005765_","","CS","Castello","Salizada San Lio","5765","CS5765","Salizada San Lio 5765","","45.43711275","12.33949567"
"0319006230_","Store location - 0319006230_","","CS","Castello","Calle Longa Santa Maria Formosa","6230","CS6230","Calle Longa Santa Maria Formosa 6230","","45.43768919","12.3417718"
"0319004317_","Store location - 0319004317_","","CS","Castello","Ruga Giuffa Santa Apollonia","4317","CS4317","Ruga Giuffa Santa Apollonia 4317","","45.43502209","12.34085552"
"0319004683_","Store location - 0319004683_","","CS","Castello","Calle S. Zaccaria","4683","CS4683","Calle S. Zaccaria 4683","","45.4348701","12.3428778"
"0319005640_","Store location - 0319005640_","","CS","Castello","Calle Del Pistor","5640","CS5640","Calle Del Pistor 5640","","45.4378164","12.33833398"
"0319005784_","Store location - 0319005784_","","CS","Castello","Salizada San Lio","5784","CS5784","Salizada San Lio 5784","","45.43698086","12.33968295"
"0319005944A","Store location - 0319005944A","","CS","Castello","Calle Del Frutarol","5944A","CS5944A","Calle Del Frutarol 5944A","","45.4380815","12.3388634"
"0319000918_","Store location - 0319000918_","","CS","Castello","Seco Marina","918","CS918","Seco Marina 918","","45.4309979","12.3563868"
"0319001339_","Store location - 0319001339_","","CS","Castello","Via Garibaldi","1339","CS1339","Via Garibaldi 1339","","45.43229637","12.35397346"
"0319002417_","Store location - 0319002417_","","CS","Castello","Fondamenta De Fronte A L'Arsenal","2417","CS2417","Fondamenta De Fronte A L'Arsenal 2417","","45.43479224","12.34931759"
"0319003188_","Store location - 0319003188_","","CS","Castello","Salizada De Le Gatte","3188","CS3188","Salizada De Le Gatte 3188","","45.43672217","12.34753707"
"0319003317_","Store location - 0319003317_","","CS","Castello","Salizada Dei Greci","3317","CS3317","Salizada Dei Greci 3317","","45.43567306","12.34523223"
"0319003544_","Store location - 0319003544_","","CS","Castello","Salizada Sant'Antonin","3544","CS3544","Salizada Sant'Antonin 3544","","45.4349928","12.34695615"
"0319004185_","Store location - 0319004185_","","CS","Castello","Riva Dei Schiavoni","4185","CS4185","Riva Dei Schiavoni 4185","","45.43403716","12.34296214"
"0319004271_","Store location - 0319004271_","","CS","Castello","Campo Santi Filippo E Giacomo","4271","CS4271","Campo Santi Filippo E Giacomo 4271","","45.4350168","12.34151548"
"0319004562_","Store location - 0319004562_","","CS","Castello","Calle De Le Rasse","4562","CS4562","Calle De Le Rasse 4562","","45.43421618","12.34185493"
"0319004690_","Store location - 0319004690_","0319004690A","CS","Castello","Calle San Zaccaria","4690","CS4690","Calle San Zaccaria 4690","Castello Calle San Zaccaria 4690 A","45.43412753","12.34289859"
"0319004886_","Store location - 0319004886_","","CS","Castello","Ruga Giuffa","4886","CS4886","Ruga Giuffa 4886","","45.43649634","12.34216095"
"0319005235_","Store location - 0319005235_","","CS","Castello","Calle Longa Santa Maria Formosa","5235","CS5235","Calle Longa Santa Maria Formosa 5235","","45.43754615","12.34148611"
"0319005415_","Store location - 0319005415_","0319005415A","CS","Castello","Salizada San Lio","5415","CS5415","Salizada San Lio 5415","Castello Calle Sant'Antonio 5415 A","45.43702718","12.33956"
"0319005904_","Store location - 0319005904_","0319005905_","CS","Castello","Campo Santa Marina","5904","CS5904","Campo Santa Marina 5904","Castello Campo Santa Marina 5905","45.4382956","12.33933294"
"0319006362_","Store location - 0319006362_","","CS","Castello","Barbaria De Le Tole","6362","CS6362","Barbaria De Le Tole 6362","","45.43868264","12.34288813"
"0319006552_","Store location - 0319006552_","","CS","Castello","Campo De Santa Giustina Detto De Barbaria","6552","CS6552","Campo De Santa Giustina Detto De Barbaria 6552","","45.43846571","12.34536447"
"0319000982_","Store location - 0319000982_","","CS","Castello","Seco Marina","982","CS982","Seco Marina 982","","45.43104443","12.35625552"
"0319001623_","Store location - 0319001623_","","CS","Castello","Via Garibaldi","1623","CS1623","Via Garibaldi 1623","","45.43203989","12.35188945"
"0319001699_","Store location - 0319001699_","0319001698A_","CS","Castello","Via Garibaldi","1699","CS1699","Via Garibaldi 1699","Castello Via Garibaldi 1698 A","45.43215503","12.35159004"
"0319001782_","Store location - 0319001782_","","CS","Castello","Via Garibaldi","1782","CS1782","Via Garibaldi 1782","","45.43232623","12.3530581"
"0319001795_","Store location - 0319001795_","","CS","Castello","Via Garibaldi","1795","CS1795","Via Garibaldi 1795","","45.43242709","12.35374607"
"0319003473_","Store location - 0319003473_","","CS","Castello","Salizada Sant'Antonin","3473","CS3473","Salizada Sant'Antonin 3473","","45.43544283","12.34624787"
"0319004520_","Store location - 0319004520_","0319004521_","CS","Castello","Campo Santi Filippo E Giacomo","4520","CS4520","Campo Santi Filippo E Giacomo 4520","Castello Campo Santi Filippo E Giacomo 4521","45.43499324","12.3415508"
"0319004885_","Store location - 0319004885_","","CS","Castello","Ruga Giuffa","4885","CS4885","Ruga Giuffa 4885","","45.4365351","12.3421198"
"0319004191_","Store location - 0319004191_","0319004192_","CS","Castello","Riva Dei Schiavoni","4191","CS4191","Riva Dei Schiavoni 4191","Castello Riva Dei Schiavoni 4192","45.43395461","12.34247758"
"0319004225_","Store location - 0319004225_","","CS","Castello","Calle Dei Albanesi","4225","CS4225","Calle Dei Albanesi 4225","","45.4343901","12.341441"
"0319001740_","Store location - 0319001740_","","CS","Castello","Via Garibaldi","1740","CS1740","Via Garibaldi 1740","","45.43223667","12.35207575"
"0319005330_","Store location - 0319005330_","","CS","Castello","Casseleria","5330","CS5330","Casseleria 5330","","45.4363282","12.3400217"
"0319005411_","Store location - 0319005411_","","CS","Castello","Salizada San Lio","5411","CS5411","Salizada San Lio 5411","","45.43691602","12.33970846"
"0319005577_","Store location - 0319005577_","","CS","Castello","Campo San Lio","5577","CS5577","Campo San Lio 5577","","45.4374711","12.33832524"
"0319005728_","Store location - 0319005728_","0319005729_","CS","Castello","Salizada San Lio","5728","CS5728","Salizada San Lio 5728","Castello Salizada San Lio 5729","45.43718721","12.33938516"
"0319005790_","Store location - 0319005790_","","CS","Castello","Calle Del Mondo Novo","5790","CS5790","Calle Del Mondo Novo 5790","","45.43706855","12.340144"
"0319001133_","Store location - 0319001133_","","CS","Castello","Fondamenta Sant'Anna","1133","CS1133","Fondamenta Sant'Anna 1133","","45.43242652","12.35572594"
"0319003156_","Store location - 0319003156_","","CS","Castello","Salizada San Francesco","3156","CS3156","Salizada San Francesco 3156","","45.43730755","12.34731421"
"0319003565_","Store location - 0319003565_","0319003566_","CS","Castello","Salizada Del Pignater","3565","CS3565","Salizada Del Pignater 3565","Castello Salizada Del Pignater 3566","45.4350561","12.347461"
"0319005179_","Store location - 0319005179_","","CS","Castello","Calle Longa Santa Maria Formosa","5179","CS5179","Calle Longa Santa Maria Formosa 5179","","45.43784594","12.34245144"
"0319005364_","Store location - 0319005364_","","CS","Castello","Ponte De La Guerra","5364","CS5364","Ponte De La Guerra 5364","","45.43629504","12.33932959"
"0319005595_","Store location - 0319005595_","","CS","Castello","Calle Seconda De La Fava","5595","CS5595","Calle Seconda De La Fava 5595","","45.43737403","12.33822253"
"0319005786B","Store location - 0319005786B","","CS","Castello","Calle Del Mondo Novo","5786B","CS5786B","Calle Del Mondo Novo 5786B","","45.43695199","12.33988858"
"0319004725_","Store location - 0319004725_","","CS","Castello","Calle Corte Rota","4725","CS4725","Calle Corte Rota 4725","","45.4356399","12.3428461"
