"primary_address_id","wiki_friendly_title","secondary_address_id","setiere_code","sestiere_name","street_name","street_number","sestiere_address","street_and_number","accessory_addresses","latitude","longitude"
"0278001145_","Store location - 0278001145_","","CN","Cannaregio","Campiello De La Scuola","1145","CN1145","Campiello De La Scuola 1145","","45.44462469","12.32565894"
"0278003378_","Store location - 0278003378_","0278003378B","CN","Cannaregio","Calle Dei Mori","3378","CN3378","Calle Dei Mori 3378","Cannaregio Calle Dei Mori 3378 B","45.44587035","12.33245318"
"0278003714_","Store location - 0278003714_","","CN","Cannaregio","Calle San Felice","3714","CN3714","Calle San Felice 3714","","45.44179939","12.33382207"
"0278004467_","Store location - 0278004467_","","CN","Cannaregio","Campo Drio La Chiesa","4467","CN4467","Campo Drio La Chiesa 4467","","45.44037802","12.33705092"
"0278005306A","Store location - 0278005306A","","CN","Cannaregio","Calle Del Fumo","5306A","CN5306A","Calle Del Fumo 5306A","","45.44155875","12.34028945"
"0707002860_","Store location - 0707002860_","","DD","Dorsoduro","Calle Longa De San Barnaba","2860","DD2860","Calle Longa De San Barnaba 2860","","45.43275457","12.32436299"
"0707003182_","Store location - 0707003182_","","DD","Dorsoduro","Calle De Le Boteghe","3182","DD3182","Calle De Le Boteghe 3182","","45.43358433","12.32517502"
"0707003771_","Store location - 0707003771_","","DD","Dorsoduro","Calle Dei Preti O Del Pistor","3771","DD3771","Calle Dei Preti O Del Pistor 3771","","45.43614748","12.3245895"
"0707003914_","Store location - 0707003914_","","DD","Dorsoduro","Calle De Dona Onesta","3914","DD3914","Calle De Dona Onesta 3914","","45.43577441","12.32629549"
"0707003921_","Store location - 0707003921_","","DD","Dorsoduro","Calle De Dona Onesta","3921","DD3921","Calle De Dona Onesta 3921","","45.43577441","12.32629549"
"0278001020_","Store location - 0278001020_","","CN","Cannaregio","Fondamenta De Cannaregio","1020","CN1020","Fondamenta De Cannaregio 1020","","45.44513873","12.32259032"
"0278001889C","Store location - 0278001889C","","CN","Cannaregio","Calle De L'Aseo","1889C","CN1889C","Calle De L'Aseo 1889C","","45.4443006","12.32933781"
"0278002100A","Store location - 0278002100A","","CN","Cannaregio","Rio Tera' De La Maddalena","2100A","CN2100A","Rio Tera' De La Maddalena 2100A","","45.44342238","12.33090419"
"0278002282_","Store location - 0278002282_","","CN","Cannaregio","Salizada Santa Fosca","2282","CN2282","Salizada Santa Fosca 2282","","45.44216846","12.33258525"
"0278004868A","Store location - 0278004868A","","CN","Cannaregio","Calle Dei Volti","4868A","CN4868A","Calle Dei Volti 4868A","","45.44248942","12.33822801"
"0278005306C","Store location - 0278005306C","","CN","Cannaregio","Calle Del Fumo","5306C","CN5306C","Calle Del Fumo 5306C","","45.44150826","12.34024859"
"0278005324_","Store location - 0278005324_","","CN","Cannaregio","Campiello Del Pestrin","5324","CN5324","Campiello Del Pestrin 5324","","45.44121656","12.34009708"
"0278005343_","Store location - 0278005343_","","CN","Cannaregio","Calle Del Pestrin","5343","CN5343","Calle Del Pestrin 5343","","45.44085518","12.33985569"
"0278005419A","Store location - 0278005419A","","CN","Cannaregio","Campiello Widmann Gia' Biri","5419A","CN5419A","Campiello Widmann Gia' Biri 5419A","","45.44061006","12.33987059"
"0707000364_","Store location - 0707000364_","","DD","Dorsoduro","Campiello Barbaro","364","DD364","Campiello Barbaro 364","","45.43037391","12.33229371"
"0707000448_","Store location - 0707000448_","0707000449_","DD","Dorsoduro","Rio Tera' San Vio","448","DD448","Rio Tera' San Vio 448","Dorsoduro Rio Tera' San Vio 449","45.42952167","12.33098785"
"0707000718_","Store location - 0707000718_","","DD","Dorsoduro","Corte Centani","718","DD718","Corte Centani 718","","45.43057103","12.33100868"
"0707000727_","Store location - 0707000727_","","DD","Dorsoduro","Calle De La Chiesa","727","DD727","Calle De La Chiesa 727","","45.43048353","12.33073276"
"0707000728_","Store location - 0707000728_","","DD","Dorsoduro","Calle De La Chiesa","728","DD728","Calle De La Chiesa 728","","45.43050517","12.33062474"
"0707001131_","Store location - 0707001131_","","DD","Dorsoduro","Fondamenta De Borgo","1131","DD1131","Fondamenta De Borgo 1131","","45.43104879","12.3245421"
"0707001173_","Store location - 0707001173_","","DD","Dorsoduro","Saca De La Toleta","1173","DD1173","Saca De La Toleta 1173","","45.43199643","12.32564536"
"0707001182_","Store location - 0707001182_","","DD","Dorsoduro","Calle Seconda De La Toleta","1182","DD1182","Calle Seconda De La Toleta 1182","","45.43182741","12.32606971"
"0707002609_","Store location - 0707002609_","0707002610_","DD","Dorsoduro","Fondamenta Del Soccorso","2609","DD2609","Fondamenta Del Soccorso 2609","Dorsoduro Campo Dei Carmini 2610","45.43378837","12.32174393"
"0707002783A","Store location - 0707002783A","","DD","Dorsoduro","Calle Del Tragheto","2783A","DD2783A","Calle Del Tragheto 2783A","","45.43299451","12.32574605"
"0707002898_","Store location - 0707002898_","","DD","Dorsoduro","Calle De La Scuola","2898","DD2898","Calle De La Scuola 2898","","45.43358196","12.32253243"
"0707002904_","Store location - 0707002904_","","DD","Dorsoduro","Campo Santa Margherita","2904","DD2904","Campo Santa Margherita 2904","","45.43377926","12.32279994"
"0707002946_","Store location - 0707002946_","","DD","Dorsoduro","Campo Santa Margherita","2946","DD2946","Campo Santa Margherita 2946","","45.43437171","12.32349098"
"0707003186_","Store location - 0707003186_","","DD","Dorsoduro","Calle De Le Boteghe","3186","DD3186","Calle De Le Boteghe 3186","","45.43363764","12.32520698"
"0707003212_","Store location - 0707003212_","","DD","Dorsoduro","Calle Del Capeler","3212","DD3212","Calle Del Capeler 3212","","45.43376411","12.32551738"
"0707003746_","Store location - 0707003746_","","DD","Dorsoduro","Calle San Pantalon","3746","DD3746","Calle San Pantalon 3746","","45.43572447","12.32513944"
"0707003752A","Store location - 0707003752A","","DD","Dorsoduro","Calle San Pantalon","3752A","DD3752A","Calle San Pantalon 3752A","","45.43555486","12.32495468"
"0278000917A","Store location - 0278000917A","0278002978M","CN","Cannaregio","Calle Ferau'","917A","CN917A","Calle Ferau' 917A","Cannaregio Calle De Le Penitenti 2978 M","45.44704318","12.32047641"
"0278003505_","Store location - 0278003505_","","CN","Cannaregio","Fondamenta De La Madona De L'Orto","3505","CN3505","Fondamenta De La Madona De L'Orto 3505","","45.44632951","12.33155984"
"0278000158A","Store location - 0278000158A","","CN","Cannaregio","Rio Tera' Lista De Spagna","158A","CN158A","Rio Tera' Lista De Spagna 158A","","45.44220184","12.32344273"
"0278000241_","Store location - 0278000241_","","CN","Cannaregio","Rio Tera' Lista De Spagna","241","CN241","Rio Tera' Lista De Spagna 241","","45.44264428","12.32437427"
"0278000337_","Store location - 0278000337_","","CN","Cannaregio","Fondamenta Venier","337","CN337","Fondamenta Venier 337","","45.44362436","12.32523373"
"0278000471_","Store location - 0278000471_","","CN","Cannaregio","Calle De Le Altane","471","CN471","Calle De Le Altane 471","","45.44423038","12.32295782"
"0278000696_","Store location - 0278000696_","","CN","Cannaregio","Corte Balleran","696","CN696","Corte Balleran 696","","45.44611493","12.31922357"
"0278000916H","Store location - 0278000916H","","CN","Cannaregio","Calle De Le Penitenti","916H","CN916H","Calle De Le Penitenti 916H","","45.4471422","12.3203205"
"0278001525_","Store location - 0278001525_","","CN","Cannaregio","Rio Tera' San Leonardo","1525","CN1525","Rio Tera' San Leonardo 1525","","45.443649","12.32661389"
"0278002515_","Store location - 0278002515_","","CN","Cannaregio","Fondamenta De La Misericordia","2515","CN2515","Fondamenta De La Misericordia 2515","","45.44421492","12.3327598"
"0278002951D","Store location - 0278002951D","","CN","Cannaregio","Campiello Chiovere","2951D","CN2951D","Campiello Chiovere 2951D","","45.44651352","12.32279783"
"0278003059_","Store location - 0278003059_","","CN","Cannaregio","Calle Contarini","3059","CN3059","Calle Contarini 3059","","45.44647588","12.32551511"
"0278003808_","Store location - 0278003808_","0278003724C","CN","Cannaregio","Corte Dei Pali O Testori","3808","CN3808","Corte Dei Pali O Testori 3808","Cannaregio Calle San Felice 3724 C","45.44161125","12.33403227"
"0278003823_","Store location - 0278003823_","","CN","Cannaregio","Strada Nova","3823","CN3823","Strada Nova 3823","","45.44144958","12.33353151"
"0278003847_","Store location - 0278003847_","","CN","Cannaregio","Corte Dei Pali O Testori","3847","CN3847","Corte Dei Pali O Testori 3847","","45.44152607","12.33412264"
"0278004298_","Store location - 0278004298_","","CN","Cannaregio","Calle De L'Oca","4298","CN4298","Calle De L'Oca 4298","","45.44083347","12.33540699"
"0278004371A","Store location - 0278004371A","","CN","Cannaregio","Calle De La Madona","4371A","CN4371A","Calle De La Madona 4371A","","45.44076927","12.33610348"
"0278004888F","Store location - 0278004888F","0278004888C;0278004888D;0278004888E;0278004887A","CN","Cannaregio","Calle De Le Cadene","4888F","CN4888F","Calle De Le Cadene 4888F","Cannaregio Salizada Dei Spechieri 4888 C;Cannaregio Salizada Dei Spechieri 4888 D;Cannaregio Salizada Dei Spechieri 4888 E;Cannaregio Salizada Dei Spechieri 4887A","45.4437657","12.33879135"
"0278005602_","Store location - 0278005602_","0278005604_","CN","Cannaregio","Campiello Flaminio Corner","5602","CN5602","Campiello Flaminio Corner 5602","Cannaregio Campiello Flaminio Corner 5604","45.43971472","12.33705578"
"0278005620B","Store location - 0278005620B","","CN","Cannaregio","Calle Dolfin","5620B","CN5620B","Calle Dolfin 5620B","","45.4398273","12.33673533"
"0707000129A","Store location - 0707000129A","","DD","Dorsoduro","Rio Tera' Dei Catecumeni","129A","DD129A","Rio Tera' Dei Catecumeni 129A","","45.43020045","12.33350371"
"0707001052A","Store location - 0707001052A","","DD","Dorsoduro","Calle Gambara","1052A","DD1052A","Calle Gambara 1052A","","45.43154805","12.32791814"
"0707001634_","Store location - 0707001634_","","DD","Dorsoduro","Fondamenta San Basegio","1634","DD1634","Fondamenta San Basegio 1634","","45.43200364","12.32062536"
"0707002104_","Store location - 0707002104_","0707002104C","DD","Dorsoduro","Calle Dei Sechi","2104","DD2104","Calle Dei Sechi 2104","Dorsoduro Calle Dei Sechi 2104 C","45.43301209","12.31350393"
"0707002314A","Store location - 0707002314A","","DD","Dorsoduro","Corte Mazor","2314A","DD2314A","Corte Mazor 2314A","","45.43276215","12.3172942"
"0707002760_","Store location - 0707002760_","","DD","Dorsoduro","Campo San Barnaba","2760","DD2760","Campo San Barnaba 2760","","45.43284355","12.32487653"
"0707002854_","Store location - 0707002854_","","DD","Dorsoduro","Calle Longa De San Barnaba","2854","DD2854","Calle Longa De San Barnaba 2854","","45.43281064","12.32462227"
"0707002964_","Store location - 0707002964_","","DD","Dorsoduro","Campo Santa Margherita","2964","DD2964","Campo Santa Margherita 2964","","45.43451781","12.32356572"
"0707003256_","Store location - 0707003256_","","DD","Dorsoduro","Calle Foscari","3256","DD3256","Calle Foscari 3256","","45.43449249","12.32587035"
"0278000284_","Store location - 0278000284_","0278000282_;0278000283A","CN","Cannaregio","Campo San Geremia","284","CN284","Campo San Geremia 284","Cannaregio Campo San Geremia 282;Cannaregio Campo San Geremia 283 A","45.44315508","12.32458282"
"0278005478_","Store location - 0278005478_","","CN","Cannaregio","Calle Bandi","5478","CN5478","Calle Bandi 5478","","45.440882","12.33954302"
"0278006376_","Store location - 0278006376_","","CN","Cannaregio","Calle Larga Giacinto Gallina","6376","CN6376","Calle Larga Giacinto Gallina 6376","","45.43964492","12.34092805"
"0707002920_","Store location - 0707002920_","","DD","Dorsoduro","Campo Santa Margherita","2920","DD2920","Campo Santa Margherita 2920","","45.43394886","12.32303804"
"0278002500_","Store location - 0278002500_","","CN","Cannaregio","Fondamenta De La Misericordia","2500","CN2500","Fondamenta De La Misericordia 2500","","45.44410361","12.33295501"
"0278004545_","Store location - 0278004545_","","CN","Cannaregio","Salizada Del Pistor","4545","CN4545","Salizada Del Pistor 4545","","45.44067493","12.3364651"
"0707002250_","Store location - 0707002250_","","DD","Dorsoduro","Fondamenta De L'Arzere","2250","DD2250","Fondamenta De L'Arzere 2250","","45.43411695","12.31695086"
"0707003059_","Store location - 0707003059_","","DD","Dorsoduro","Rio Terra' Canal","3059","DD3059","Rio Terra' Canal 3059","","45.43386767","12.32418939"
"0278004323_","Store location - 0278004323_","","CN","Cannaregio","Calle De L'Oca","4323","CN4323","Calle De L'Oca 4323","","45.44075885","12.3357284"
"0278000151_","Store location - 0278000151_","","CN","Cannaregio","Rio Tera' Lista De Spagna","151","CN151","Rio Tera' Lista De Spagna 151","","45.44210166","12.32330202"
"0278000159_","Store location - 0278000159_","","CN","Cannaregio","Rio Tera' Lista De Spagna","159","CN159","Rio Tera' Lista De Spagna 159","","45.442218","12.32347334"
"0278000627_","Store location - 0278000627_","","CN","Cannaregio","Fondamenta San Giobbe","627","CN627","Fondamenta San Giobbe 627","","45.44550175","12.32050625"
"0278000951_","Store location - 0278000951_","","CN","Cannaregio","Fondamenta De Cannaregio","951","CN951","Fondamenta De Cannaregio 951","","45.44556073","12.32114621"
"0278001064_","Store location - 0278001064_","","CN","Cannaregio","Fondamenta De Cannaregio","1064","CN1064","Fondamenta De Cannaregio 1064","","45.44485069","12.323446"
"0278001066_","Store location - 0278001066_","","CN","Cannaregio","Fondamenta De Cannaregio","1066","CN1066","Fondamenta De Cannaregio 1066","","45.44481013","12.32354482"
"0278001078_","Store location - 0278001078_","","CN","Cannaregio","Fondamenta De Cannaregio","1078","CN1078","Fondamenta De Cannaregio 1078","","45.44475098","12.32369356"
"0278001081_","Store location - 0278001081_","","CN","Cannaregio","Fondamenta De Cannaregio","1081","CN1081","Fondamenta De Cannaregio 1081","","45.44469463","12.32384285"
"0278001405_","Store location - 0278001405_","","CN","Cannaregio","Calle Del Frutarol","1405","CN1405","Calle Del Frutarol 1405","","45.44408686","12.32823371"
"0278001861A","Store location - 0278001861A","","CN","Cannaregio","Calle De L'Aseo","1861A","CN1861A","Calle De L'Aseo 1861A","","45.44478134","12.32964284"
"0278001889A","Store location - 0278001889A","","CN","Cannaregio","Calle De L'Aseo","1889A","CN1889A","Calle De L'Aseo 1889A","","45.4443579","12.32937111"
"0278001981A","Store location - 0278001981A","","CN","Cannaregio","Calle De L'Anconeta","1981A","CN1981A","Calle De L'Anconeta 1981A","","45.44379277","12.32973874"
"0278002433_","Store location - 0278002433_","","CN","Cannaregio","Calle Zancani","2433","CN2433","Calle Zancani 2433","","45.44356328","12.33248932"
"0278002675A","Store location - 0278002675A","","CN","Cannaregio","Calle Del Forno","2675A","CN2675A","Calle Del Forno 2675A","","45.44535728","12.32957758"
"0278002738_","Store location - 0278002738_","","CN","Cannaregio","Fondamenta Dei Ormesini","2738","CN2738","Fondamenta Dei Ormesini 2738","","45.44551414","12.32857328"
"0278002778_","Store location - 0278002778_","","CN","Cannaregio","Fondamenta Dei Ormesini","2778","CN2778","Fondamenta Dei Ormesini 2778","","45.44557805","12.32832198"
"0278003043A","Store location - 0278003043A","","CN","Cannaregio","Calle Rizzo","3043A","CN3043A","Calle Rizzo 3043A","","45.44644075","12.32529675"
"0278003384_","Store location - 0278003384_","","CN","Cannaregio","Campo Dei Mori","3384","CN3384","Campo Dei Mori 3384","","45.44557444","12.33221823"
"0278003384B","Store location - 0278003384B","","CN","Cannaregio","Campo Dei Mori","3384B","CN3384B","Campo Dei Mori 3384B","","45.44550518","12.33218127"
"0278003505_","Store location - 0278003505_","","CN","Cannaregio","Fondamenta De La Madona De L'Orto","3505","CN3505","Fondamenta De La Madona De L'Orto 3505","","45.44632951","12.33155984"
"0278003727_","Store location - 0278003727_","","CN","Cannaregio","Calle Larga Priuli","3727","CN3727","Calle Larga Priuli 3727","","45.44187416","12.33421669"
"0278004173_","Store location - 0278004173_","","CN","Cannaregio","Ruga Dei Do Pozzi","4173","CN4173","Ruga Dei Do Pozzi 4173","","45.44173669","12.33607095"
"0278004303_","Store location - 0278004303_","","CN","Cannaregio","Calle De L'Oca","4303","CN4303","Calle De L'Oca 4303","","45.44078427","12.33551411"
"0278004553_","Store location - 0278004553_","","CN","Cannaregio","Salizada Del Pistor","4553","CN4553","Salizada Del Pistor 4553","","45.44088417","12.33656733"
"0278005310_","Store location - 0278005310_","","CN","Cannaregio","Calle Del Fumo","5310","CN5310","Calle Del Fumo 5310","","45.44147962","12.34025347"
"0278005545_","Store location - 0278005545_","","CN","Cannaregio","Salizada San Canzian","5545","CN5545","Salizada San Canzian 5545","","45.43989666","12.33832796"
"0278005836_","Store location - 0278005836_","0278005837_;0278005839_","CN","Cannaregio","Calle Del Cagnoletto","5836","CN5836","Calle Del Cagnoletto 5836","Cannaregio Calle De L'Uficio De La Seda 5837;Cannaregio Corte Prima Del Milion 5839","45.43896331","12.33731893"
"0278005940_","Store location - 0278005940_","","CN","Cannaregio","Salizada San Canzian","5940","CN5940","Salizada San Canzian 5940","","45.43975242","12.33803361"
"0278006216A","Store location - 0278006216A","0278006216B","CN","Cannaregio","Calle De La Testa","6216A","CN6216A","Calle De La Testa 6216A","Cannaregio Calle De La Testa 6216 B","45.44009939","12.34080974"
"0278006308C","Store location - 0278006308C","0278006308B","CN","Cannaregio","Corte Del Paludo","6308C","CN6308C","Corte Del Paludo 6308C","Cannaregio Calle De La Testa 6308 B","45.44097531","12.34141971"
"0278006363_","Store location - 0278006363_","0278006364_","CN","Cannaregio","Calle De La Testa","6363","CN6363","Calle De La Testa 6363","Cannaregio Calle De La Testa 6364","45.4399161","12.34077075"
"0278006376A","Store location - 0278006376A","","CN","Cannaregio","Calle Larga Giacinto Gallina","6376A","CN6376A","Calle Larga Giacinto Gallina 6376A","","45.43963449","12.3409694"
"0707000188_","Store location - 0707000188_","","DD","Dorsoduro","Calle Del Bastion","188","DD188","Calle Del Bastion 188","","45.43068436","12.33291997"
"0707000190_","Store location - 0707000190_","","DD","Dorsoduro","Calle Del Bastion","190","DD190","Calle Del Bastion 190","","45.43068465","12.3328147"
"0707000652_","Store location - 0707000652_","","DD","Dorsoduro","Fondamenta Bragadin","652","DD652","Fondamenta Bragadin 652","","45.43030103","12.32974416"
"0707000867_","Store location - 0707000867_","","DD","Dorsoduro","Piscina Del Forner","867","DD867","Piscina Del Forner 867","","45.43068657","12.32955355"
"0707001160_","Store location - 0707001160_","","DD","Dorsoduro","Fondamenta De Borgo","1160","DD1160","Fondamenta De Borgo 1160","","45.43177612","12.32477354"
"0707001213_","Store location - 0707001213_","","DD","Dorsoduro","Saca De La Toleta","1213","DD1213","Saca De La Toleta 1213","","45.43189342","12.32578332"
"0707001518A","Store location - 0707001518A","","DD","Dorsoduro","Calle Del Vento","1518A","DD1518A","Calle Del Vento 1518A","","45.4309437","12.32097025"
"0707001720_","Store location - 0707001720_","","DD","Dorsoduro","Campo De L'Anzolo Rafael","1720","DD1720","Campo De L'Anzolo Rafael 1720","","45.43213643","12.31927967"
"0707001722_","Store location - 0707001722_","","DD","Dorsoduro","Campo De L'Anzolo Rafael","1722","DD1722","Campo De L'Anzolo Rafael 1722","","45.43211585","12.31914876"
"0707001754_","Store location - 0707001754_","0707001756_;0707001757A","DD","Dorsoduro","Fondamenta De La Pescaria","1754","DD1754","Fondamenta De La Pescaria 1754","Dorsoduro Fondamenta De La Pescaria 1756;Dorsoduro Fondamenta De La Pescaria 1756 A;Dorsoduro Fondamenta De La Pescaria 1757 A","45.43250489","12.31827851"
"0707002278_","Store location - 0707002278_","0707002277_","DD","Dorsoduro","Fondamenta De L'Arzere","2278","DD2278","Fondamenta De L'Arzere 2278","Dorsoduro Fondamenta De L'Arzere 2277","45.43344942","12.31715087"
"0707002334_","Store location - 0707002334_","","DD","Dorsoduro","Corte Mazor","2334","DD2334","Corte Mazor 2334","","45.43285566","12.31740321"
"0707002335_","Store location - 0707002335_","","DD","Dorsoduro","Corte Mazor","2335","DD2335","Corte Mazor 2335","","45.43282075","12.31740381"
"0707002344_","Store location - 0707002344_","0707002344A","DD","Dorsoduro","Fondamenta Barbarigo","2344","DD2344","Fondamenta Barbarigo 2344","Dorsoduro Fondamenta Barbarigo 2344 A","45.43259659","12.31759239"
"0707002353_","Store location - 0707002353_","","DD","Dorsoduro","Fondamenta Barbarigo","2353","DD2353","Fondamenta Barbarigo 2353","","45.43259419","12.31790967"
"0707002383_","Store location - 0707002383_","","DD","Dorsoduro","Fondamenta Briati","2383","DD2383","Fondamenta Briati 2383","","45.43311569","12.31964059"
"0707002687_","Store location - 0707002687_","","DD","Dorsoduro","Calle Longa De San Barnaba","2687","DD2687","Calle Longa De San Barnaba 2687","","45.43249726","12.3230688"
"0707002751_","Store location - 0707002751_","","DD","Dorsoduro","Calle Longa De San Barnaba","2751","DD2751","Calle Longa De San Barnaba 2751","","45.43275872","12.32449205"
"0707002835A","Store location - 0707002835A","","DD","Dorsoduro","Fondamenta Girardini","2835A","DD2835A","Fondamenta Girardini 2835A","","45.43308347","12.32433458"
"0707002839_","Store location - 0707002839_","","DD","Dorsoduro","Fondamenta Girardini","2839","DD2839","Fondamenta Girardini 2839","","45.43310999","12.32456178"
"0707002861_","Store location - 0707002861_","","DD","Dorsoduro","Calle Longa De San Barnaba","2861","DD2861","Calle Longa De San Barnaba 2861","","45.43274144","12.32428486"
"0707002869A","Store location - 0707002869A","","DD","Dorsoduro","Calle Longa De San Barnaba","2869A","DD2869A","Calle Longa De San Barnaba 2869A","","45.43263085","12.32371131"
"0707002881_","Store location - 0707002881_","","DD","Dorsoduro","Calle Longa De San Barnaba","2881","DD2881","Calle Longa De San Barnaba 2881","","45.43249831","12.3228909"
"0707002916_","Store location - 0707002916_","","DD","Dorsoduro","Campo Santa Margherita","2916","DD2916","Campo Santa Margherita 2916","","45.43384239","12.32290565"
"0707002917_","Store location - 0707002917_","","DD","Dorsoduro","Campo Santa Margherita","2917","DD2917","Campo Santa Margherita 2917","","45.4338621","12.32293835"
"0707002929_","Store location - 0707002929_","","DD","Dorsoduro","Campo Santa Margherita","2929","DD2929","Campo Santa Margherita 2929","","45.4340695","12.3232128"
"0707002930_","Store location - 0707002930_","","DD","Dorsoduro","Campo Santa Margherita","2930","DD2930","Campo Santa Margherita 2930","","45.43410112","12.3232487"
"0707003102_","Store location - 0707003102_","","DD","Dorsoduro","Fondamenta Del Squero","3102","DD3102","Fondamenta Del Squero 3102","","45.43317374","12.32382791"
"0707003220_","Store location - 0707003220_","","DD","Dorsoduro","Calle Del Capeler","3220","DD3220","Calle Del Capeler 3220","","45.43398493","12.32554105"
"0707003224_","Store location - 0707003224_","","DD","Dorsoduro","Calle Del Capeler","3224","DD3224","Calle Del Capeler 3224","","45.43413213","12.32562577"
"0707003274A","Store location - 0707003274A","","DD","Dorsoduro","Calle De La Madona","3274A","DD3274A","Calle De La Madona 3274A","","45.43395031","12.32545002"
"0707003280_","Store location - 0707003280_","","DD","Dorsoduro","Calle Del Capeler","3280","DD3280","Calle Del Capeler 3280","","45.43381615","12.32547623"
"0707003282_","Store location - 0707003282_","","DD","Dorsoduro","Calle Del Fabbro","3282","DD3282","Calle Del Fabbro 3282","","45.43374813","12.32545388"
"0707003488S","Store location - 0707003488S","0707003488T","DD","Dorsoduro","Calle Contarina","3488S","DD3488S","Calle Contarina 3488S","Dorsoduro Calle Contarina 3488 T","45.43497309","12.32086963"
"0707003747_","Store location - 0707003747_","","DD","Dorsoduro","Calle San Pantalon","3747","DD3747","Calle San Pantalon 3747","","45.43575074","12.32515459"
"0278000505_","Store location - 0278000505_","","CN","Cannaregio","Fondamenta San Giobbe","505","CN505","Fondamenta San Giobbe 505","","45.44475719","12.32267454"
"0278001294_","Store location - 0278001294_","","CN","Cannaregio","Fondamenta De Cannaregio","1294","CN1294","Fondamenta De Cannaregio 1294","","45.44385208","12.32553656"
"0278002215_","Store location - 0278002215_","","CN","Cannaregio","Strada Nova","2215","CN2215","Strada Nova 2215","","45.44308126","12.3318233"
"0278002340_","Store location - 0278002340_","","CN","Cannaregio","Rio Tera' De La Maddalena","2340","CN2340","Rio Tera' De La Maddalena 2340","","45.44339914","12.33119241"
"0278002464_","Store location - 0278002464_","","CN","Cannaregio","Fondamenta Trapolin","2464","CN2464","Fondamenta Trapolin 2464","","45.44310842","12.33367728"
"0278002497_","Store location - 0278002497_","","CN","Cannaregio","Fondamenta De La Misericordia","2497","CN2497","Fondamenta De La Misericordia 2497","","45.44402362","12.33310018"
"0278002588_","Store location - 0278002588_","","CN","Cannaregio","Fondamenta De La Misericordia","2588","CN2588","Fondamenta De La Misericordia 2588","","45.44482189","12.33125166"
"0278002844_","Store location - 0278002844_","","CN","Cannaregio","Fondamenta Dei Ormesini","2844","CN2844","Fondamenta Dei Ormesini 2844","","45.44597595","12.32678162"
"0278003924_","Store location - 0278003924_","","CN","Cannaregio","Strada Nova","3924","CN3924","Strada Nova 3924","","45.44126829","12.33421192"
"0278003925_","Store location - 0278003925_","","CN","Cannaregio","Strada Nova","3925","CN3925","Strada Nova 3925","","45.44128514","12.33417248"
"0278004385_","Store location - 0278004385_","","CN","Cannaregio","Strada Nova","4385","CN4385","Strada Nova 4385","","45.44058497","12.33567807"
"0278004451_","Store location - 0278004451_","","CN","Cannaregio","Campo Santi Apostoli","4451","CN4451","Campo Santi Apostoli 4451","","45.44013327","12.33644726"
"0278004556B","Store location - 0278004556B","","CN","Cannaregio","Salizada Del Pistor","4556B","CN4556B","Salizada Del Pistor 4556B","","45.44097777","12.33655396"
"0278004788_","Store location - 0278004788_","","CN","Cannaregio","Salizada Del Spezier","4788","CN4788","Salizada Del Spezier 4788","","45.44177533","12.3377526"
"0278005917A","Store location - 0278005917A","","CN","Cannaregio","Salizada San Canzian","5917A","CN5917A","Salizada San Canzian 5917A","","45.43966599","12.33759796"
"0278006066B","Store location - 0278006066B","","CN","Cannaregio","Fondamenta Del Piovan","6066B","CN6066B","Fondamenta Del Piovan 6066B","","45.43984099","12.33941826"
"0707000868_","Store location - 0707000868_","","DD","Dorsoduro","Piscina Del Forner","868","DD868","Piscina Del Forner 868","","45.43070171","12.32947146"
"0707000879C","Store location - 0707000879C","","DD","Dorsoduro","Calle Nova Sant'Agnese","879C","DD879C","Calle Nova Sant'Agnese 879C","","45.43085303","12.32885741"
"0707001057A","Store location - 0707001057A","","DD","Dorsoduro","Sotoportego Contarini Corfu'","1057A","DD1057A","Sotoportego Contarini Corfu' 1057A","","45.4318035","12.32725273"
"0707001189A","Store location - 0707001189A","","DD","Dorsoduro","Saca De La Toleta","1189A","DD1189A","Saca De La Toleta 1189A","","45.43170105","12.32654022"
"0707002338_","Store location - 0707002338_","","DD","Dorsoduro","Corte Mazor","2338","DD2338","Corte Mazor 2338","","45.43273063","12.31740407"
"0707003110_","Store location - 0707003110_","","DD","Dorsoduro","Rio Terra' Canal","3110","DD3110","Rio Terra' Canal 3110","","45.43347132","12.3242814"
"0707003214A","Store location - 0707003214A","","DD","Dorsoduro","Calle Del Capeler","3214A","DD3214A","Calle Del Capeler 3214A","","45.43387716","12.3255219"
"0707003284_","Store location - 0707003284_","","DD","Dorsoduro","Calle Del Fabbro","3284","DD3284","Calle Del Fabbro 3284","","45.43373806","12.32530044"
"0707003701_","Store location - 0707003701_","","DD","Dorsoduro","Campo San Pantalon","3701","DD3701","Campo San Pantalon 3701","","45.43554902","12.32443482"
"0707003769A","Store location - 0707003769A","","DD","Dorsoduro","Calle Dei Preti O Del Pistor","3769A","DD3769A","Calle Dei Preti O Del Pistor 3769A","","45.43609222","12.32466243"
"0707003774_","Store location - 0707003774_","","DD","Dorsoduro","Calle Dei Preti O Del Pistor","3774","DD3774","Calle Dei Preti O Del Pistor 3774","","45.43610683","12.32472874"
"0707003964_","Store location - 0707003964_","","DD","Dorsoduro","Calle Del Scaleter","3964","DD3964","Calle Del Scaleter 3964","","45.43611693","12.32551736"
"0278002338_","Store location - 0278002338_","","CN","Cannaregio","Rio Tera' De La Maddalena","2338","CN2338","Rio Tera' De La Maddalena 2338","","45.44337982","12.33125511"
"0278003844_","Store location - 0278003844_","","CN","Cannaregio","Strada Nova","3844","CN3844","Strada Nova 3844","","45.44130609","12.33412905"
"0278005318_","Store location - 0278005318_","","CN","Cannaregio","Calle Del Fumo","5318","CN5318","Calle Del Fumo 5318","","45.44133152","12.34013907"
"0278001520_","Store location - 0278001520_","","CN","Cannaregio","Rio Tera' San Leonardo","1520","CN1520","Rio Tera' San Leonardo 1520","","45.44364737","12.32631577"
"0278003102_","Store location - 0278003102_","","CN","Cannaregio","Fondamenta De Le Capuzzine","3102","CN3102","Fondamenta De Le Capuzzine 3102","","45.44615117","12.32611845"
"0278004610_","Store location - 0278004610_","","CN","Cannaregio","Rio Tera' Dei Franceschi","4610","CN4610","Rio Tera' Dei Franceschi 4610","","45.44131109","12.33707358"
"0707000853D","Store location - 0707000853D","","DD","Dorsoduro","Calle Nova Sant'Agnese","853D","DD853D","Calle Nova Sant'Agnese 853D","","45.43078809","12.32890159"
"0278002060_","Store location - 0278002060_","","CN","Cannaregio","Rio Tera' De La Maddalena","2060","CN2060","Rio Tera' De La Maddalena 2060","","45.44350347","12.33036777"
"0278002433B","Store location - 0278002433B","","CN","Cannaregio","Calle Zancani","2433B","CN2433B","Calle Zancani 2433B","","45.44352764","12.33244308"
"0278003102A","Store location - 0278003102A","","CN","Cannaregio","Fondamenta De Le Capuzzine","3102A","CN3102A","Fondamenta De Le Capuzzine 3102A","","45.44613616","12.32616724"
"0278004653_","Store location - 0278004653_","","CN","Cannaregio","Rio Tera' Santi Apostoli","4653","CN4653","Rio Tera' Santi Apostoli 4653","","45.44121186","12.33756154"
"0278005161G","Store location - 0278005161G","","CN","Cannaregio","Calle Dei Cordoni","5161G","CN5161G","Calle Dei Cordoni 5161G","","45.44213579","12.34033671"
"0278005579_","Store location - 0278005579_","","CN","Cannaregio","Salizada San Canzian","5579","CN5579","Salizada San Canzian 5579","","45.43967824","12.33750222"
"0278005802_","Store location - 0278005802_","0278005803_;","CN","Cannaregio","Salizada San Giovanni Grisostomo","5802","CN5802","Salizada San Giovanni Grisostomo 5802","Cannaregio Calle De L'Uficio De La Seda 5803","45.4390153","12.33714415"
"0278006268A","Store location - 0278006268A","","CN","Cannaregio","Calle Del Squero","6268A","CN6268A","Calle Del Squero 6268A","","45.44120213","12.3415214"
"0707000879A","Store location - 0707000879A","","DD","Dorsoduro","Rio Tera' Foscarini","879A","DD879A","Rio Tera' Foscarini 879A","","45.43095753","12.32866573"
"0707001183_","Store location - 0707001183_","","DD","Dorsoduro","Calle Seconda De La Toleta","1183","DD1183","Calle Seconda De La Toleta 1183","","45.43178309","12.3260775"
"0707002760_","Store location - 0707002760_","","DD","Dorsoduro","Campo San Barnaba","2760","DD2760","Campo San Barnaba 2760","","45.43284355","12.32487653"
"0707003755_","Store location - 0707003755_","","DD","Dorsoduro","Calle San Pantalon","3755","DD3755","Calle San Pantalon 3755","","45.43566759","12.32507033"
"0278002734_","Store location - 0278002734_","0278002735_","CN","Cannaregio","Fondamenta Dei Ormesini","2734","CN2734","Fondamenta Dei Ormesini 2734","Cannaregio Fondamenta Dei Ormesini 2735","45.44547613","12.32873551"
"0707000735A","Store location - 0707000735A","0707000736_","DD","Dorsoduro","Fondamenta Venier","735A","DD735A","Fondamenta Venier 735A","Dorsoduro Fondamenta Venier 736","45.43047537","12.32958687"
"0707001078_","Store location - 0707001078_","","DD","Dorsoduro","Fondamenta Toffetti","1078","DD1078","Fondamenta Toffetti 1078","","45.43111243","12.32652107"
"0278001836A","Store location - 0278001836A","0278001836_;0278001836B","CN","Cannaregio","Rio Tera' Farsetti","1836A","CN1836A","Rio Tera' Farsetti 1836A","Cannaregio Rio Tera' Farsetti 1836;Cannaregio Rio Tera' Farsetti 1836 B","45.44417534","12.32875534"
"0278005065A","Store location - 0278005065A","0278005066_;0278005067_","CN","Cannaregio","Fondamente Nove","5065A","CN5065A","Fondamente Nove 5065A","Cannaregio Fondamente Nove 5066;Cannaregio Fondamente Nove 5067","45.4427298","12.3410725"
"0278004556C","Store location - 0278004556C","","CN","Cannaregio","Salizada Del Pistor","4556C","CN4556C","Salizada Del Pistor 4556C","","45.44103167","12.33658242"
"0707002996_","Store location - 0707002996_","","DD","Dorsoduro","Campo Santa Margherita","2996","DD2996","Campo Santa Margherita 2996","","45.43481254","12.32377835"
"0278002059_","Store location - 0278002059_","0278002058_","CN","Cannaregio","Rio Tera' De La Maddalena","2059","CN2059","Rio Tera' De La Maddalena 2059","Cannaregio Rio Tera' De La Maddalena 2058","45.44352164","12.3302882"
"0278002753_","Store location - 0278002753_","","CN","Cannaregio","Fondamenta Dei Ormesini","2753","CN2753","Fondamenta Dei Ormesini 2753","","45.44554618","12.32844633"
"0278003043_","Store location - 0278003043_","","CN","Cannaregio","Fondamenta De Le Capuzzine","3043","CN3043","Fondamenta De Le Capuzzine 3043","","45.44638442","12.3251453"
"0278003093_","Store location - 0278003093_","","CN","Cannaregio","Calle Del Squero","3093","CN3093","Calle Del Squero 3093","","45.44647994","12.32568859"
"0278003097A","Store location - 0278003097A","","CN","Cannaregio","Fondamenta De Le Capuzzine","3097A","CN3097A","Fondamenta De Le Capuzzine 3097A","","45.44624504","12.32569785"
"0278003196A","Store location - 0278003196A","","CN","Cannaregio","Calle De La Rotonda","3196A","CN3196A","Calle De La Rotonda 3196A","","45.44766783","12.32838841"
"0278004547_","Store location - 0278004547_","","CN","Cannaregio","Salizada Del Pistor","4547","CN4547","Salizada Del Pistor 4547","","45.44068518","12.33639919"
"0278006060A","Store location - 0278006060A","0278006060B","CN","Cannaregio","Campo Santa Maria Nova","6060A","CN6060A","Campo Santa Maria Nova 6060A","Cannaregio Calle Larga Widmann 6060 B","45.43998631","12.33902136"
"0707000722_","Store location - 0707000722_","","DD","Dorsoduro","Fondamenta Venier Dai Leoni","722","DD722","Fondamenta Venier Dai Leoni 722","","45.43042667","12.33086247"
"0707000879D","Store location - 0707000879D","","DD","Dorsoduro","Calle Nova Sant'Agnese","879D","DD879D","Calle Nova Sant'Agnese 879D","","45.43083414","12.32889826"
"0707001007A","Store location - 0707001007A","","DD","Dorsoduro","Fondamenta Priuli","1007A","DD1007A","Fondamenta Priuli 1007A","","45.43111315","12.32669619"
"0707002606A","Store location - 0707002606A","","DD","Dorsoduro","Fondamenta Del Soccorso","2606A","DD2606A","Fondamenta Del Soccorso 2606A","","45.43373566","12.32156088"
"0278000414_","Store location - 0278000414_","","CN","Cannaregio","Calle Rielo","414","CN414","Calle Rielo 414","","45.44428542","12.32381249"
"0278002496_","Store location - 0278002496_","","CN","Cannaregio","Fondamenta De La Misericordia","2496","CN2496","Fondamenta De La Misericordia 2496","","45.44400629","12.33313094"
"0278003725A","Store location - 0278003725A","","CN","Cannaregio","Calle Larga Priuli","3725A","CN3725A","Calle Larga Priuli 3725A","","45.4417945","12.33413108"
"0278005435F","Store location - 0278005435F","0278005435G","CN","Cannaregio","Calle De La Madona","5435F","CN5435F","Calle De La Madona 5435F","Cannaregio Calle De La Madona 5435 G","45.44139178","12.33928571"
"0278005567A","Store location - 0278005567A","","CN","Cannaregio","Rio Tera' Del Bagatin","5567A","CN5567A","Rio Tera' Del Bagatin 5567A","","45.44014492","12.33754853"
"0278005587_","Store location - 0278005587_","","CN","Cannaregio","Campiello Flaminio Corner","5587","CN5587","Campiello Flaminio Corner 5587","","45.43971476","12.33721941"
"0707001127_","Store location - 0707001127_","","DD","Dorsoduro","Fondamenta De Borgo","1127","DD1127","Fondamenta De Borgo 1127","","45.43089487","12.32443152"
"0707002855_","Store location - 0707002855_","","DD","Dorsoduro","Calle Longa De San Barnaba","2855","DD2855","Calle Longa De San Barnaba 2855","","45.43280016","12.32457264"
"0278003723_","Store location - 0278003723_","","CN","Cannaregio","Calle San Felice","3723","CN3723","Calle San Felice 3723","","45.44167751","12.33399066"
"0278004544_","Store location - 0278004544_","","CN","Cannaregio","Campo Santi Apostoli","4544","CN4544","Campo Santi Apostoli 4544","","45.440429","12.33646054"
"0707000880C","Store location - 0707000880C","","DD","Dorsoduro","Calle Nova Sant'Agnese","880C","DD880C","Calle Nova Sant'Agnese 880C","","45.43081696","12.32883155"
"0278000054_","Store location - 0278000054_","","CN","Cannaregio","Fondamenta Santa Lucia","54","CN54","Fondamenta Santa Lucia 54","","45.44134482","12.32180657"
"0278001704_","Store location - 0278001704_","","CN","Cannaregio","Rio Tera' San Leonardo","1704","CN1704","Rio Tera' San Leonardo 1704","","45.44383693","12.32815652"
"0278003519_","Store location - 0278003519_","","CN","Cannaregio","Fondamenta De La Madona De L'Orto","3519","CN3519","Fondamenta De La Madona De L'Orto 3519","","45.44618494","12.33213197"
"0278006075_","Store location - 0278006075_","","CN","Cannaregio","Campo Dei Miracoli","6075","CN6075","Campo Dei Miracoli 6075","","45.43930246","12.33908104"
"0278001293_","Store location - 0278001293_","","CN","Cannaregio","Fondamenta De Cannaregio","1293","CN1293","Fondamenta De Cannaregio 1293","","45.44386903","12.32551288"
"0278002432_","Store location - 0278002432_","","CN","Cannaregio","Calle Zancani","2432","CN2432","Calle Zancani 2432","","45.44355595","12.33241443"
"0278002873_","Store location - 0278002873_","","CN","Cannaregio","Campo Del Gheto Novo","2873","CN2873","Campo Del Gheto Novo 2873","","45.44556717","12.32723829"
"0278003947_","Store location - 0278003947_","0278003946_;0278003948_","CN","Cannaregio","Strada Nova","3947","CN3947","Strada Nova 3947","Cannaregio Strada Nova 3946;Cannaregio Strada Nova 3948","45.44117105","12.33446059"
"0278004541A","Store location - 0278004541A","","CN","Cannaregio","Calle Vincenzo Manzini","4541A","CN4541A","Calle Vincenzo Manzini 4541A","","45.44073418","12.33704333"
"0278005849_","Store location - 0278005849_","0278005849A;","CN","Cannaregio","Corte Seconda Del Milion","5849","CN5849","Corte Seconda Del Milion 5849","Cannaregio Corte Seconda Del Milion 5849 A","45.43871287","12.33786775"
"0278006043B","Store location - 0278006043B","","CN","Cannaregio","Campo Santa Maria Nova","6043B","CN6043B","Campo Santa Maria Nova 6043B","","45.43989255","12.33885997"
"0278006381B","Store location - 0278006381B","","CN","Cannaregio","Calle Larga Giacinto Gallina","6381B","CN6381B","Calle Larga Giacinto Gallina 6381B","","45.4396386","12.34075728"
"0278006424_","Store location - 0278006424_","0278006424A","CN","Cannaregio","Calle De Le Erbe","6424","CN6424","Calle De Le Erbe 6424","Cannaregio Calle De Le Erbe 6424 A","45.43892648","12.34047618"
"0707000880D","Store location - 0707000880D","","DD","Dorsoduro","Calle Nova Sant'Agnese","880D","DD880D","Calle Nova Sant'Agnese 880D","","45.43085991","12.32873643"
"0707001197A","Store location - 0707001197A","","DD","Dorsoduro","Campiello Centopietre","1197A","DD1197A","Campiello Centopietre 1197A","","45.4318384","12.32610878"
"0707002701_","Store location - 0707002701_","","DD","Dorsoduro","Calle Longa De San Barnaba","2701","DD2701","Calle Longa De San Barnaba 2701","","45.43258737","12.3236207"
"0707002761_","Store location - 0707002761_","","DD","Dorsoduro","Campo San Barnaba","2761","DD2761","Campo San Barnaba 2761","","45.43285795","12.32494195"
"0707002774_","Store location - 0707002774_","","DD","Dorsoduro","Calle Del Tragheto","2774","DD2774","Calle Del Tragheto 2774","","45.43295215","12.3254439"
"0707002834A","Store location - 0707002834A","","DD","Dorsoduro","Fondamenta Girardini","2834A","DD2834A","Fondamenta Girardini 2834A","","45.43307431","12.3242434"
"0707003002_","Store location - 0707003002_","0707003001_","DD","Dorsoduro","Campo Santa Margherita","3002","DD3002","Campo Santa Margherita 3002","Dorsoduro Campo Santa Margherita 3001","45.43444366","12.32407091"
"0707003116_","Store location - 0707003116_","","DD","Dorsoduro","Rio Terra' Canal","3116","DD3116","Rio Terra' Canal 3116","","45.43393443","12.32434421"
"0278000280_","Store location - 0278000280_","","CN","Cannaregio","Campo San Geremia","280","CN280","Campo San Geremia 280","","45.44286242","12.32456587"
"0278000325_","Store location - 0278000325_","","CN","Cannaregio","Salizada San Geremia","325","CN325","Salizada San Geremia 325","","45.44343586","12.32508738"
"0278000969_","Store location - 0278000969_","","CN","Cannaregio","Fondamenta De Cannaregio","969","CN969","Fondamenta De Cannaregio 969","","45.44538102","12.32167785"
"0278001297_","Store location - 0278001297_","","CN","Cannaregio","Ponte De Cannaregio O De Le Guglie","1297","CN1297","Ponte De Cannaregio O De Le Guglie 1297","","45.4438014","12.32562052"
"0278001647_","Store location - 0278001647_","","CN","Cannaregio","Rio Tera' San Leonardo","1647","CN1647","Rio Tera' San Leonardo 1647","","45.44374148","12.32769091"
"0278001702_","Store location - 0278001702_","","CN","Cannaregio","Rio Tera' San Leonardo","1702","CN1702","Rio Tera' San Leonardo 1702","","45.44381766","12.328027"
"0278001984_","Store location - 0278001984_","","CN","Cannaregio","Calle De L'Anconeta","1984","CN1984","Calle De L'Anconeta 1984","","45.44385656","12.32961853"
"0278002914_","Store location - 0278002914_","","CN","Cannaregio","Campo Del Gheto Novo","2914","CN2914","Campo Del Gheto Novo 2914","","45.44534916","12.32729229"
"0278005693_","Store location - 0278005693_","","CN","Cannaregio","Salizada San Giovanni Grisostomo","5693","CN5693","Salizada San Giovanni Grisostomo 5693","","45.43938965","12.33700929"
"0278006032_","Store location - 0278006032_","","CN","Cannaregio","Calle Santa Maria Nova","6032","CN6032","Calle Santa Maria Nova 6032","","45.43975645","12.33884555"
"0278006051_","Store location - 0278006051_","","CN","Cannaregio","Campiello Bruno Crovato Gia' San Canzian","6051","CN6051","Campiello Bruno Crovato Gia' San Canzian 6051","","45.43996409","12.33866276"
"0278006379_","Store location - 0278006379_","","CN","Cannaregio","Calle Larga Giacinto Gallina","6379","CN6379","Calle Larga Giacinto Gallina 6379","","45.43959757","12.34092759"
"0278006420_","Store location - 0278006420_","","CN","Cannaregio","Calle De Le Erbe","6420","CN6420","Calle De Le Erbe 6420","","45.43890202","12.34049847"
"0707001746_","Store location - 0707001746_","","DD","Dorsoduro","Salizada De La Chiesa","1746","DD1746","Salizada De La Chiesa 1746","","45.43247211","12.31869881"
"0278005555A","Store location - 0278005555A","","CN","Cannaregio","Salizada San Canzian","5555A","CN5555A","Salizada San Canzian 5555A","","45.43975421","12.33794238"
"0707001472_","Store location - 0707001472_","","DD","Dorsoduro","Fondamenta Zattere Al Ponte Longo","1472","DD1472","Fondamenta Zattere Al Ponte Longo 1472","","45.43061305","12.32207331"
"0278002502_","Store location - 0278002502_","","CN","Cannaregio","Fondamenta De La Misericordia","2502","CN2502","Fondamenta De La Misericordia 2502","","45.44413876","12.33289583"
"0707003530_","Store location - 0707003530_","","DD","Dorsoduro","Fondamenta Del Gaffaro","3530","DD3530","Fondamenta Del Gaffaro 3530","","45.43688056","12.32132187"
"0278001936C","Store location - 0278001936C","","CN","Cannaregio","Calle Del Pignater","1936C","CN1936C","Calle Del Pignater 1936C","","45.44478005","12.3298549"
"0278002292E","Store location - 0278002292E","","CN","Cannaregio","Campiello De La Chiesa","2292E","CN2292E","Campiello De La Chiesa 2292E","","45.44277412","12.33242478"
"0278003218A","Store location - 0278003218A","","CN","Cannaregio","Fondamenta De La Sensa","3218A","CN3218A","Fondamenta De La Sensa 3218A","","45.446813","12.32716745"
"0278003400_","Store location - 0278003400_","","CN","Cannaregio","Fondamenta Dei Mori","3400","CN3400","Fondamenta Dei Mori 3400","","45.44523963","12.33244634"
"0278005150B","Store location - 0278005150B","","CN","Cannaregio","Calle Del Fumo","5150B","CN5150B","Calle Del Fumo 5150B","","45.44169087","12.34041498"
"0707000997_","Store location - 0707000997_","","DD","Dorsoduro","Calle Del Pistor","997","DD997","Calle Del Pistor 997","","45.43099074","12.32713963"
"0707003220_","Store location - 0707003220_","","DD","Dorsoduro","Calle Del Capeler","3220","DD3220","Calle Del Capeler 3220","","45.43398493","12.32554105"
"0278006108_","Store location - 0278006108_","","CN","Cannaregio","Calle De Le Erbe","6108","CN6108","Calle De Le Erbe 6108","","45.43891493","12.34039981"
"0707001751_","Store location - 0707001751_","","DD","Dorsoduro","Fondamenta De La Pescaria","1751","DD1751","Fondamenta De La Pescaria 1751","","45.43251823","12.31839985"
"0278000133_","Store location - 0278000133_","","CN","Cannaregio","Rio Tera' Lista De Spagna","133","CN133","Rio Tera' Lista De Spagna 133","","45.44200237","12.32315883"
"0278001296_","Store location - 0278001296_","","CN","Cannaregio","Fondamenta De Cannaregio","1296","CN1296","Fondamenta De Cannaregio 1296","","45.44381021","12.32560471"
"0707002480A","Store location - 0707002480A","","DD","Dorsoduro","Fondamenta San","2480A","DD2480A","Fondamenta San 2480A","","45.43541971","12.32034875"
"0707003762_","Store location - 0707003762_","","DD","Dorsoduro","Calle San Pantalon","3762","DD3762","Calle San Pantalon 3762","","45.43586211","12.32517922"
"0278002657A","Store location - 0278002657A","","CN","Cannaregio","Calle Del Forno","2657A","CN2657A","Calle Del Forno 2657A","","45.44549234","12.3296844"
"0707003525_","Store location - 0707003525_","","DD","Dorsoduro","Fondamenta Del Gaffaro","3525","DD3525","Fondamenta Del Gaffaro 3525","","45.43692441","12.32115036"
"0278001269_","Store location - 0278001269_","","CN","Cannaregio","Fondamenta De Cannaregio","1269","CN1269","Fondamenta De Cannaregio 1269","","45.44394539","12.32538395"
"0278001334_","Store location - 0278001334_","","CN","Cannaregio","Calle De L'Ogio","1334","CN1334","Calle De L'Ogio 1334","","45.44407511","12.3264881"
"0278004273A","Store location - 0278004273A","","CN","Cannaregio","Strada Nova","4273A","CN4273A","Strada Nova 4273A","","45.44074804","12.33508979"
"0278002542_","Store location - 0278002542_","","CN","Cannaregio","Fondamenta De La Misericordia","2542","CN2542","Fondamenta De La Misericordia 2542","","45.44461076","12.33191006"
"0278002802_","Store location - 0278002802_","","CN","Cannaregio","Fondamenta Dei Ormesini","2802","CN2802","Fondamenta Dei Ormesini 2802","","45.44567486","12.32794592"
"0278004060_","Store location - 0278004060_","","CN","Cannaregio","Calle Corrente","4060","CN4060","Calle Corrente 4060","","45.44210572","12.33534807"
"0707001190B","Store location - 0707001190B","","DD","Dorsoduro","Saca De La Toleta","1190B","DD1190B","Saca De La Toleta 1190B","","45.43170664","12.32642568"
"0707002997_","Store location - 0707002997_","0707002998_","DD","Dorsoduro","Campo Santa Margherita","2997","DD2997","Campo Santa Margherita 2997","Dorsoduro Campo Santa Margherita 2998","45.43485489","12.32380734"
"0278002057_","Store location - 0278002057_","","CN","Cannaregio","Rio Tera' De La Maddalena","2057","CN2057","Rio Tera' De La Maddalena 2057","","45.44353227","12.3302404"
"0278002572_","Store location - 0278002572_","","CN","Cannaregio","Calle Larga","2572","CN2572","Calle Larga 2572","","45.4448591","12.3317367"
"0707001216_","Store location - 0707001216_","","DD","Dorsoduro","Saca De La Toleta","1216","DD1216","Saca De La Toleta 1216","","45.43203311","12.32572248"
"0278000460_","Store location - 0278000460_","","CN","Cannaregio","Fondamenta Savorgnan","460","CN460","Fondamenta Savorgnan 460","","45.44439427","12.32373759"
"0278005212_","Store location - 0278005212_","","CN","Cannaregio","Campiello De La Pieta'","5212","CN5212","Campiello De La Pieta' 5212","","45.4420076","12.33971346"
"0707002089A","Store location - 0707002089A","","DD","Dorsoduro","Calle Larga Ca' Matta","2089A","DD2089A","Calle Larga Ca' Matta 2089A","","45.43267086","12.31309474"
"0278000223_","Store location - 0278000223_","","CN","Cannaregio","Rio Tera' Lista De Spagna","223","CN223","Rio Tera' Lista De Spagna 223","","45.44257128","12.32408575"
"0278000242_","Store location - 0278000242_","","CN","Cannaregio","Rio Tera' Lista De Spagna","242","CN242","Rio Tera' Lista De Spagna 242","","45.4426714","12.3244275"
"0278001699_","Store location - 0278001699_","","CN","Cannaregio","Rio Tera' San Leonardo","1699","CN1699","Rio Tera' San Leonardo 1699","","45.44379556","12.32792502"
"0278001892A","Store location - 0278001892A","","CN","Cannaregio","Calle De L'Aseo","1892A","CN1892A","Calle De L'Aseo 1892A","","45.44418491","12.32932988"
"0278001893_","Store location - 0278001893_","","CN","Cannaregio","Calle De L'Aseo","1893","CN1893","Calle De L'Aseo 1893","","45.4441688","12.3293203"
"0278002264_","Store location - 0278002264_","","CN","Cannaregio","Calle De Noal","2264","CN2264","Calle De Noal 2264","","45.44228515","12.33234661"
"0278002430_","Store location - 0278002430_","","CN","Cannaregio","Calle Zancani","2430","CN2430","Calle Zancani 2430","","45.44352806","12.33237652"
"0278004426_","Store location - 0278004426_","","CN","Cannaregio","Calle De L'Oca","4426","CN4426","Calle De L'Oca 4426","","45.4407363","12.33611405"
"0278004556A","Store location - 0278004556A","","CN","Cannaregio","Salizada Del Pistor","4556A","CN4556A","Salizada Del Pistor 4556A","","45.44096174","12.33654591"
"0278004796_","Store location - 0278004796_","","CN","Cannaregio","Salizada Del Spezier","4796","CN4796","Salizada Del Spezier 4796","","45.44191011","12.33781474"
"0278005419B","Store location - 0278005419B","","CN","Cannaregio","Campiello Widmann Gia' Biri","5419B","CN5419B","Campiello Widmann Gia' Biri 5419B","","45.44068753","12.33995478"
"0278005676_","Store location - 0278005676_","","CN","Cannaregio","Campiello Flaminio Corner","5676","CN5676","Campiello Flaminio Corner 5676","","45.43967578","12.33702593"
"0278005736_","Store location - 0278005736_","0278005737_","CN","Cannaregio","Salizada San Giovanni Grisostomo","5736","CN5736","Salizada San Giovanni Grisostomo 5736","Cannaregio Salizada San Giovanni Grisostomo 5737","45.43913014","12.3370786"
"0278006227A","Store location - 0278006227A","","CN","Cannaregio","Calle De La Testa","6227A","CN6227A","Calle De La Testa 6227A","","45.44026068","12.34090528"
"0707001609_","Store location - 0707001609_","","DD","Dorsoduro","Calle De L'Avogaria","1609","DD1609","Calle De L'Avogaria 1609","","45.43224755","12.3214223"
"0707002348_","Store location - 0707002348_","","DD","Dorsoduro","Fondamenta Barbarigo","2348","DD2348","Fondamenta Barbarigo 2348","","45.43260151","12.31775756"
"0707002762B","Store location - 0707002762B","","DD","Dorsoduro","Sotoportego Del Casin Dei Nobili","2762B","DD2762B","Sotoportego Del Casin Dei Nobili 2762B","","45.43281367","12.32503587"
"0707002767_","Store location - 0707002767_","","DD","Dorsoduro","Sotoportego Del Casin Dei Nobili","2767","DD2767","Sotoportego Del Casin Dei Nobili 2767","","45.43282818","12.32508457"
"0278000018_","Store location - 0278000018_","","CN","Cannaregio","Fondamenta Santa Lucia","18","CN18","Fondamenta Santa Lucia 18","","45.43931008","12.32004588"
"0278000056_","Store location - 0278000056_","","CN","Cannaregio","Fondamenta Dei Scalzi","56","CN56","Fondamenta Dei Scalzi 56","","45.44138393","12.32238237"
"0278000122C","Store location - 0278000122C","","CN","Cannaregio","Rio Tera' Lista De Spagna","122C","CN122C","Rio Tera' Lista De Spagna 122C","","45.44180977","12.32304548"
"0278000148_","Store location - 0278000148_","","CN","Cannaregio","Rio Tera' Lista De Spagna","148","CN148","Rio Tera' Lista De Spagna 148","","45.44206682","12.32324952"
"0278000213_","Store location - 0278000213_","","CN","Cannaregio","Calle Gioachina","213","CN213","Calle Gioachina 213","","45.44297484","12.32359306"
"0278000331_","Store location - 0278000331_","","CN","Cannaregio","Fondamenta Labia","331","CN331","Fondamenta Labia 331","","45.44334348","12.32551964"
"0278000553_","Store location - 0278000553_","0278000552_","CN","Cannaregio","Fondamenta San Giobbe","553","CN553","Fondamenta San Giobbe 553","Cannaregio Fondamenta San Giobbe 552","45.44496452","12.32178546"
"0278002616_","Store location - 0278002616_","","CN","Cannaregio","Fondamenta De La Misericordia","2616","CN2616","Fondamenta De La Misericordia 2616","","45.44504008","12.33040449"
"0278005642_","Store location - 0278005642_","","CN","Cannaregio","Sotoportego Falcier","5642","CN5642","Sotoportego Falcier 5642","","45.43996281","12.33646051"
"0278006109_","Store location - 0278006109_","","CN","Cannaregio","Calle De Le Erbe","6109","CN6109","Calle De Le Erbe 6109","","45.43897738","12.33994345"
"0707000366_","Store location - 0707000366_","","DD","Dorsoduro","Ponte Del Formager","366","DD366","Ponte Del Formager 366","","45.43030219","12.33075955"
"0707001280_","Store location - 0707001280_","","DD","Dorsoduro","Calle Dei Cerchieri","1280","DD1280","Calle Dei Cerchieri 1280","","45.43252485","12.32579771"
"0707002090F","Store location - 0707002090F","","DD","Dorsoduro","Calle Dei Sechi","2090F","DD2090F","Calle Dei Sechi 2090F","","45.43298632","12.31291572"
"0707002897_","Store location - 0707002897_","","DD","Dorsoduro","Calle De La Scuola","2897","DD2897","Calle De La Scuola 2897","","45.43356205","12.3224834"
"0707003004_","Store location - 0707003004_","","DD","Dorsoduro","Campo Santa Margherita","3004","DD3004","Campo Santa Margherita 3004","","45.43430802","12.32399904"
"0707003112_","Store location - 0707003112_","","DD","Dorsoduro","Rio Terra' Canal","3112","DD3112","Rio Terra' Canal 3112","","45.43398205","12.32417739"
"0278002001_","Store location - 0278002001_","0278002002_;0278002003_","CN","Cannaregio","Rio Tera' De La Maddalena","2001","CN2001","Rio Tera' De La Maddalena 2001","Cannaregio Rio Tera' De La Maddalena 2002;Cannaregio Rio Tera' De La Maddalena 2003","45.44365492","12.32996874"
"0278000054C","Store location - 0278000054C","0278000054A;0278000054B","CN","Cannaregio","Fondamenta Santa Lucia","54C","CN54C","Fondamenta Santa Lucia 54C","Cannaregio Fondamenta Santa Lucia 54 A;Cannaregio Fondamenta Santa Lucia 54 B","45.44124682","12.32198703"
"0278000920A","Store location - 0278000920A","","CN","Cannaregio","Calle Ferau'","920A","CN920A","Calle Ferau' 920A","","45.44649119","12.3199587"
"0278002052_","Store location - 0278002052_","","CN","Cannaregio","Calle Larga Vendramin","2052","CN2052","Calle Larga Vendramin 2052","","45.44325144","12.33003866"
"0278002106_","Store location - 0278002106_","0278002105_;0278002107_","CN","Cannaregio","Campo De La Maddalena","2106","CN2106","Campo De La Maddalena 2106","Cannaregio Rio Tera' De La Maddalena 2105;Cannaregio Campo De La Maddalena 2107","45.44325908","12.33109484"
"0278002223_","Store location - 0278002223_","","CN","Cannaregio","Strada Nova","2223","CN2223","Strada Nova 2223","","45.4428362","12.33204279"
"0278002498_","Store location - 0278002498_","","CN","Cannaregio","Fondamenta De La Misericordia","2498","CN2498","Fondamenta De La Misericordia 2498","","45.44404659","12.33305686"
"0278002612_","Store location - 0278002612_","","CN","Cannaregio","Fondamenta De La Misericordia","2612","CN2612","Fondamenta De La Misericordia 2612","","45.44498658","12.33061644"
"0278002659A","Store location - 0278002659A","","CN","Cannaregio","Calle Del Forno","2659A","CN2659A","Calle Del Forno 2659A","","45.44563105","12.32975067"
"0278002880_","Store location - 0278002880_","","CN","Cannaregio","Campo Del Gheto Novo","2880","CN2880","Campo Del Gheto Novo 2880","","45.44543837","12.32643991"
"0278002884_","Store location - 0278002884_","","CN","Cannaregio","Campo Del Gheto Novo","2884","CN2884","Campo Del Gheto Novo 2884","","45.44535356","12.32650007"
"0278002904A","Store location - 0278002904A","","CN","Cannaregio","Campo Del Gheto Novo","2904A","CN2904A","Campo Del Gheto Novo 2904A","","45.44511716","12.3270757"
"0278002918_","Store location - 0278002918_","","CN","Cannaregio","Campo Del Gheto Novo","2918","CN2918","Campo Del Gheto Novo 2918","","45.44542355","12.32734256"
"0278003832A","Store location - 0278003832A","","CN","Cannaregio","Strada Nova","3832A","CN3832A","Strada Nova 3832A","","45.44137128","12.33372394"
"0278004290_","Store location - 0278004290_","","CN","Cannaregio","Strada Nova","4290","CN4290","Strada Nova 4290","","45.4406766","12.33524694"
"0278004454_","Store location - 0278004454_","","CN","Cannaregio","Campo Santi Apostoli","4454","CN4454","Campo Santi Apostoli 4454","","45.44013403","12.33663016"
"0278005049A","Store location - 0278005049A","","CN","Cannaregio","Fondamente Nove","5049A","CN5049A","Fondamente Nove 5049A","","45.44257866","12.34133361"
"0278005918_","Store location - 0278005918_","","CN","Cannaregio","Salizada San Canzian","5918","CN5918","Salizada San Canzian 5918","","45.43967354","12.33768048"
"0278006019_","Store location - 0278006019_","","CN","Cannaregio","Ponte Dei Miracoli","6019","CN6019","Ponte Dei Miracoli 6019","","45.43933623","12.33892367"
"0278006227_","Store location - 0278006227_","","CN","Cannaregio","Calle De La Testa","6227","CN6227","Calle De La Testa 6227","","45.44023699","12.34089295"
"0278006382A","Store location - 0278006382A","","CN","Cannaregio","Calle De La Testa","6382A","CN6382A","Calle De La Testa 6382A","","45.43965375","12.34062324"
"0707000195_","Store location - 0707000195_","","DD","Dorsoduro","Calle Del Bastion","195","DD195","Calle Del Bastion 195","","45.43070765","12.33268985"
"0707000721_","Store location - 0707000721_","","DD","Dorsoduro","Fondamenta Venier Dai Leoni","721","DD721","Fondamenta Venier Dai Leoni 721","","45.43041666","12.33092135"
"0707000881_","Store location - 0707000881_","","DD","Dorsoduro","Rio Tera' Foscarini","881","DD881","Rio Tera' Foscarini 881","","45.43066378","12.32844287"
"0707001057A","Store location - 0707001057A","","DD","Dorsoduro","Sotoportego Contarini Corfu'","1057A","DD1057A","Sotoportego Contarini Corfu' 1057A","","45.4318035","12.32725273"
"0707001226_","Store location - 0707001226_","","DD","Dorsoduro","Calle De La Toleta","1226","DD1226","Calle De La Toleta 1226","","45.43189663","12.32604356"
"0707001737_","Store location - 0707001737_","","DD","Dorsoduro","Calle Lardoni","1737","DD1737","Calle Lardoni 1737","","45.43195104","12.31828952"
"0707002312A","Store location - 0707002312A","0707002312_","DD","Dorsoduro","Corte Mazor","2312A","DD2312A","Corte Mazor 2312A","Dorsoduro Fondamenta Rielo 2312","45.43264936","12.31732764"
"0707002611_","Store location - 0707002611_","","DD","Dorsoduro","Campo Dei Carmini","2611","DD2611","Campo Dei Carmini 2611","","45.43372708","12.32184725"
"0707003063_","Store location - 0707003063_","","DD","Dorsoduro","Rio Terra' Canal","3063","DD3063","Rio Terra' Canal 3063","","45.43364773","12.32423221"
"0278000412_","Store location - 0278000412_","","CN","Cannaregio","Fondamenta Savorgnan","412","CN412","Fondamenta Savorgnan 412","","45.44434212","12.32391436"
"0278001120_","Store location - 0278001120_","","CN","Cannaregio","Fondamenta De Cannaregio","1120","CN1120","Fondamenta De Cannaregio 1120","","45.44415548","12.3249517"
"0278001879_","Store location - 0278001879_","","CN","Cannaregio","Calle De L'Aseo","1879","CN1879","Calle De L'Aseo 1879","","45.44449284","12.32948996"
"0278002739_","Store location - 0278002739_","","CN","Cannaregio","Fondamenta Dei Ormesini","2739","CN2739","Fondamenta Dei Ormesini 2739","","45.44552813","12.32852132"
"0278004325B","Store location - 0278004325B","","CN","Cannaregio","Calle De L'Oca","4325B","CN4325B","Calle De L'Oca 4325B","","45.44078418","12.33572078"
"0278005100E","Store location - 0278005100E","","CN","Cannaregio","Calle De Le Tre Crose","5100E","CN5100E","Calle De Le Tre Crose 5100E","","45.44292727","12.34019232"
"0278005104A","Store location - 0278005104A","","CN","Cannaregio","Calle De Le Tre Crose","5104A","CN5104A","Calle De Le Tre Crose 5104A","","45.44278679","12.34009596"
"0278005986A","Store location - 0278005986A","","CN","Cannaregio","Salizada San Canzian","5986A","CN5986A","Salizada San Canzian 5986A","","45.43988483","12.33838413"
"0278006147_","Store location - 0278006147_","","CN","Cannaregio","Calle Larga Giacinto Gallina","6147","CN6147","Calle Larga Giacinto Gallina 6147","","45.43979278","12.34011109"
"0707001750_","Store location - 0707001750_","","DD","Dorsoduro","Fondamenta De La Pescaria","1750","DD1750","Fondamenta De La Pescaria 1750","","45.43252175","12.31842541"
"0707002318_","Store location - 0707002318_","","DD","Dorsoduro","Corte Mazor","2318","DD2318","Corte Mazor 2318","","45.43290908","12.31724849"
"0707002928_","Store location - 0707002928_","","DD","Dorsoduro","Campo Santa Margherita","2928","DD2928","Campo Santa Margherita 2928","","45.43401163","12.32312826"
"0278001882_","Store location - 0278001882_","","CN","Cannaregio","Calle De L'Aseo","1882","CN1882","Calle De L'Aseo 1882","","45.44441967","12.32943215"
"0278004165A","Store location - 0278004165A","","CN","Cannaregio","Ruga Dei Do Pozzi","4165A","CN4165A","Ruga Dei Do Pozzi 4165A","","45.44184752","12.3362928"
"0278004790_","Store location - 0278004790_","","CN","Cannaregio","Salizada Del Spezier","4790","CN4790","Salizada Del Spezier 4790","","45.44183226","12.33777976"
"0278005905_","Store location - 0278005905_","","CN","Cannaregio","Salizada San Canzian","5905","CN5905","Salizada San Canzian 5905","","45.43964872","12.33743445"
"0707002748_","Store location - 0707002748_","","DD","Dorsoduro","Calle Longa De San Barnaba","2748","DD2748","Calle Longa De San Barnaba 2748","","45.43274526","12.32442258"
"0707003214_","Store location - 0707003214_","","DD","Dorsoduro","Calle Del Capeler","3214","DD3214","Calle Del Capeler 3214","","45.43383939","12.32552105"
"0707003280_","Store location - 0707003280_","","DD","Dorsoduro","Calle Del Capeler","3280","DD3280","Calle Del Capeler 3280","","45.43381615","12.32547623"
"0707003709_","Store location - 0707003709_","","DD","Dorsoduro","Campo San Pantalon","3709","DD3709","Campo San Pantalon 3709","","45.43537235","12.32469947"
"0278004309A","Store location - 0278004309A","","CN","Cannaregio","Strada Nova","4309A","CN4309A","Strada Nova 4309A","","45.44064636","12.33554175"
"0278004661_","Store location - 0278004661_","","CN","Cannaregio","Rio Tera' Santi Apostoli","4661","CN4661","Rio Tera' Santi Apostoli 4661","","45.44161925","12.33764153"
"0278005900_","Store location - 0278005900_","","CN","Cannaregio","Campiello Flaminio Corner","5900","CN5900","Campiello Flaminio Corner 5900","","45.43959574","12.33716165"
"0707002978_","Store location - 0707002978_","","DD","Dorsoduro","Campo Santa Margherita","2978","DD2978","Campo Santa Margherita 2978","","45.43462559","12.32365446"
"0278001506H","Store location - 0278001506H","0278001506C","CN","Cannaregio","Calle Dei Ormesini","1506H","CN1506H","Calle Dei Ormesini 1506H","","45.44461717","12.32881092"
"0278001889B","Store location - 0278001889B","","CN","Cannaregio","Calle De L'Aseo","1889B","CN1889B","Calle De L'Aseo 1889B","","45.44432829","12.329352"
"0278003628A","Store location - 0278003628A","0278003628_;0278003627_;0278003627A;0278003626_","CN","Cannaregio","Fondamenta San Felice","3628A","CN3628A","Fondamenta San Felice 3628A","Cannaregio Fondamenta San Felice 3628;Cannaregio Fondamenta San Felice 3627 A;Cannaregio Fondamenta San Felice 3627;Cannaregio Fondamenta San Felice 3626","45.44203196","12.33379418"
"0278003719_","Store location - 0278003719_","","CN","Cannaregio","Calle San Felice","3719","CN3719","Calle San Felice 3719","","45.44176301","12.33388857"
"0278005546_","Store location - 0278005546_","","CN","Cannaregio","Salizada San Canzian","5546","CN5546","Salizada San Canzian 5546","","45.43988218","12.33828594"
"0278003298_","Store location - 0278003298_","","CN","Cannaregio","Fondamenta De La Sensa","3298","CN3298","Fondamenta De La Sensa 3298","","45.44597692","12.32998225"
"0278003435_","Store location - 0278003435_","","CN","Cannaregio","Fondamenta Dei Mori","3435","CN3435","Fondamenta Dei Mori 3435","","45.44505748","12.33283374"
"0278006287_","Store location - 0278006287_","","CN","Cannaregio","Sotoportego Berlendis","6287","CN6287","Sotoportego Berlendis 6287","","45.441798","12.34212262"
"0707001210_","Store location - 0707001210_","","DD","Dorsoduro","Campiello Centopietre","1210","DD1210","Campiello Centopietre 1210","","45.43186622","12.32605902"
"0707002903_","Store location - 0707002903_","","DD","Dorsoduro","Campo Santa Margherita","2903","DD2903","Campo Santa Margherita 2903","","45.4337529","12.32275839"
