"primary_address_id","wiki_friendly_title","secondary_address_id","setiere_code","sestiere_name","street_name","street_number","sestiere_address","street_and_number","accessory_addresses","latitude","longitude"
"0319001741_","Store location - 0319001741_","","CS","Castello","Via Garibaldi","1741","CS1741","Via Garibaldi 1741","","45.43223667","12.35207575"
"1600000708_","Store location - 1600000708_","","SM","San Marco","Marzaria San Zulian","708","SM708","Marzaria San Zulian 708","","45.43586637","12.33807426"
"1600001279_","Store location - 1600001279_","","SM","San Marco","Bocca De Piazza","1279","SM1279","Bocca De Piazza 1279","","45.43369671","12.33658176"
"1600001292_","Store location - 1600001292_","","SM","San Marco","Calle Seconda De L'Ascension","1292","SM1292","Calle Seconda De L'Ascension 1292","","45.43332681","12.33685677"
"1600001337_","Store location - 1600001337_","1600001338_","SM","San Marco","Calle Vallaresso","1337","SM1337","Calle Vallaresso 1337","San Marco Calle Vallaresso 1338","45.43289132","12.33689946"
"1600001461_","Store location - 1600001461_","","SM","San Marco","Campo San Moise'","1461","SM1461","Campo San Moise' 1461","","45.43318535","12.33562722"
"1600001860_","Store location - 1600001860_","","SM","San Marco","Calle Dal Frutarol","1860","SM1860","Calle Dal Frutarol 1860","","45.43411378","12.33445977"
"1600001894_","Store location - 1600001894_","","SM","San Marco","Campo San Fantin","1894","SM1894","Campo San Fantin 1894","","45.43405324","12.33417771"
"1600003716A","Store location - 1600003716A","","SM","San Marco","Calle De La Cortesia","3716A","SM3716A","Calle De La Cortesia 3716A","","45.43500719","12.33348755"
"1600003803_","Store location - 1600003803_","","SM","San Marco","Calle De La Mandola","3803","SM3803","Calle De La Mandola 3803","","45.43463792","12.3325045"
"1600004466_","Store location - 1600004466_","","SM","San Marco","Calle Dei Fuseri","4466","SM4466","Calle Dei Fuseri 4466","","45.43545184","12.33532114"
"1600004468_","Store location - 1600004468_","","SM","San Marco","Calle Dei Fuseri","4468","SM4468","Calle Dei Fuseri 4468","","45.43550664","12.33531714"
"1600004600A","Store location - 1600004600A","","SM","San Marco","Calle Del Teatro","4600A","SM4600A","Calle Del Teatro 4600A","","45.43619424","12.33520837"
"1600005542_","Store location - 1600005542_","","SM","San Marco","Salizada Del Fontego Dei Tedeschi","5542","SM5542","Salizada Del Fontego Dei Tedeschi 5542","","45.43825334","12.33705497"
"1621000054_","Store location - 1621000054_","","SP","San Polo","Sotoportego De Rialto","54","SP54","Sotoportego De Rialto 54","","45.43875062","12.33474321"
"0319001696_","Store location - 0319001696_","","CS","Castello","Via Garibaldi","1696","CS1696","Via Garibaldi 1696","","45.43213583","12.35140255"
"0319003725_","Store location - 0319003725_","0319003726_","CS","Castello","Campo Bandiera E Moro","3725","CS3725","Campo Bandiera E Moro 3725","Castello Campo Bandiera E Moro 3726","45.434526","12.34636619"
"0319004719A","Store location - 0319004719A","","CS","Castello","Calle San Provolo","4719A","CS4719A","Calle San Provolo 4719A","","45.43543605","12.34294195"
"0319005483_","Store location - 0319005483_","","CS","Castello","Calle De La Malvasia","5483","CS5483","Calle De La Malvasia 5483","","45.437","12.33890566"
"0319005661A","Store location - 0319005661A","0319005661_","CS","Castello","Campo San Lio","5661A","CS5661A","Campo San Lio 5661A","Castello Campo San Lio 5661","45.43767738","12.33861301"
"0319005672_","Store location - 0319005672_","","CS","Castello","Salizada San Lio","5672","CS5672","Salizada San Lio 5672","","45.43740388","12.33883131"
"0319006332_","Store location - 0319006332_","","CS","Castello","Campo San Zanipolo","6332","CS6332","Campo San Zanipolo 6332","","45.43887083","12.34200718"
"0319006400_","Store location - 0319006400_","","CS","Castello","Calle De L'Ospedaleto","6400","CS6400","Calle De L'Ospedaleto 6400","","45.43854219","12.34289156"
"0319006514_","Store location - 0319006514_","","CS","Castello","Calle Zon","6514","CS6514","Calle Zon 6514","","45.43824775","12.34562257"
"1561001658_","Store location - 1561001658_","","SC","Santa Croce","Calle Larga","1658","SC1658","Calle Larga 1658","","45.44056222","12.32810409"
"1561002033_","Store location - 1561002033_","","SC","Santa Croce","Campiello Del Spezier","2033","SC2033","Campiello Del Spezier 2033","","45.44029788","12.3299766"
"1600000732_","Store location - 1600000732_","","SM","San Marco","Marzaria San Zulian","732","SM732","Marzaria San Zulian 732","","45.43585175","12.33803562"
"1600001904_","Store location - 1600001904_","","SM","San Marco","Calle De La Verona","1904","SM1904","Calle De La Verona 1904","","45.43430508","12.33358199"
"1600002606_","Store location - 1600002606_","","SM","San Marco","Campo San Maurizio","2606","SM2606","Campo San Maurizio 2606","","45.43293085","12.33173762"
"1600002973_","Store location - 1600002973_","","SM","San Marco","Crosera De Le Boteghe","2973","SM2973","Crosera De Le Boteghe 2973","","45.43395525","12.33013866"
"1600003040A","Store location - 1600003040A","","SM","San Marco","Calle Dei Orbi","3040A","SM3040A","Calle Dei Orbi 3040A","","45.43320351","12.32868232"
"1600003084_","Store location - 1600003084_","","SM","San Marco","Calle Malipiero","3084","SM3084","Calle Malipiero 3084","","45.43325961","12.32862612"
"1600003332_","Store location - 1600003332_","","SM","San Marco","Calle Ca' Vechia","3332","SM3332","Calle Ca' Vechia 3332","","45.43421203","12.32898715"
"1600005041_","Store location - 1600005041_","","SM","San Marco","Marzaria Due Aprile","5041","SM5041","Marzaria Due Aprile 5041","","45.43723417","12.33662659"
"1621002199_","Store location - 1621002199_","","SP","San Polo","Calle Del Scaleter","2199","SP2199","Calle Del Scaleter 2199","","45.43867914","12.32934099"
"1621002863_","Store location - 1621002863_","","SP","San Polo","Campo San Toma'","2863","SP2863","Campo San Toma' 2863","","45.43606303","12.32713716"
"1621002867_","Store location - 1621002867_","","SP","San Polo","Campo San Toma'","2867","SP2867","Campo San Toma' 2867","","45.43598413","12.32729977"
"0278000412_","Store location - 0278000412_","","CN","Cannaregio","Fondamenta Savorgnan","412","CN412","Fondamenta Savorgnan 412","","45.44434212","12.32391436"
"0278001161_","Store location - 0278001161_","","CN","Cannaregio","Calle Del Forno","1161","CN1161","Calle Del Forno 1161","","45.44493267","12.32538851"
"0319001696_","Store location - 0319001696_","","CS","Castello","Via Garibaldi","1696","CS1696","Via Garibaldi 1696","","45.43213583","12.35140255"
"0319003151_","Store location - 0319003151_","","CS","Castello","Salizada San Francesco","3151","CS3151","Salizada San Francesco 3151","","45.43715178","12.34733016"
"0319003473_","Store location - 0319003473_","","CS","Castello","Salizada Sant'Antonin","3473","CS3473","Salizada Sant'Antonin 3473","","45.43544283","12.34624787"
"0319004254_","Store location - 0319004254_","","CS","Castello","Calle Dei Albanesi","4254","CS4254","Calle Dei Albanesi 4254","","45.43456535","12.34141561"
"0319004314_","Store location - 0319004314_","0319004315_","CS","Castello","Ruga Giuffa Santa Apollonia","4314","CS4314","Ruga Giuffa Santa Apollonia 4314","Castello Ruga Giuffa Santa Apollonia 4315","45.43500435","12.34076837"
"0319004362A","Store location - 0319004362A","","CS","Castello","Calle Rimpetto La Sacrestia","4362A","CS4362A","Calle Rimpetto La Sacrestia 4362A","","45.43539509","12.3416967"
"0319004504_","Store location - 0319004504_","","CS","Castello","Calle Rimpetto La Sacrestia","4504","CS4504","Calle Rimpetto La Sacrestia 4504","","45.43526333","12.34171565"
"0319004683A","Store location - 0319004683A","","CS","Castello","Campo San Zaccaria","4683A","CS4683A","Campo San Zaccaria 4683A","","45.43473249","12.34291057"
"0319004947_","Store location - 0319004947_","","CS","Castello","Calle Corte Rota","4947","CS4947","Calle Corte Rota 4947","","45.43593974","12.34266448"
"0319005378_","Store location - 0319005378_","","CS","Castello","Calle Al Ponte De La Guerra","5378","CS5378","Calle Al Ponte De La Guerra 5378","","45.43653861","12.33971924"
"0319005653A","Store location - 0319005653A","","CS","Castello","Calle Del Pistor","5653A","CS5653A","Calle Del Pistor 5653A","","45.43789505","12.33840535"
"0319005992_","Store location - 0319005992_","","CS","Castello","Calle Del Pistor","5992","CS5992","Calle Del Pistor 5992","","45.43814672","12.3384553"
"0319006656_","Store location - 0319006656_","","CS","Castello","Calle Del Cafetier","6656","CS6656","Calle Del Cafetier 6656","","45.43852992","12.3447026"
"0319006825A","Store location - 0319006825A","","CS","Castello","Campo San Zani","6825A","CS6825A","Campo San Zani 6825A","","45.43908842","12.34108057"
"1561001161A","Store location - 1561001161A","","SC","Santa Croce","Calle Larga Dei Bari","1161A","SC1161A","Calle Larga Dei Bari 1161A","","45.44068008","12.32498207"
"1561002100_","Store location - 1561002100_","","SC","Santa Croce","Calle De La Chiesa","2100","SC2100","Calle De La Chiesa 2100","","45.4400932","12.33041998"
"1600000739_","Store location - 1600000739_","","SM","San Marco","Marzaria San Zulian","739","SM739","Marzaria San Zulian 739","","45.43572601","12.33825329"
"1600001310_","Store location - 1600001310_","","SM","San Marco","Calle Vallaresso","1310","SM1310","Calle Vallaresso 1310","","45.43300645","12.33689077"
"1600001652_","Store location - 1600001652_","","SM","San Marco","Calle De Piscina","1652","SM1652","Calle De Piscina 1652","","45.43410256","12.33583595"
"1600001655_","Store location - 1600001655_","","SM","San Marco","Corte De Piscina De Frezzaria","1655","SM1655","Corte De Piscina De Frezzaria 1655","","45.43405891","12.33558488"
"1600001862_","Store location - 1600001862_","","SM","San Marco","Calle Dal Frutarol","1862","SM1862","Calle Dal Frutarol 1862","","45.43408726","12.33435697"
"1600001896_","Store location - 1600001896_","","SM","San Marco","Campo San Fantin","1896","SM1896","Campo San Fantin 1896","","45.43403727","12.33409317"
"1600001947_","Store location - 1600001947_","","SM","San Marco","Calle De La Fenice","1947","SM1947","Calle De La Fenice 1947","","45.4337045","12.33326808"
"1600001994_","Store location - 1600001994_","","SM","San Marco","Calle Drio La Chiesa","1994","SM1994","Calle Drio La Chiesa 1994","","45.43384868","12.33478105"
"1600001994B","Store location - 1600001994B","","SM","San Marco","Calle Drio La Chiesa","1994B","SM1994B","Calle Drio La Chiesa 1994B","","45.43382651","12.33460456"
"1600002013_","Store location - 1600002013_","","SM","San Marco","Calle De Le Veste","2013","SM2013","Calle De Le Veste 2013","","45.43335587","12.33435014"
"1600002355_","Store location - 1600002355_","","SM","San Marco","Calle De Le Ostreghe","2355","SM2355","Calle De Le Ostreghe 2355","","45.43250426","12.33372103"
"1600002381_","Store location - 1600002381_","","SM","San Marco","Calle Larga Ventidue Marzo","2381","SM2381","Calle Larga Ventidue Marzo 2381","","45.43290233","12.33437862"
"1600002663_","Store location - 1600002663_","","SM","San Marco","Campo San Maurizio","2663","SM2663","Campo San Maurizio 2663","","45.43279847","12.33186473"
"1600002953_","Store location - 1600002953_","","SM","San Marco","Campo Santo Stefano","2953","SM2953","Campo Santo Stefano 2953","","45.43344018","12.33029738"
"1600002970_","Store location - 1600002970_","","SM","San Marco","Crosera De Le Boteghe","2970","SM2970","Crosera De Le Boteghe 2970","","45.43387823","12.33027782"
"1600003282A","Store location - 1600003282A","1600003283_","SM","San Marco","Calle De Le Carozze","3282A","SM3282A","Calle De Le Carozze 3282A","San Marco Calle De Le Carozze 3283","45.43398326","12.32898119"
"1600003337_","Store location - 1600003337_","","SM","San Marco","Salizada San Samuele","3337","SM3337","Salizada San Samuele 3337","","45.43417672","12.32929345"
"1600003462_","Store location - 1600003462_","","SM","San Marco","Crosera De Le Boteghe","3462","SM3462","Crosera De Le Boteghe 3462","","45.43380649","12.33051204"
"1600003535_","Store location - 1600003535_","","SM","San Marco","Calle Dei Frati","3535","SM3535","Calle Dei Frati 3535","","45.43412646","12.33136808"
"1600003659A","Store location - 1600003659A","1600003641_","SM","San Marco","Calle De La Verona","3659A","SM3659A","Calle De La Verona 3659A","San Marco Rio Tera' Dei Assassini 3641","45.43461362","12.33313225"
"1600003729_","Store location - 1600003729_","","SM","San Marco","Calle De La Mandola","3729","SM3729","Calle De La Mandola 3729","","45.43480637","12.33286956"
"1621000075_","Store location - 1621000075_","1621000076A","SP","San Polo","Sotoportego De Rialto","75","SP75","Sotoportego De Rialto 75","San Polo Sotoportego De Rialto 76 A","45.43824287","12.33548007"
"1621002312_","Store location - 1621002312_","","SP","San Polo","Rio Tera' Secondo","2312","SP2312","Rio Tera' Secondo 2312","","45.43878739","12.32879194"
"1621002589_","Store location - 1621002589_","","SP","San Polo","Calle Del Tagiapiera","2589","SP2589","Calle Del Tagiapiera 2589","","45.4372171","12.32762556"
"1621002671_","Store location - 1621002671_","","SP","San Polo","Calle Moro","2671","SP2671","Calle Moro 2671","","45.43704633","12.32844255"
"0319000161_","Store location - 0319000161_","","CS","Castello","Calle De Ruga","161","CS161","Calle De Ruga 161","","45.43332651","12.35721154"
"0319000187_","Store location - 0319000187_","","CS","Castello","Calle Rielo","187","CS187","Calle Rielo 187","","45.43329116","12.3572065"
"0319000769_","Store location - 0319000769_","","CS","Castello","Corte Del Solda'","769","CS769","Corte Del Solda' 769","","45.43107206","12.35670448"
"0319000780_","Store location - 0319000780_","","CS","Castello","Fondamenta S. Isepo","780","CS780","Fondamenta S. Isepo 780","","45.43070142","12.35690912"
"0319002918_","Store location - 0319002918_","","CS","Castello","Salizada Santa Giustina","2918","CS2918","Salizada Santa Giustina 2918","","45.43737601","12.34665269"
"0319003504_","Store location - 0319003504_","","CS","Castello","Calle De L'Arco","3504","CS3504","Calle De L'Arco 3504","","45.43536489","12.34680692"
"0319003604_","Store location - 0319003604_","0319003605_;0319003606_","CS","Castello","Salizada Sant'Antonin","3604","CS3604","Salizada Sant'Antonin 3604","Castello Salizada Sant'Antonin 3605;Castello Salizada Sant'Antonin 3606","45.43498769","12.3468623"
"0319004829_","Store location - 0319004829_","0319004830;0319004830A_","CS","Castello","Ruga Giuffa","4829","CS4829","Ruga Giuffa 4829","Castello Ruga Giuffa 4830;Castello Calle Drio El Magazen 4830 A","45.43631331","12.34225631"
"0319004830_","Store location - 0319004830_","0319004830A","CS","Castello","Ruga Giuffa","4830","CS4830","Ruga Giuffa 4830","Castello Calle Drio El Magazen 4830 A","45.43636119","12.34222765"
"0319005183A","Store location - 0319005183A","","CS","Castello","Calle Longa Santa Maria Formosa","5183A","CS5183A","Calle Longa Santa Maria Formosa 5183A","","45.43777355","12.34212879"
"0319005785A","Store location - 0319005785A","0319005785C","CS","Castello","Salizada San Lio","5785A","CS5785A","Salizada San Lio 5785A","Castello Calle Del Mondo Novo 5785 C","45.43690821","12.33977087"
"0319005991_","Store location - 0319005991_","0319005991A","CS","Castello","Fondamenta Del Pistor","5991","CS5991","Fondamenta Del Pistor 5991","Castello Fondamenta Del Pistor 5991 A","45.43806344","12.33840175"
"0319006661_","Store location - 0319006661_","","CS","Castello","Calle Del Cafetier","6661","CS6661","Calle Del Cafetier 6661","","45.43856661","12.34439791"
"0319006808_","Store location - 0319006808_","","CS","Castello","Campo San Zanipolo","6808","CS6808","Campo San Zanipolo 6808","","45.43898465","12.34151499"
"1561000888_","Store location - 1561000888_","1561000888A","SC","Santa Croce","Fondamenta Rio Marin O Dei Garzotti","888","SC888","Fondamenta Rio Marin O Dei Garzotti 888","Santa Croce Fondamenta Rio Marin O Dei Garzotti 888 A","45.4396769","12.3249557"
"1561001201_","Store location - 1561001201_","","SC","Santa Croce","Corte Pisani","1201","SC1201","Corte Pisani 1201","","45.44088919","12.32490154"
"1600001035_","Store location - 1600001035_","1600001036_","SM","San Marco","Calle Dei Fabbri","1035","SM1035","Calle Dei Fabbri 1035","San Marco Calle Dei Fabbri 1036","45.4353557","12.3366722"
"1600004772_","Store location - 1600004772_","","SM","San Marco","Calle Del Lovo","4772","SM4772","Calle Del Lovo 4772","","45.43648214","12.33565955"
"1621002450_","Store location - 1621002450_","","SP","San Polo","Calle De L'Ogio O Del Cafetier","2450","SP2450","Calle De L'Ogio O Del Cafetier 2450","","45.43857478","12.32631857"
"0278000521_","Store location - 0278000521_","","CN","Cannaregio","Calle Del Solfarin","521","CN521","Calle Del Solfarin 521","","45.44411156","12.32206832"
"0278001162_","Store location - 0278001162_","","CN","Cannaregio","Calle Del Forno","1162","CN1162","Calle Del Forno 1162","","45.44493451","12.32539233"
"0278002504_","Store location - 0278002504_","","CN","Cannaregio","Fondamenta De La Misericordia","2504","CN2504","Fondamenta De La Misericordia 2504","","45.44419471","12.33280029"
"0319001579_","Store location - 0319001579_","","CS","Castello","Via Garibaldi","1579","CS1579","Via Garibaldi 1579","","45.43211832","12.3525685"
"0319001666_","Store location - 0319001666_","","CS","Castello","Via Garibaldi","1666","CS1666","Via Garibaldi 1666","","45.43211563","12.35125743"
"0319003305_","Store location - 0319003305_","","CS","Castello","Salizada Dei Greci","3305","CS3305","Salizada Dei Greci 3305","","45.43561412","12.34583251"
"0319004599_","Store location - 0319004599_","","CS","Castello","Ramo Michiel","4599","CS4599","Ramo Michiel 4599","","45.43472854","12.3419656"
"0319004832_","Store location - 0319004832_","","CS","Castello","Ruga Giuffa","4832","CS4832","Ruga Giuffa 4832","","45.43641386","12.34218965"
"0319004864_","Store location - 0319004864_","","CS","Castello","Ruga Giuffa","4864","CS4864","Ruga Giuffa 4864","","45.43665143","12.34199942"
"0319005245_","Store location - 0319005245_","","CS","Castello","Campo Santa Maria Formosa","5245","CS5245","Campo Santa Maria Formosa 5245","","45.43730255","12.34136144"
"0319005353_","Store location - 0319005353_","","CS","Castello","Calle Al Ponte De La Guerra","5353","CS5353","Calle Al Ponte De La Guerra 5353","","45.43646089","12.33962232"
"0319005354_","Store location - 0319005354_","","CS","Castello","Calle Al Ponte De La Guerra","5354","CS5354","Calle Al Ponte De La Guerra 5354","","45.43644354","12.33959235"
"0319005356_","Store location - 0319005356_","","CS","Castello","Calle Al Ponte De La Guerra","5356","CS5356","Calle Al Ponte De La Guerra 5356","","45.43641268","12.33952901"
"0319005357_","Store location - 0319005357_","","CS","Castello","Calle Al Ponte De La Guerra","5357","CS5357","Calle Al Ponte De La Guerra 5357","","45.4363966","12.33950336"
"0319005467_","Store location - 0319005467_","","CS","Castello","Salizada San Lio","5467","CS5467","Salizada San Lio 5467","","45.43707581","12.33948803"
"0319005689_","Store location - 0319005689_","","CS","Castello","Salizada San Lio","5689","CS5689","Salizada San Lio 5689","","45.43734591","12.33903731"
"0319005789A","Store location - 0319005789A","","CS","Castello","Calle Del Mondo Novo","5789A","CS5789A","Calle Del Mondo Novo 5789A","","45.43704901","12.34010132"
"0319005851_","Store location - 0319005851_","","CS","Castello","Campo Santa Maria Formosa","5851","CS5851","Campo Santa Maria Formosa 5851","","45.43721999","12.34059134"
"0319005908_","Store location - 0319005908_","0319005909_","CS","Castello","Campo Santa Marina","5908","CS5908","Campo Santa Marina 5908","Castello Campo Santa Marina 5909","45.43831903","12.33917173"
"0319006658A","Store location - 0319006658A","0319006658B","CS","Castello","Calle Del Cafetier","6658A","CS6658A","Calle Del Cafetier 6658A","Castello Calle Nicolo' Massa 6658 B","45.43855092","12.34455881"
"0707002965_","Store location - 0707002965_","","DD","Dorsoduro","Calle Del Forno","2965","DD2965","Calle Del Forno 2965","","45.43459674","12.32355018"
"0707003408_","Store location - 0707003408_","","DD","Dorsoduro","Campo Santa Margherita","3408","DD3408","Campo Santa Margherita 3408","","45.43459957","12.3241357"
"0707003410_","Store location - 0707003410_","","DD","Dorsoduro","Campo Santa Margherita","3410","DD3410","Campo Santa Margherita 3410","","45.4347208","12.32419554"
"1561000225_","Store location - 1561000225_","","SC","Santa Croce","Fondamenta Dei Tolentini","225","SC225","Fondamenta Dei Tolentini 225","","45.43869656","12.32138176"
"1561001162_","Store location - 1561001162_","","SC","Santa Croce","Calle Larga Dei Bari","1162","SC1162","Calle Larga Dei Bari 1162","","45.44073984","12.32495505"
"1561001504_","Store location - 1561001504_","1561001656_","SC","Santa Croce","Campo San Giacomo Dall'Orio","1504","SC1504","Campo San Giacomo Dall'Orio 1504","Santa Croce Calle Larga 1656","45.44045528","12.32799522"
"1600000367B","Store location - 1600000367B","","SM","San Marco","Calle Larga San","367B","SM367B","Calle Larga San 367B","","45.43516345","12.33942902"
"1600001342_","Store location - 1600001342_","1600001343_","SM","San Marco","Calle Vallaresso","1342","SM1342","Calle Vallaresso 1342","San Marco Calle Seconda De L'Ascension 1343","45.43309812","12.33680423"
"1600003330_","Store location - 1600003330_","","SM","San Marco","Calle Ca' Vechia","3330","SM3330","Calle Ca' Vechia 3330","","45.43430494","12.32882136"
"1600005454_","Store location - 1600005454_","","SM","San Marco","Calle De La Bissa","5454","SM5454","Calle De La Bissa 5454","","45.43774842","12.33740062"
"1621001695_","Store location - 1621001695_","","SP","San Polo","Calle Dei Boteri","1695","SP1695","Calle Dei Boteri 1695","","45.43954954","12.33281141"
"1621002941_","Store location - 1621002941_","","SP","San Polo","Calle Prima Larga","2941","SP2941","Calle Prima Larga 2941","","45.43632382","12.32671165"
"1621003143_","Store location - 1621003143_","","SP","San Polo","Campiello San Rocco","3143","SP3143","Campiello San Rocco 3143","","45.43622994","12.32561787"
"0319001496_","Store location - 0319001496_","","CS","Castello","Via Garibaldi","1496","CS1496","Via Garibaldi 1496","","45.43222373","12.35338265"
"0319003161_","Store location - 0319003161_","","CS","Castello","Salizada San Francesco","3161","CS3161","Salizada San Francesco 3161","","45.43718645","12.34724625"
"0319005763_","Store location - 0319005763_","","CS","Castello","Calle Del Paradiso","5763","CS5763","Calle Del Paradiso 5763","","45.4371895","12.33950092"
"0319006471_","Store location - 0319006471_","","CS","Castello","Calle Del Cafetier","6471","CS6471","Calle Del Cafetier 6471","","45.43852267","12.34445681"
"1600004267D","Store location - 1600004267D","","SM","San Marco","Campo San Luca","4267D","SM4267D","Campo San Luca 4267D","","45.4357261","12.33522104"
"1621001595_","Store location - 1621001595_","","SP","San Polo","Calle Del Capeler","1595","SP1595","Calle Del Capeler 1595","","45.43944143","12.33297587"
"0319000798_","Store location - 0319000798_","","CS","Castello","Rio Tera' S. Isepo","798","CS798","Rio Tera' S. Isepo 798","","45.43004629","12.35764223"
"0319001132_","Store location - 0319001132_","","CS","Castello","Fondamenta Sant'Anna","1132","CS1132","Fondamenta Sant'Anna 1132","","45.43242795","12.35574485"
"0319001335_","Store location - 0319001335_","","CS","Castello","Via Garibaldi","1335","CS1335","Via Garibaldi 1335","","45.43230897","12.35410539"
"0319001342_","Store location - 0319001342_","","CS","Castello","Via Garibaldi","1342","CS1342","Via Garibaldi 1342","","45.43229242","12.35382252"
"0319001787_","Store location - 0319001787_","","CS","Castello","Via Garibaldi","1787","CS1787","Via Garibaldi 1787","","45.43235594","12.3532936"
"0319002622_","Store location - 0319002622_","","CS","Castello","Campo Dei Do Pozzi","2622","CS2622","Campo Dei Do Pozzi 2622","","45.43598134","12.3484504"
"0319003190_","Store location - 0319003190_","","CS","Castello","Salizada De Le Gatte","3190","CS3190","Salizada De Le Gatte 3190","","45.43667855","12.34755978"
"0319003196A","Store location - 0319003196A","","CS","Castello","Salizada De Le Gatte","3196A","CS3196A","Salizada De Le Gatte 3196A","","45.43658258","12.34756186"
"0319003536_","Store location - 0319003536_","","CS","Castello","Salizada Sant'Antonin","3536","CS3536","Salizada Sant'Antonin 3536","","45.43533535","12.3468257"
"0319003637_","Store location - 0319003637_","","CS","Castello","Campiello Drio La Pieta'","3637","CS3637","Campiello Drio La Pieta' 3637","","45.43474335","12.3455323"
"0319005766_","Store location - 0319005766_","","CS","Castello","Salizada San Lio","5766","CS5766","Salizada San Lio 5766","","45.43708885","12.33953196"
"0319006440_","Store location - 0319006440_","","CS","Castello","Barbaria De Le Tole","6440","CS6440","Barbaria De Le Tole 6440","","45.43854786","12.34396878"
"1561000359_","Store location - 1561000359_","","SC","Santa Croce","Rio Tera' Dei Pensieri","359","SC359","Rio Tera' Dei Pensieri 359","","45.43642581","12.32000468"
"1600002628_","Store location - 1600002628_","","SM","San Marco","Calle Zaguri","2628","SM2628","Calle Zaguri 2628","","45.43274262","12.33203003"
"1600003710_","Store location - 1600003710_","","SM","San Marco","Calle De La Mandola","3710","SM3710","Calle De La Mandola 3710","","45.43488252","12.33314172"
"1600005425_","Store location - 1600005425_","","SM","San Marco","Calle De La Bissa","5425","SM5425","Calle De La Bissa 5425","","45.43773719","12.33729919"
"0278000408_","Store location - 0278000408_","","CN","Cannaregio","Fondamenta Savorgnan","408","CN408","Fondamenta Savorgnan 408","","45.44427736","12.32403863"
"0278000916H","Store location - 0278000916H","","CN","Cannaregio","Calle De Le Penitenti","916H","CN916H","Calle De Le Penitenti 916H","","45.4471422","12.3203205"
"0278002432_","Store location - 0278002432_","","CN","Cannaregio","Calle Zancani","2432","CN2432","Calle Zancani 2432","","45.44355595","12.33241443"
"0278002689_","Store location - 0278002689_","","CN","Cannaregio","Fondamenta Dei Ormesini","2689","CN2689","Fondamenta Dei Ormesini 2689","","45.44539831","12.32902342"
"0278002710_","Store location - 0278002710_","","CN","Cannaregio","Fondamenta Dei Ormesini","2710","CN2710","Fondamenta Dei Ormesini 2710","","45.44542958","12.32890964"
"0278002754_","Store location - 0278002754_","","CN","Cannaregio","Fondamenta Dei Ormesini","2754","CN2754","Fondamenta Dei Ormesini 2754","","45.44555367","12.32841472"
"0278004589A","Store location - 0278004589A","","CN","Cannaregio","Salizada Del Pistor","4589A","CN4589A","Salizada Del Pistor 4589A","","45.4411261","12.3366318"
"0278004594_","Store location - 0278004594_","","CN","Cannaregio","Salizada Del Pistor","4594","CN4594","Salizada Del Pistor 4594","","45.44122993","12.3366887"
"0278004790_","Store location - 0278004790_","","CN","Cannaregio","Salizada Del Spezier","4790","CN4790","Salizada Del Spezier 4790","","45.44183226","12.33777976"
"0278004802_","Store location - 0278004802_","","CN","Cannaregio","Salizada Del Spezier","4802","CN4802","Salizada Del Spezier 4802","","45.44198441","12.33781889"
"0278006104A","Store location - 0278006104A","","CN","Cannaregio","Calle De Le Erbe","6104A","CN6104A","Calle De Le Erbe 6104A","","45.43894809","12.34009623"
"0319000454A","Store location - 0319000454A","","CS","Castello","Fondamenta San Gioachin","454A","CS454A","Fondamenta San Gioachin 454A","","45.43257154","12.35608108"
"0319000455A","Store location - 0319000455A","","CS","Castello","Fondamenta Del Rio De La Tana","455A","CS455A","Fondamenta Del Rio De La Tana 455A","","45.43258208","12.35600374"
"0319000464A","Store location - 0319000464A","","CS","Castello","Calle San Gioachin","464A","CS464A","Calle San Gioachin 464A","","45.43267929","12.3565349"
"0319001736_","Store location - 0319001736_","","CS","Castello","Via Garibaldi","1736","CS1736","Via Garibaldi 1736","","45.43220062","12.35188319"
"0319002078_","Store location - 0319002078_","","CS","Castello","Fondamenta De La Tana","2078","CS2078","Fondamenta De La Tana 2078","","45.43288732","12.35233654"
"0319003343A","Store location - 0319003343A","","CS","Castello","Calle Del Magazen","3343A","CS3343A","Calle Del Magazen 3343A","","45.43578801","12.34555093"
"0319004946_","Store location - 0319004946_","","CS","Castello","Calle De La Corona","4946","CS4946","Calle De La Corona 4946","","45.43602098","12.34259572"
"0319005224_","Store location - 0319005224_","","CS","Castello","Calle Longa Santa Maria Formosa","5224","CS5224","Calle Longa Santa Maria Formosa 5224","","45.43767195","12.341814"
"0319005615_","Store location - 0319005615_","","CS","Castello","Calle Al Ponte Sant'Antonio","5615","CS5615","Calle Al Ponte Sant'Antonio 5615","","45.43763355","12.33787973"
"0319006135_","Store location - 0319006135_","","CS","Castello","Calle Longa Santa Maria Formosa","6135","CS6135","Calle Longa Santa Maria Formosa 6135","","45.43752497","12.34137872"
"0319006251_","Store location - 0319006251_","","CS","Castello","Calle Longa Santa Maria Formosa","6251","CS6251","Calle Longa Santa Maria Formosa 6251","","45.4378012","12.34213387"
"0319006316_","Store location - 0319006316_","","CS","Castello","Fondamenta Dei Felzi","6316","CS6316","Fondamenta Dei Felzi 6316","","45.43848271","12.34171301"
"0319006384C","Store location - 0319006384C","","CS","Castello","Fondamenta San Giovanni Laterano","6384C","CS6384C","Fondamenta San Giovanni Laterano 6384C","","45.43826064","12.34275459"
"0707000167_","Store location - 0707000167_","","DD","Dorsoduro","Calle San Gregorio","167","DD167","Calle San Gregorio 167","","45.43067181","12.33334019"
"0707000794_","Store location - 0707000794_","","DD","Dorsoduro","Fondamenta Zattere Ai Gesuati","794","DD794","Fondamenta Zattere Ai Gesuati 794","","45.42929586","12.32749607"
"0707001127_","Store location - 0707001127_","","DD","Dorsoduro","Fondamenta De Borgo","1127","DD1127","Fondamenta De Borgo 1127","","45.43089487","12.32443152"
"0707001643_","Store location - 0707001643_","","DD","Dorsoduro","Fondamenta San Basegio","1643","DD1643","Fondamenta San Basegio 1643","","45.43145428","12.32072053"
"0707002311_","Store location - 0707002311_","","DD","Dorsoduro","Fondamenta Rielo","2311","DD2311","Fondamenta Rielo 2311","","45.43258103","12.31699716"
"0707002671_","Store location - 0707002671_","","DD","Dorsoduro","Calle Longa De San Barnaba","2671","DD2671","Calle Longa De San Barnaba 2671","","45.43247785","12.3229528"
"0707002767_","Store location - 0707002767_","","DD","Dorsoduro","Sotoportego Del Casin Dei Nobili","2767","DD2767","Sotoportego Del Casin Dei Nobili 2767","","45.43282818","12.32508457"
"0707002897_","Store location - 0707002897_","","DD","Dorsoduro","Calle De La Scuola","2897","DD2897","Calle De La Scuola 2897","","45.43356205","12.3224834"
"1561000002_","Store location - 1561000002_","","SC","Santa Croce","Ponte San Pantalon","2","SC2","Ponte San Pantalon 2","","45.43559021","12.32409349"
"1561000037A","Store location - 1561000037A","1561000036_","SC","Santa Croce","Salizada San Pantalon","37A","SC37A","Salizada San Pantalon 37A","Santa Croce Salizada San Pantalon 36","45.43646746","12.32317081"
"1561000110_","Store location - 1561000110_","","SC","Santa Croce","Salizada San Pantalon","110","SC110","Salizada San Pantalon 110","","45.43642964","12.32342506"
"1561000171_","Store location - 1561000171_","","SC","Santa Croce","Fondamenta Dei Tolentini","171","SC171","Fondamenta Dei Tolentini 171","","45.43726004","12.32123031"
"1561000214_","Store location - 1561000214_","1561000215_;1561000216_;1561000217_","SC","Santa Croce","Fondamenta Dei Tolentini","214","SC214","Fondamenta Dei Tolentini 214","Santa Croce Fondamenta Dei Tolentini 215;Santa Croce Fondamenta Dei Tolentini 216;Santa Croce Fondamenta Dei Tolentini 217","45.43832363","12.32159711"
"1561000216_","Store location - 1561000216_","","SC","Santa Croce","Fondamenta Dei Tolentini","216","SC216","Fondamenta Dei Tolentini 216","","45.43837874","12.32158317"
"1561000217_","Store location - 1561000217_","","SC","Santa Croce","Fondamenta Dei Tolentini","217","SC217","Fondamenta Dei Tolentini 217","","45.43842322","12.32155507"
"1561000276_","Store location - 1561000276_","","SC","Santa Croce","Fondamenta Verso Treponti","276","SC276","Fondamenta Verso Treponti 276","","45.43674106","12.31995443"
"1561000599B","Store location - 1561000599B","1561000599D","SC","Santa Croce","Calle Sechera","599B","SC599B","Calle Sechera 599B","Santa Croce Campo De La Lana 599 D","45.43904463","12.32332539"
"1561000740A","Store location - 1561000740A","","SC","Santa Croce","Calle Longa","740A","SC740A","Calle Longa 740A","","45.4405097","12.32337607"
"1561000900_","Store location - 1561000900_","1561000899_","SC","Santa Croce","Fondamenta Rio Marin O Dei Garzotti","900","SC900","Fondamenta Rio Marin O Dei Garzotti 900","Santa Croce Calle De La Croce 899","45.43993455","12.32461703"
"1561001581_","Store location - 1561001581_","","SC","Santa Croce","Calle Del Tintor","1581","SC1581","Calle Del Tintor 1581","","45.43957038","12.32776804"
"1561001774_","Store location - 1561001774_","","SC","Santa Croce","Calle Del Megio","1774","SC1774","Calle Del Megio 1774","","45.4408737","12.32873314"
"1561001830_","Store location - 1561001830_","","SC","Santa Croce","Calle Del Tintor","1830","SC1830","Calle Del Tintor 1830","","45.44064134","12.32920873"
"1561001910_","Store location - 1561001910_","","SC","Santa Croce","Salizada San Stae","1910","SC1910","Salizada San Stae 1910","","45.44052273","12.3295609"
"1561002173_","Store location - 1561002173_","","SC","Santa Croce","Campo Santa Maria Mater Domini","2173","SC2173","Campo Santa Maria Mater Domini 2173","","45.43960056","12.33047765"
"1600000127_","Store location - 1600000127_","","SM","San Marco","Piazza San Marco","127","SM127","Piazza San Marco 127","","45.43444662","12.33825722"
"1600000502_","Store location - 1600000502_","","SM","San Marco","Campo De La Guerra","502","SM502","Campo De La Guerra 502","","45.43605196","12.3390709"
"1600000621_","Store location - 1600000621_","","SM","San Marco","Calle Dei Spechieri","621","SM621","Calle Dei Spechieri 621","","45.43571591","12.33897037"
"1600000706_","Store location - 1600000706_","","SM","San Marco","Marzaria San Zulian","706","SM706","Marzaria San Zulian 706","","45.43581107","12.33816879"
"1600000785_","Store location - 1600000785_","","SM","San Marco","Marzaria San Zulian","785","SM785","Marzaria San Zulian 785","","45.4354981","12.3382559"
"1600000938_","Store location - 1600000938_","1600000937_","SM","San Marco","Calle Fiubera","938","SM938","Calle Fiubera 938","San Marco Calle Fiubera 937","45.4349396","12.33740116"
"1600001037_","Store location - 1600001037_","","SM","San Marco","Calle Dei Fabbri","1037","SM1037","Calle Dei Fabbri 1037","","45.43530952","12.33671576"
"1600001165C","Store location - 1600001165C","","SM","San Marco","Fondamenta Orseolo","1165C","SM1165C","Fondamenta Orseolo 1165C","","45.43445213","12.3364384"
"1600001898_","Store location - 1600001898_","","SM","San Marco","Calle De La Verona","1898","SM1898","Calle De La Verona 1898","","45.43409697","12.33376322"
"1600001920_","Store location - 1600001920_","","SM","San Marco","Calle De La Fenice","1920","SM1920","Calle De La Fenice 1920","","45.43380191","12.3337416"
"1600002358_","Store location - 1600002358_","","SM","San Marco","Calle De Le Ostreghe","2358","SM2358","Calle De Le Ostreghe 2358","","45.43257023","12.33378096"
"1600002968_","Store location - 1600002968_","","SM","San Marco","Crosera De Le Boteghe","2968","SM2968","Crosera De Le Boteghe 2968","","45.43384131","12.33035763"
"1600003208A","Store location - 1600003208A","","SM","San Marco","Salizada Malipiero","3208A","SM3208A","Salizada Malipiero 3208A","","45.43368556","12.32873732"
"1600003468_","Store location - 1600003468_","1600003467_","SM","San Marco","Campiello Santo Stefano","3468","SM3468","Campiello Santo Stefano 3468","San Marco Campiello Santo Stefano 3467","45.43389529","12.33077083"
"1600003625_","Store location - 1600003625_","","SM","San Marco","Campo Sant'Anzolo","3625","SM3625","Campo Sant'Anzolo 3625","","45.43442228","12.33244814"
"1600003626_","Store location - 1600003626_","1600003627_","SM","San Marco","Campo Sant'Anzolo","3626","SM3626","Campo Sant'Anzolo 3626","San Marco Calle De La Mandola 3627","45.43447367","12.33234435"
"1600003655_","Store location - 1600003655_","","SM","San Marco","Calle Dei Assassini","3655","SM3655","Calle Dei Assassini 3655","","45.43478933","12.33294701"
"1600003656A","Store location - 1600003656A","","SM","San Marco","Calle Dei Assassini","3656A","SM3656A","Calle Dei Assassini 3656A","","45.4347153","12.33302978"
"1600003704_","Store location - 1600003704_","","SM","San Marco","Rio Tera' Dei Assassini","3704","SM3704","Rio Tera' Dei Assassini 3704","","45.43471873","12.3332361"
"1600003708_","Store location - 1600003708_","","SM","San Marco","Calle De La Mandola","3708","SM3708","Calle De La Mandola 3708","","45.43485643","12.33306683"
"1600004537_","Store location - 1600004537_","","SM","San Marco","Calle Del Magazen","4537","SM4537","Calle Del Magazen 4537","","45.43574389","12.33574023"
"1600004752_","Store location - 1600004752_","","SM","San Marco","Calle Del Lovo","4752","SM4752","Calle Del Lovo 4752","","45.43644834","12.33567865"
"1600005012_","Store location - 1600005012_","","SM","San Marco","Sotoportego De Le Acque","5012","SM5012","Sotoportego De Le Acque 5012","","45.43661397","12.33744325"
"1600005441_","Store location - 1600005441_","","SM","San Marco","Calle De La Bissa","5441","SM5441","Calle De La Bissa 5441","","45.43756942","12.33723466"
"1600005462_","Store location - 1600005462_","","SM","San Marco","Calle De La Bissa","5462","SM5462","Calle De La Bissa 5462","","45.4376946","12.33763189"
"1621000417_","Store location - 1621000417_","","SP","San Polo","Ruga Vechia San Giovanni","417","SP417","Ruga Vechia San Giovanni 417","","45.43870427","12.33420514"
"1621000480_","Store location - 1621000480_","","SP","San Polo","Ruga Vechia San Giovanni","480","SP480","Ruga Vechia San Giovanni 480","","45.4386973","12.33432482"
"1621001032_","Store location - 1621001032_","","SP","San Polo","Rugheta Ravano","1032","SP1032","Rugheta Ravano 1032","","45.43803154","12.33324149"
"1621001234_","Store location - 1621001234_","","SP","San Polo","Calle De Mezzo","1234","SP1234","Calle De Mezzo 1234","","45.43753303","12.33188878"
"1621001295_","Store location - 1621001295_","","SP","San Polo","Calle Del Perdon","1295","SP1295","Calle Del Perdon 1295","","45.43781476","12.33208325"
"1621001574_","Store location - 1621001574_","","SP","San Polo","Calle Dei Boteri","1574","SP1574","Calle Dei Boteri 1574","","45.43945913","12.33280919"
"1621001693_","Store location - 1621001693_","","SP","San Polo","Calle Dei Boteri","1693","SP1693","Calle Dei Boteri 1693","","45.43959184","12.33285386"
"1621001701_","Store location - 1621001701_","","SP","San Polo","Calle Dei Boteri","1701","SP1701","Calle Dei Boteri 1701","","45.43943556","12.33269205"
"1621001729_","Store location - 1621001729_","","SP","San Polo","Calle Dei Cristi","1729","SP1729","Calle Dei Cristi 1729","","45.43942582","12.33238306"
"1621001751_","Store location - 1621001751_","","SP","San Polo","Calle Muti O Baglioni","1751","SP1751","Calle Muti O Baglioni 1751","","45.43937165","12.33205781"
"1621001758_","Store location - 1621001758_","","SP","San Polo","Calle Del Campaniel","1758","SP1758","Calle Del Campaniel 1758","","45.43964364","12.332344"
"1621002011_","Store location - 1621002011_","","SP","San Polo","Campo San Polo","2011","SP2011","Campo San Polo 2011","","45.4371494","12.33015934"
"1621002304B","Store location - 1621002304B","","SP","San Polo","Rio Tera' Secondo","2304B","SP2304B","Rio Tera' Secondo 2304B","","45.4386119","12.3284864"
"1621002309_","Store location - 1621002309_","","SP","San Polo","Rio Tera' Secondo","2309","SP2309","Rio Tera' Secondo 2309","","45.43885789","12.32886653"
"1621002565_","Store location - 1621002565_","","SP","San Polo","Fondamenta Dei Frari","2565","SP2565","Fondamenta Dei Frari 2565","","45.43727489","12.32727612"
"1621002852_","Store location - 1621002852_","","SP","San Polo","Campo San Toma'","2852","SP2852","Campo San Toma' 2852","","45.43620152","12.32720568"
"1621002898A","Store location - 1621002898A","","SP","San Polo","Calle Del Campaniel Detta Civran","2898A","SP2898A","Calle Del Campaniel Detta Civran 2898A","","45.43572544","12.32731341"
"0278000931_","Store location - 0278000931_","","CN","Cannaregio","Fondamenta De Cannaregio","931","CN931","Fondamenta De Cannaregio 931","","45.44600015","12.3204945"
"0278005801_","Store location - 0278005801_","","CN","Cannaregio","Salizada San Giovanni Grisostomo","5801","CN5801","Salizada San Giovanni Grisostomo 5801","","45.43894622","12.33712827"
"0319000996_","Store location - 0319000996_","","CS","Castello","Fondamenta Sant'Anna","996","CS996","Fondamenta Sant'Anna 996","","45.43246417","12.35638181"
"0319001312_","Store location - 0319001312_","","CS","Castello","Via Garibaldi","1312","CS1312","Via Garibaldi 1312","","45.43231785","12.35419922"
"0319001594_","Store location - 0319001594_","","CS","Castello","Via Garibaldi","1594","CS1594","Via Garibaldi 1594","","45.43207657","12.35224274"
"0319001767_","Store location - 0319001767_","","CS","Castello","Via Garibaldi","1767","CS1767","Via Garibaldi 1767","","45.43226582","12.3524382"
"0319001799_","Store location - 0319001799_","","CS","Castello","Via Garibaldi","1799","CS1799","Via Garibaldi 1799","","45.4324565","12.35396877"
"0319001810_","Store location - 0319001810_","","CS","Castello","Via Garibaldi","1810","CS1810","Via Garibaldi 1810","","45.43250647","12.3547424"
"0319003148_","Store location - 0319003148_","","CS","Castello","Salizada San Francesco","3148","CS3148","Salizada San Francesco 3148","","45.43704887","12.34734221"
"0319003149_","Store location - 0319003149_","","CS","Castello","Salizada San Francesco","3149","CS3149","Salizada San Francesco 3149","","45.43706638","12.34734234"
"0319003157A","Store location - 0319003157A","","CS","Castello","Salizada San Francesco","3157A","CS3157A","Salizada San Francesco 3157A","","45.43727481","12.34723198"
"0319003211_","Store location - 0319003211_","","CS","Castello","Campo De Le Gatte","3211","CS3211","Campo De Le Gatte 3211","","45.43631709","12.34751563"
"0319003213_","Store location - 0319003213_","","CS","Castello","Campo De Le Gatte","3213","CS3213","Campo De Le Gatte 3213","","45.43628499","12.34737517"
"0319003459_","Store location - 0319003459_","","CS","Castello","Salizada Dei Greci","3459","CS3459","Salizada Dei Greci 3459","","45.43556694","12.34570378"
"0319003587A","Store location - 0319003587A","","CS","Castello","Salizada Del Pignater","3587A","CS3587A","Salizada Del Pignater 3587A","","45.43494803","12.34737443"
"0319003913_","Store location - 0319003913_","","CS","Castello","Calle Crosera","3913","CS3913","Calle Crosera 3913","","45.43443418","12.34762397"
"0319004299_","Store location - 0319004299_","","CS","Castello","Ruga Giuffa Santa Apollonia","4299","CS4299","Ruga Giuffa Santa Apollonia 4299","","45.43500735","12.34089901"
"0319004683_","Store location - 0319004683_","","CS","Castello","Calle S. Zaccaria","4683","CS4683","Calle S. Zaccaria 4683","","45.4348701","12.3428778"
"0319004755_","Store location - 0319004755_","","CS","Castello","Ruga Giuffa","4755","CS4755","Ruga Giuffa 4755","","45.43611122","12.34245347"
"0319005226_","Store location - 0319005226_","","CS","Castello","Calle Longa Santa Maria Formosa","5226","CS5226","Calle Longa Santa Maria Formosa 5226","","45.43763816","12.34171189"
"0319005229_","Store location - 0319005229_","","CS","Castello","Calle Longa Santa Maria Formosa","5229","CS5229","Calle Longa Santa Maria Formosa 5229","","45.43759894","12.34159675"
"0319005233_","Store location - 0319005233_","","CS","Castello","Calle Longa Santa Maria Formosa","5233","CS5233","Calle Longa Santa Maria Formosa 5233","","45.43757906","12.34154866"
"0319005367_","Store location - 0319005367_","","CS","Castello","Calle Al Ponte De La Guerra","5367","CS5367","Calle Al Ponte De La Guerra 5367","","45.43638595","12.33942869"
"0319005386_","Store location - 0319005386_","","CS","Castello","Salizada San Lio","5386","CS5386","Salizada San Lio 5386","","45.43673502","12.33989689"
"0319005473_","Store location - 0319005473_","0319005472_","CS","Castello","Salizada San Lio","5473","CS5473","Salizada San Lio 5473","Castello Salizada San Lio 5472","45.43723533","12.33916196"
"0319005475_","Store location - 0319005475_","","CS","Castello","Salizada San Lio","5475","CS5475","Salizada San Lio 5475","","45.43724953","12.33912445"
"0319005577_","Store location - 0319005577_","","CS","Castello","Campo San Lio","5577","CS5577","Campo San Lio 5577","","45.4374711","12.33832524"
"0319005578_","Store location - 0319005578_","","CS","Castello","Campo San Lio","5578","CS5578","Campo San Lio 5578","","45.43748246","12.33827952"
"0319005604_","Store location - 0319005604_","0319005603_","CS","Castello","Campo San Lio","5604","CS5604","Campo San Lio 5604","Castello Campo San Lio 5603","45.43752996","12.33823628"
"0319005605_","Store location - 0319005605_","","CS","Castello","Calle Al Ponte Sant'Antonio","5605","CS5605","Calle Al Ponte Sant'Antonio 5605","","45.43754337","12.33816332"
"0319005606_","Store location - 0319005606_","","CS","Castello","Calle Al Ponte Sant'Antonio","5606","CS5606","Calle Al Ponte Sant'Antonio 5606","","45.43754848","12.3381393"
"0319005618_","Store location - 0319005618_","","CS","Castello","Calle Al Ponte Sant'Antonio","5618","CS5618","Calle Al Ponte Sant'Antonio 5618","","45.43760723","12.33800132"
"0319005765_","Store location - 0319005765_","","CS","Castello","Salizada San Lio","5765","CS5765","Salizada San Lio 5765","","45.43711275","12.33949567"
"0319005765_","Store location - 0319005765_","","CS","Castello","Salizada San Lio","5765","CS5765","Salizada San Lio 5765","","45.43711275","12.33949567"
"0319005786C","Store location - 0319005786C","","CS","Castello","Calle Del Mondo Novo","5786C","CS5786C","Calle Del Mondo Novo 5786C","","45.43699151","12.33997402"
"0319005864_","Store location - 0319005864_","","CS","Castello","Campo Santa Maria Formosa","5864","CS5864","Campo Santa Maria Formosa 5864","","45.43760924","12.34048179"
"0319006010_","Store location - 0319006010_","","CS","Castello","Corte Spechiera","6010","CS6010","Corte Spechiera 6010","","45.43832726","12.33841312"
"0319006053_","Store location - 0319006053_","","CS","Castello","Campiello De La Chiesa","6053","CS6053","Campiello De La Chiesa 6053","","45.43855516","12.33898007"
"0319006414_","Store location - 0319006414_","","CS","Castello","Barbaria De Le Tole","6414","CS6414","Barbaria De Le Tole 6414","","45.43865755","12.3430862"
"0319006442_","Store location - 0319006442_","","CS","Castello","Barbaria De Le Tole","6442","CS6442","Barbaria De Le Tole 6442","","45.4385291","12.34406376"
"0319006443_","Store location - 0319006443_","","CS","Castello","Barbaria De Le Tole","6443","CS6443","Barbaria De Le Tole 6443","","45.43852408","12.34409378"
"0319006479A","Store location - 0319006479A","","CS","Castello","Calle Del Cafetier","6479A","CS6479A","Calle Del Cafetier 6479A","","45.43848078","12.34481688"
"0319006481_","Store location - 0319006481_","","CS","Castello","Calle Del Cafetier","6481","CS6481","Calle Del Cafetier 6481","","45.43846705","12.34491326"
"0319006514_","Store location - 0319006514_","","CS","Castello","Calle Zon","6514","CS6514","Calle Zon 6514","","45.43824775","12.34562257"
"0319006666_","Store location - 0319006666_","0319006668A;0319006667_","CS","Castello","Barbaria De Le Tole","6666","CS6666","Barbaria De Le Tole 6666","Castello Barbaria De Le Tole 6668 A;Castello Barbaria De Le Tole 6667","45.43861479","12.34386716"
"0319006825A","Store location - 0319006825A","","CS","Castello","Campo San Zani","6825A","CS6825A","Campo San Zani 6825A","","45.43908842","12.34108057"
"1561000039_","Store location - 1561000039_","","SC","Santa Croce","Salizada San Pantalon","39","SC39","Salizada San Pantalon 39","","45.43649775","12.32310196"
"1561000190B","Store location - 1561000190B","","SC","Santa Croce","Campazzo Dei Tolentini","190B","SC190B","Campazzo Dei Tolentini 190B","","45.43781858","12.32158601"
"1561000200B","Store location - 1561000200B","","SC","Santa Croce","Calle Dei Amai","200B","SC200B","Calle Dei Amai 200B","","45.43792975","12.32170042"
"1600000287_","Store location - 1600000287_","","SM","San Marco","Calle Larga San Marco","287","SM287","Calle Larga San Marco 287","","45.43499541","12.33896877"
"1600000716_","Store location - 1600000716_","","SM","San Marco","Marzaria San Zulian","716","SM716","Marzaria San Zulian 716","","45.43602795","12.33778806"
"1600000918_","Store location - 1600000918_","1600000919_","SM","San Marco","Calle Dei Fabbri","918","SM918","Calle Dei Fabbri 918","San Marco Calle Dei Fabbri 919","45.4349414","12.33712901"
"1600001218_","Store location - 1600001218_","1600001218A","SM","San Marco","Fondamenta Orseolo","1218","SM1218","Fondamenta Orseolo 1218","San Marco Fondamenta Orseolo 1218 A","45.4341146","12.33703092"
"1600001304_","Store location - 1600001304_","","SM","San Marco","Calle Vallaresso","1304","SM1304","Calle Vallaresso 1304","","45.43321589","12.33679505"
"1600001307_","Store location - 1600001307_","","SM","San Marco","Calle Vallaresso","1307","SM1307","Calle Vallaresso 1307","","45.43310824","12.33684291"
"1600001316_","Store location - 1600001316_","","SM","San Marco","Calle Vallaresso","1316","SM1316","Calle Vallaresso 1316","","45.43270459","12.33703886"
"1600001339_","Store location - 1600001339_","1600001340_","SM","San Marco","Calle Vallaresso","1339","SM1339","Calle Vallaresso 1339","San Marco Calle Vallaresso 1340","45.43296496","12.33686579"
"1600001472_","Store location - 1600001472_","","SM","San Marco","Salizada San Moise'","1472","SM1472","Salizada San Moise' 1472","","45.43325185","12.33601416"
"1600001657_","Store location - 1600001657_","","SM","San Marco","Corte De Piscina De Frezzaria","1657","SM1657","Corte De Piscina De Frezzaria 1657","","45.43403411","12.33548262"
"1600001806_","Store location - 1600001806_","","SM","San Marco","Ramo Dei Fuseri","1806","SM1806","Ramo Dei Fuseri 1806","","45.43453559","12.33546971"
"1600001812_","Store location - 1600001812_","","SM","San Marco","Ramo Dei Fuseri","1812","SM1812","Ramo Dei Fuseri 1812","","45.43451475","12.33542541"
"1600002037_","Store location - 1600002037_","","SM","San Marco","Calle Larga Ventidue Marzo","2037","SM2037","Calle Larga Ventidue Marzo 2037","","45.43299135","12.3349462"
"1600002137_","Store location - 1600002137_","","SM","San Marco","Corte Barozzi","2137","SM2137","Corte Barozzi 2137","","45.43257902","12.33520766"
"1600002254_","Store location - 1600002254_","","SM","San Marco","Calle Larga Ventidue Marzo","2254","SM2254","Calle Larga Ventidue Marzo 2254","","45.43283372","12.33443525"
"1600002401_","Store location - 1600002401_","","SM","San Marco","Calle Larga Ventidue Marzo","2401","SM2401","Calle Larga Ventidue Marzo 2401","","45.43284758","12.33406693"
"1600002806A","Store location - 1600002806A","1600002806_;1600002806C","SM","San Marco","Campo Santo Stefano","2806A","SM2806A","Campo Santo Stefano 2806A","San Marco Campo Santo Stefano 2806;San Marco Campo Santo Stefano 2806 C","45.43284584","12.33031851"
"1600002995_","Store location - 1600002995_","1600002996_","SM","San Marco","Crosera De Le Boteghe","2995","SM2995","Crosera De Le Boteghe 2995","San Marco Crosera De Le Boteghe 2996","45.43402711","12.33001145"
"1600003537_","Store location - 1600003537_","","SM","San Marco","Calle Dei Frati","3537","SM3537","Calle Dei Frati 3537","","45.43414569","12.33140149"
"1600003654A","Store location - 1600003654A","","SM","San Marco","Calle De La Mandola","3654A","SM3654A","Calle De La Mandola 3654A","","45.43479857","12.33291869"
"1600003718C","Store location - 1600003718C","","SM","San Marco","Calle De La Cortesia","3718C","SM3718C","Calle De La Cortesia 3718C","","45.43505368","12.33353012"
"1600003806_","Store location - 1600003806_","","SM","San Marco","Calle De La Mandola","3806","SM3806","Calle De La Mandola 3806","","45.43457961","12.33239508"
"1600004278_","Store location - 1600004278_","1600004279_","SM","San Marco","Calle Dei Fuseri","4278","SM4278","Calle Dei Fuseri 4278","San Marco Calle Dei Fuseri 4279","45.43539025","12.33529473"
"1600004424_","Store location - 1600004424_","","SM","San Marco","Campiello Regina D'Ungheria","4424","SM4424","Campiello Regina D'Ungheria 4424","","45.43517821","12.33571072"
"1600004457_","Store location - 1600004457_","","SM","San Marco","Calle Dei Fuseri","4457","SM4457","Calle Dei Fuseri 4457","","45.43519419","12.33533322"
"1600004485_","Store location - 1600004485_","","SM","San Marco","Calle Goldoni","4485","SM4485","Calle Goldoni 4485","","45.43543154","12.33571835"
"1600004668_","Store location - 1600004668_","","SM","San Marco","Calle Dei Fabbri","4668","SM4668","Calle Dei Fabbri 4668","","45.43605436","12.33581454"
"1600004673_","Store location - 1600004673_","1600004540_","SM","San Marco","Calle Dei Fabbri","4673","SM4673","Calle Dei Fabbri 4673","San Marco Calle Del Magazen 4540","45.43581654","12.33604587"
"1600005037_","Store location - 1600005037_","","SM","San Marco","Marzaria Due Aprile","5037","SM5037","Marzaria Due Aprile 5037","","45.43713217","12.3365462"
"1621000702A","Store location - 1621000702A","","SP","San Polo","Calle Del Paradiso","702A","SP702A","Calle Del Paradiso 702A","","45.43800783","12.33380826"
"1621000777A","Store location - 1621000777A","","SP","San Polo","Ruga Vechia San Giovanni","777A","SP777A","Ruga Vechia San Giovanni 777A","","45.43851608","12.33401796"
"1621001239_","Store location - 1621001239_","","SP","San Polo","Calle De Mezzo","1239","SP1239","Calle De Mezzo 1239","","45.43746382","12.33176942"
"1621001989_","Store location - 1621001989_","","SP","San Polo","Calle De La Madoneta","1989","SP1989","Calle De La Madoneta 1989","","45.43718289","12.33054306"
"1621002404_","Store location - 1621002404_","","SP","San Polo","Calle Del Tabaco","2404","SP2404","Calle Del Tabaco 2404","","45.43808325","12.32647918"
"1621002719_","Store location - 1621002719_","","SP","San Polo","Calle Dei Saoneri","2719","SP2719","Calle Dei Saoneri 2719","","45.43658845","12.32839179"
"1621002865_","Store location - 1621002865_","","SP","San Polo","Campo San Toma'","2865","SP2865","Campo San Toma' 2865","","45.43602217","12.32722174"
"1621002900A","Store location - 1621002900A","1621002900B","SP","San Polo","Calle Del Campaniel Detta Civran","2900A","SP2900A","Calle Del Campaniel Detta Civran 2900A","San Polo Calle Del Campaniel Detta Civran 2900 B","45.43553747","12.32712487"
"1621003123_","Store location - 1621003123_","1621003124_","SP","San Polo","Campiello San Rocco","3123","SP3123","Campiello San Rocco 3123","San Polo Campiello San Rocco 3124","45.4364485","12.32571239"
"0319001239_","Store location - 0319001239_","","CS","Castello","Calle Streta Sarasin","1239","CS1239","Calle Streta Sarasin 1239","","45.43232035","12.35540831"
"0319003911_","Store location - 0319003911_","0319003898_","CS","Castello","Calle Crosera","3911","CS3911","Calle Crosera 3911","Castello Calle Del Pestrin 3898","45.4345114","12.34754434"
"0319005364_","Store location - 0319005364_","","CS","Castello","Ponte De La Guerra","5364","CS5364","Ponte De La Guerra 5364","","45.43629504","12.33932959"
"0319005470_","Store location - 0319005470_","","CS","Castello","Salizada San Lio","5470","CS5470","Salizada San Lio 5470","","45.43716634","12.33935267"
"0319005791_","Store location - 0319005791_","","CS","Castello","Calle Del Mondo Novo","5791","CS5791","Calle Del Mondo Novo 5791","","45.43709036","12.34019959"
"0319006374_","Store location - 0319006374_","0319006373A","CS","Castello","Calle De L'Ospedaleto","6374","CS6374","Calle De L'Ospedaleto 6374","Castello Calle De L'Ospedaleto 6373 A","45.43853054","12.34282616"
"1600001491_","Store location - 1600001491_","","SM","San Marco","Salizada San Moise'","1491","SM1491","Salizada San Moise' 1491","","45.43329718","12.33639482"
"1600001761_","Store location - 1600001761_","","SM","San Marco","Sotoportego Del Spiron D'Oro","1761","SM1761","Sotoportego Del Spiron D'Oro 1761","","45.43450726","12.33598363"
"1600004253_","Store location - 1600004253_","","SM","San Marco","Campo Manin","4253","SM4253","Campo Manin 4253","","45.43530149","12.33456713"
"1600004669_","Store location - 1600004669_","","SM","San Marco","Calle Dei Fabbri","4669","SM4669","Calle Dei Fabbri 4669","","45.43597843","12.33587921"
"1600004671_","Store location - 1600004671_","","SM","San Marco","Calle Dei Fabbri","4671","SM4671","Calle Dei Fabbri 4671","","45.43592237","12.33593383"
"1621000058_","Store location - 1621000058_","","SP","San Polo","Sotoportego De Rialto","58","SP58","Sotoportego De Rialto 58","","45.43864933","12.33489358"
"0319001821_","Store location - 0319001821_","","CS","Castello","Via Garibaldi","1821","CS1821","Via Garibaldi 1821","","45.43253514","12.35527482"
"0319002917_","Store location - 0319002917_","","CS","Castello","Salizada Santa Giustina","2917","CS2917","Salizada Santa Giustina 2917","","45.4373829","12.34662785"
"0319003169_","Store location - 0319003169_","","CS","Castello","Salizada San Francesco","3169","CS3169","Salizada San Francesco 3169","","45.43692829","12.34729831"
"0319005793A","Store location - 0319005793A","0319005793_","CS","Castello","Calle Del Mondo Novo","5793A","CS5793A","Calle Del Mondo Novo 5793A","Castello Calle Del Mondo Novo 5793","45.43714688","12.34031554"
"0319006247_","Store location - 0319006247_","","CS","Castello","Calle Longa Santa Maria Formosa","6247","CS6247","Calle Longa Santa Maria Formosa 6247","","45.43775642","12.34198478"
"1621001226_","Store location - 1621001226_","","SP","San Polo","Campo Sant'Aponal","1226","SP1226","Campo Sant'Aponal 1226","","45.43770306","12.33230587"
"0319003004_","Store location - 0319003004_","0319003005_;0319003006_","CS","Castello","Calle De L'Ogio","3004","CS3004","Calle De L'Ogio 3004","Castello Calle De L'Ogio 3005;Castello Ramo Corte De La Vida 3006","45.4369054","12.34794373"
"0319003488_","Store location - 0319003488_","","CS","Castello","Salizada Sant'Antonin","3488","CS3488","Salizada Sant'Antonin 3488","","45.43513078","12.34680968"
"0319005786_","Store location - 0319005786_","","CS","Castello","Calle Del Mondo Novo","5786","CS5786","Calle Del Mondo Novo 5786","","45.4369662","12.33991918"
"0319006505_","Store location - 0319006505_","","CS","Castello","Campo De Santa Giustina Detto De Barbaria","6505","CS6505","Campo De Santa Giustina Detto De Barbaria 6505","","45.43826327","12.34529131"
"1621001191_","Store location - 1621001191_","","SP","San Polo","Calle Todeschini","1191","SP1191","Calle Todeschini 1191","","45.43755096","12.33213238"
"0319001767_","Store location - 0319001767_","","CS","Castello","Via Garibaldi","1767","CS1767","Via Garibaldi 1767","","45.43226582","12.3524382"
"0319001779_","Store location - 0319001779_","","CS","Castello","Via Garibaldi","1779","CS1779","Via Garibaldi 1779","","45.43231642","12.35295151"
"0319003385H","Store location - 0319003385H","","CS","Castello","Calle Lion","3385H","CS3385H","Calle Lion 3385H","","45.43621074","12.34560189"
"0319004906_","Store location - 0319004906_","","CS","Castello","Calle De L'Arco Detta Bon","4906","CS4906","Calle De L'Arco Detta Bon 4906","","45.43655647","12.3427353"
"0319004976_","Store location - 0319004976_","","CS","Castello","Fondamenta De L'Osmarin","4976","CS4976","Fondamenta De L'Osmarin 4976","","45.43562846","12.34380033"
"0319005054A","Store location - 0319005054A","","CS","Castello","Fondamenta San Lorenzo","5054A","CS5054A","Fondamenta San Lorenzo 5054A","","45.43696132","12.34421479"
"0319005232_","Store location - 0319005232_","","CS","Castello","Calle Del Cafetier","5232","CS5232","Calle Del Cafetier 5232","","45.43749023","12.34160281"
"0319005380_","Store location - 0319005380_","","CS","Castello","Calle De Le Bande","5380","CS5380","Calle De Le Bande 5380","","45.43657145","12.33978286"
"0319005469_","Store location - 0319005469_","","CS","Castello","Salizada San Lio","5469","CS5469","Salizada San Lio 5469","","45.43712792","12.33941478"
"0319005751_","Store location - 0319005751_","0319005750_;0319005752_","CS","Castello","Calle Del Paradiso","5751","CS5751","Calle Del Paradiso 5751","Castello Calle Del Paradiso 5750;Castello Calle Del Paradiso 5752","45.43742249","12.33981712"
"0319006187_","Store location - 0319006187_","","CS","Castello","Calle Longa Santa Maria Formosa","6187","CS6187","Calle Longa Santa Maria Formosa 6187","","45.43763885","12.34162155"
"0319006419_","Store location - 0319006419_","","CS","Castello","Barbaria De Le Tole","6419","CS6419","Barbaria De Le Tole 6419","","45.43862185","12.34335242"
"1600003713_","Store location - 1600003713_","","SM","San Marco","Calle De La Cortesia","3713","SM3713","Calle De La Cortesia 3713","","45.43494401","12.333289"
"1600004263_","Store location - 1600004263_","","SM","San Marco","Rio Tera' San Paternian","4263","SM4263","Rio Tera' San Paternian 4263","","45.43544511","12.33509468"
"1600004275_","Store location - 1600004275_","","SM","San Marco","Calle Dei Fuseri","4275","SM4275","Calle Dei Fuseri 4275","","45.4354866","12.3352874"
"1600004280_","Store location - 1600004280_","","SM","San Marco","Calle Dei Fuseri","4280","SM4280","Calle Dei Fuseri 4280","","45.43530591","12.33530187"
"1600004375_","Store location - 1600004375_","1600004375A;1600004375B","SM","San Marco","Calle Dei Fuseri","4375","SM4375","Calle Dei Fuseri 4375","San Marco Calle De Le Schiavine 4375A;4375B","45.43513445","12.33532829"
"1600004582_","Store location - 1600004582_","1600004583_","SM","San Marco","Calle San Luca","4582","SM4582","Calle San Luca 4582","San Marco Calle San Luca 4583","45.43600686","12.33541609"
"1600005206_","Store location - 1600005206_","","SM","San Marco","Calle Dei Stagneri","5206","SM5206","Calle Dei Stagneri 5206","","45.43696787","12.33697951"
"1600005438_","Store location - 1600005438_","","SM","San Marco","Calle De La Bissa","5438","SM5438","Calle De La Bissa 5438","","45.43759103","12.33715409"
"1600005460_","Store location - 1600005460_","","SM","San Marco","Calle De La Bissa","5460","SM5460","Calle De La Bissa 5460","","45.43770829","12.33757858"
"1621000360_","Store location - 1621000360_","","SP","San Polo","Campo De Le Becarie","360","SP360","Campo De Le Becarie 360","","45.43951554","12.33354437"
"1621002286B","Store location - 1621002286B","","SP","San Polo","Rio Tera' Primo Del Parucheta","2286B","SP2286B","Rio Tera' Primo Del Parucheta 2286B","","45.43885011","12.32864965"
"0319001780_","Store location - 0319001780_","","CS","Castello","Via Garibaldi","1780","CS1780","Via Garibaldi 1780","","45.43231779","12.35298708"
"0319005248_","Store location - 0319005248_","","CS","Castello","Campo Santa Maria Formosa","5248","CS5248","Campo Santa Maria Formosa 5248","","45.43716342","12.34148943"
"0319005673_","Store location - 0319005673_","0319005674_","CS","Castello","Salizada San Lio","5673","CS5673","Salizada San Lio 5673","Castello Salizada San Lio 5674","45.43738661","12.33889728"
"0319006344_","Store location - 0319006344_","","CS","Castello","Salizada San Zanipolo","6344","CS6344","Salizada San Zanipolo 6344","","45.43875679","12.34253787"
"0319006374_","Store location - 0319006374_","0319006373A","CS","Castello","Calle De L'Ospedaleto","6374","CS6374","Calle De L'Ospedaleto 6374","Castello Calle De L'Ospedaleto 6373 A","45.43853054","12.34282616"
"0319006639_","Store location - 0319006639_","","CS","Castello","Campo De Santa Giustina Detto De Barbaria","6639","CS6639","Campo De Santa Giustina Detto De Barbaria 6639","","45.43850988","12.34521279"
"1561000279_","Store location - 1561000279_","","SC","Santa Croce","Fondamenta Verso Treponti","279","SC279","Fondamenta Verso Treponti 279","","45.43660846","12.31999524"
"0319001337_","Store location - 0319001337_","","CS","Castello","Via Garibaldi","1337","CS1337","Via Garibaldi 1337","","45.43230238","12.35403475"
"0319003490_","Store location - 0319003490_","0319003491_;0319003492_","CS","Castello","Salizada Sant'Antonin","3490","CS3490","Salizada Sant'Antonin 3490","Castello Calle De La Morte 3491;Castello Calle De La Morte 3492","45.43504399","12.34684311"
"0319006491_","Store location - 0319006491_","","CS","Castello","Campo De Santa Giustina Detto De Barbaria","6491","CS6491","Campo De Santa Giustina Detto De Barbaria 6491","","45.43828718","12.34515065"
"1621003137_","Store location - 1621003137_","","SP","San Polo","Campiello San Rocco","3137","SP3137","Campiello San Rocco 3137","","45.43639303","12.32582798"
"0319001727_","Store location - 0319001727_","","CS","Castello","Via Garibaldi","1727","CS1727","Via Garibaldi 1727","","45.43217635","12.35172187"
"0319006081_","Store location - 0319006081_","","CS","Castello","Calle Del Cristo","6081","CS6081","Calle Del Cristo 6081","","45.43855495","12.33969872"
"0319006365_","Store location - 0319006365_","","CS","Castello","Salizada San Zanipolo","6365","CS6365","Salizada San Zanipolo 6365","","45.43881893","12.34243152"
"0319006663_","Store location - 0319006663_","","CS","Castello","Barbaria De Le Tole","6663","CS6663","Barbaria De Le Tole 6663","","45.43857475","12.34427365"
"1600005436_","Store location - 1600005436_","","SM","San Marco","Calle De La Bissa","5436","SM5436","Calle De La Bissa 5436","","45.43760934","12.33708649"
"0278005075A","Store location - 0278005075A","","CN","Cannaregio","Calle Dei Boteri","5075A","CN5075A","Calle Dei Boteri 5075A","","45.44251324","12.34065769"
"0319001739_","Store location - 0319001739_","","CS","Castello","Via Garibaldi","1739","CS1739","Via Garibaldi 1739","","45.43222754","12.35201203"
"0319005247_","Store location - 0319005247_","","CS","Castello","Campo Santa Maria Formosa","5247","CS5247","Campo Santa Maria Formosa 5247","","45.43722318","12.34144308"
"1600001279_","Store location - 1600001279_","","SM","San Marco","Bocca De Piazza","1279","SM1279","Bocca De Piazza 1279","","45.43369671","12.33658176"
"0278001159_","Store location - 0278001159_","","CN","Cannaregio","Calle Del Forno","1159","CN1159","Calle Del Forno 1159","","45.44491698","12.32536991"
"0319001788_","Store location - 0319001788_","","CS","Castello","Via Garibaldi","1788","CS1788","Via Garibaldi 1788","","45.43236795","12.3533593"
"0319004700_","Store location - 0319004700_","0319004699A","CS","Castello","Campo San Provolo","4700","CS4700","Campo San Provolo 4700","Castello Calle S. Zaccaria 4699 A","45.43497828","12.34258011"
"0319005619A","Store location - 0319005619A","","CS","Castello","Calle Al Ponte Sant'Antonio","5619A","CS5619A","Calle Al Ponte Sant'Antonio 5619A","","45.43759887","12.33804415"
"1561000192_","Store location - 1561000192_","","SC","Santa Croce","Sotoportego Dei Amai","192","SC192","Sotoportego Dei Amai 192","","45.43793726","12.32200508"
"1600004589_","Store location - 1600004589_","1600004593_;1600004593A","SM","San Marco","Campo San Luca","4589","SM4589","Campo San Luca 4589","San Marco Calle Del Forno 4593 ;San Marco Calle Del Forno 4593 A","45.4358759","12.33518251"
"1600005035_","Store location - 1600005035_","","SM","San Marco","Marzaria Due Aprile","5035","SM5035","Marzaria Due Aprile 5035","","45.4370297","12.33644728"
"1621000267_","Store location - 1621000267_","","SP","San Polo","Ruga Dei Speziali","267","SP267","Ruga Dei Speziali 267","","45.43915827","12.33423484"
"0278001847B","Store location - 0278001847B","","CN","Cannaregio","Rio Tera' Farsetti","1847B","CN1847B","Rio Tera' Farsetti 1847B","","45.44482125","12.3289768"
"0278004545_","Store location - 0278004545_","","CN","Cannaregio","Salizada Del Pistor","4545","CN4545","Salizada Del Pistor 4545","","45.44067493","12.3364651"
"0319000768_","Store location - 0319000768_","","CS","Castello","Seco Marina","768","CS768","Seco Marina 768","","45.43109033","12.35672208"
"0319000996A","Store location - 0319000996A","","CS","Castello","Fondamenta Sant'Anna","996A","CS996A","Fondamenta Sant'Anna 996A","","45.43245797","12.35633592"
"0319001306_","Store location - 0319001306_","","CS","Castello","Calle San Domenico","1306","CS1306","Calle San Domenico 1306","","45.43197051","12.35445936"
"0319001341_","Store location - 0319001341_","","CS","Castello","Via Garibaldi","1341","CS1341","Via Garibaldi 1341","","45.43229826","12.35388614"
"0319001386_","Store location - 0319001386_","","CS","Castello","Via Garibaldi","1386","CS1386","Via Garibaldi 1386","","45.43228601","12.353732"
"0319001387_","Store location - 0319001387_","","CS","Castello","Via Garibaldi","1387","CS1387","Via Garibaldi 1387","","45.43227505","12.35369045"
"0319001561_","Store location - 0319001561_","","CS","Castello","Via Garibaldi","1561","CS1561","Via Garibaldi 1561","","45.43215174","12.3528005"
"0319002913_","Store location - 0319002913_","0319002914_;0319002910_;0319002911_","CS","Castello","Salizada Santa Giustina","2913","CS2913","Salizada Santa Giustina 2913","Castello Salizada Santa Giustina 2914;Castello Salizada Santa Giustina 2910;Castello Salizada Santa Giustina 2911","45.43738856","12.34657703"
"0319003157_","Store location - 0319003157_","","CS","Castello","Salizada San Francesco","3157","CS3157","Salizada San Francesco 3157","","45.43730593","12.34722915"
"0319003168_","Store location - 0319003168_","","CS","Castello","Salizada San Francesco","3168","CS3168","Salizada San Francesco 3168","","45.43696722","12.34729074"
"0319003454_","Store location - 0319003454_","","CS","Castello","Salizada Dei Greci","3454","CS3454","Salizada Dei Greci 3454","","45.43556622","12.34551051"
"0319003456_","Store location - 0319003456_","","CS","Castello","Salizada Dei Greci","3456","CS3456","Salizada Dei Greci 3456","","45.43556382","12.34559687"
"0319004920_","Store location - 0319004920_","0319004922_;0319004923_","CS","Castello","Ruga Giuffa","4920","CS4920","Ruga Giuffa 4920","Castello Ruga Giuffa 4922;Castello Ruga Giuffa 4923","45.43619213","12.34240354"
"0319005065E","Store location - 0319005065E","","CS","Castello","Calle San Lorenzo","5065E","CS5065E","Calle San Lorenzo 5065E","","45.43672735","12.34557386"
"0319005223_","Store location - 0319005223_","","CS","Castello","Calle Longa Santa Maria Formosa","5223","CS5223","Calle Longa Santa Maria Formosa 5223","","45.437685","12.34185466"
"0319005785A","Store location - 0319005785A","0319005785C","CS","Castello","Salizada San Lio","5785A","CS5785A","Salizada San Lio 5785A","Castello Calle Del Mondo Novo 5785 C","45.43690821","12.33977087"
"0319005816_","Store location - 0319005816_","0319005814_;0319005815_;0319005817_;0319005818_;0319005819_","CS","Castello","Calle Del Mondo Novo","5816","CS5816","Calle Del Mondo Novo 5816","Castello Calle Del Mondo Novo 5814;Castello Calle Del Mondo Novo 5815;Salizada San Lio 5817;Castello Salizada San Lio 5818;Castello Salizada San Lio 5819","45.4368848","12.33981093"
"0319006153_","Store location - 0319006153_","","CS","Castello","Calle Longa Santa Maria Formosa","6153","CS6153","Calle Longa Santa Maria Formosa 6153","","45.43756768","12.34146016"
"0319006247_","Store location - 0319006247_","","CS","Castello","Calle Longa Santa Maria Formosa","6247","CS6247","Calle Longa Santa Maria Formosa 6247","","45.43775642","12.34198478"
"0319006404_","Store location - 0319006404_","0319006403_","CS","Castello","Barbaria De Le Tole","6404","CS6404","Barbaria De Le Tole 6404","Castello Calle De L'Ospedaleto 6403","45.4386696","12.34299908"
"0319006477A","Store location - 0319006477A","0319006476_","CS","Castello","Calle Del Cafetier","6477A","CS6477A","Calle Del Cafetier 6477A","Castello Calle Del Cafetier 6476","45.43849556","12.34470153"
"0319006551A","Store location - 0319006551A","","CS","Castello","Campo De Santa Giustina Detto De Barbaria","6551A","CS6551A","Campo De Santa Giustina Detto De Barbaria 6551A","","45.43839866","12.34534875"
"0319006651_","Store location - 0319006651_","","CS","Castello","Calle Del Cafetier","6651","CS6651","Calle Del Cafetier 6651","","45.43852054","12.34477548"
"1561000155_","Store location - 1561000155_","","SC","Santa Croce","Fondamenta Minotto","155","SC155","Fondamenta Minotto 155","","45.43693491","12.32170707"
"1561001630_","Store location - 1561001630_","","SC","Santa Croce","Calle Larga","1630","SC1630","Calle Larga 1630","","45.44058734","12.32822564"
"1600000837_","Store location - 1600000837_","","SM","San Marco","Ramo Del Fumo","837","SM837","Ramo Del Fumo 837","","45.43482503","12.33755557"
"1600004360_","Store location - 1600004360_","","SM","San Marco","Calle Dei Fuseri","4360","SM4360","Calle Dei Fuseri 4360","","45.4348467","12.33528817"
"1600005541_","Store location - 1600005541_","","SM","San Marco","Salizada Del Fontego Dei Tedeschi","5541","SM5541","Salizada Del Fontego Dei Tedeschi 5541","","45.43815572","12.33701765"
"1621000376_","Store location - 1621000376_","","SP","San Polo","Ruga Dei Speziali","376","SP376","Ruga Dei Speziali 376","","45.43923158","12.33399415"
"1621000602_","Store location - 1621000602_","","SP","San Polo","Ruga Vechia San Giovanni","602","SP602","Ruga Vechia San Giovanni 602","","45.4385014","12.33410421"
"1621000841A","Store location - 1621000841A","","SP","San Polo","Calle De Le Spade","841A","SP841A","Calle De Le Spade 841A","","45.43902806","12.33369798"
"1621002238_","Store location - 1621002238_","","SP","San Polo","Calle Del Scaleter","2238","SP2238","Calle Del Scaleter 2238","","45.43894029","12.32899765"
"1621002605_","Store location - 1621002605_","","SP","San Polo","Rio Tera'","2605","SP2605","Rio Tera' 2605","","45.43711642","12.32799564"
"1621002724_","Store location - 1621002724_","","SP","San Polo","Calle Dei Saoneri","2724","SP2724","Calle Dei Saoneri 2724","","45.43672539","12.32866498"
"0319003196B","Store location - 0319003196B","","CS","Castello","Salizada De Le Gatte","3196B","CS3196B","Salizada De Le Gatte 3196B","","45.43654563","12.34758283"
"0319003214_","Store location - 0319003214_","","CS","Castello","Campo De Le Gatte","3214","CS3214","Campo De Le Gatte 3214","","45.436265","12.34729957"
"0319003448_","Store location - 0319003448_","","CS","Castello","Salizada Dei Greci","3448","CS3448","Salizada Dei Greci 3448","","45.43561309","12.34526757"
"0319004686_","Store location - 0319004686_","","CS","Castello","Calle San Zaccaria","4686","CS4686","Calle San Zaccaria 4686","","45.4343433","12.34288145"
"0319004716C","Store location - 0319004716C","","CS","Castello","Calle San Provolo","4716C","CS4716C","Calle San Provolo 4716C","","45.43532967","12.34279291"
"0319004976C","Store location - 0319004976C","","CS","Castello","Fondamenta De L'Osmarin","4976C","CS4976C","Fondamenta De L'Osmarin 4976C","","45.43563353","12.34385987"
"0319005432_","Store location - 0319005432_","","CS","Castello","Calle Sant'Antonio","5432","CS5432","Calle Sant'Antonio 5432","","45.43692066","12.3393881"
"0319005611_","Store location - 0319005611_","","CS","Castello","Calle Al Ponte Sant'Antonio","5611","CS5611","Calle Al Ponte Sant'Antonio 5611","","45.4376001","12.33790988"
"1561000169_","Store location - 1561000169_","","SC","Santa Croce","Fondamenta Dei Tolentini","169","SC169","Fondamenta Dei Tolentini 169","","45.43718116","12.32123231"
"1561001107A","Store location - 1561001107A","","SC","Santa Croce","Calle Larga Dei Bari","1107A","SC1107A","Calle Larga Dei Bari 1107A","","45.44039627","12.32509898"
"1561002176_","Store location - 1561002176_","","SC","Santa Croce","Campo Santa Maria Mater Domini","2176","SC2176","Campo Santa Maria Mater Domini 2176","","45.43968552","12.33065283"
"1600001886_","Store location - 1600001886_","","SM","San Marco","Campiello Drio La Scuola","1886","SM1886","Campiello Drio La Scuola 1886","","45.43441456","12.33404208"
"1600003629_","Store location - 1600003629_","","SM","San Marco","Calle De La Mandola","3629","SM3629","Calle De La Mandola 3629","","45.4345449","12.33239039"
"1621002561_","Store location - 1621002561_","","SP","San Polo","Fondamenta Dei Frari","2561","SP2561","Fondamenta Dei Frari 2561","","45.43738996","12.32720532"
"1621002917_","Store location - 1621002917_","","SP","San Polo","Calle Del Cristo","2917","SP2917","Calle Del Cristo 2917","","45.43621355","12.32691813"
"1621002942A","Store location - 1621002942A","1621002941A","SP","San Polo","Calle Prima Larga","2942A","SP2942A","Calle Prima Larga 2942A","San Polo Calle Prima Larga 2941 A","45.43638752","12.32657643"
"0319001336_","Store location - 0319001336_","","CS","Castello","Via Garibaldi","1336","CS1336","Via Garibaldi 1336","","45.43230377","12.35404618"
"0319001626_","Store location - 0319001626_","","CS","Castello","Via Garibaldi","1626","CS1626","Via Garibaldi 1626","","45.43201022","12.35167525"
"0319005276_","Store location - 0319005276_","","CS","Castello","Calle De Le Bande","5276","CS5276","Calle De Le Bande 5276","","45.43658469","12.3399049"
"0319005532_","Store location - 0319005532_","0319005533_","CS","Castello","Calle De La Malvasia","5532","CS5532","Calle De La Malvasia 5532","Castello Corte Perini 5533","45.43702809","12.33888293"
"0319006479A","Store location - 0319006479A","","CS","Castello","Calle Del Cafetier","6479A","CS6479A","Calle Del Cafetier 6479A","","45.43848078","12.34481688"
"1561000111_","Store location - 1561000111_","","SC","Santa Croce","Salizada San Pantalon","111","SC111","Salizada San Pantalon 111","","45.43647217","12.32332942"
"1621001724_","Store location - 1621001724_","","SP","San Polo","Calle Dei Cristi","1724","SP1724","Calle Dei Cristi 1724","","45.43951173","12.33228538"
"0278000099_","Store location - 0278000099_","","CN","Cannaregio","Calle Priuli Ai Cavaleti","99","CN99","Calle Priuli Ai Cavaleti 99","","45.44258658","12.3210468"
"0278001506N","Store location - 0278001506N","","CN","Cannaregio","Rio Tera' Farsetti","1506N","CN1506N","Rio Tera' Farsetti 1506N","","45.445129","12.32894835"
"0278005995_","Store location - 0278005995_","","CN","Cannaregio","Campiello Santa Maria Nova","5995","CN5995","Campiello Santa Maria Nova 5995","","45.4396741","12.33854044"
"0278006105_","Store location - 0278006105_","","CN","Cannaregio","Calle De Le Erbe","6105","CN6105","Calle De Le Erbe 6105","","45.43893624","12.34018456"
"0319000269_","Store location - 0319000269_","","CS","Castello","Corte Del Bianco","269","CS269","Corte Del Bianco 269","","45.43311103","12.35788878"
"0319006573_","Store location - 0319006573_","","CS","Castello","Calle De Le Capuzzine","6573","CS6573","Calle De Le Capuzzine 6573","","45.43918352","12.34540887"
"1600001520A","Store location - 1600001520A","","SM","San Marco","Ramo Primo Corte Contarina","1520A","SM1520A","Ramo Primo Corte Contarina 1520A","","45.43344829","12.33584741"
"1600003672_","Store location - 1600003672_","","SM","San Marco","Calle De La Verona","3672","SM3672","Calle De La Verona 3672","","45.4344414","12.33339582"
"1600004604_","Store location - 1600004604_","","SM","San Marco","Corte Del Teatro","4604","SM4604","Corte Del Teatro 4604","","45.43631757","12.33500736"
"0319002134_","Store location - 0319002134_","0319002135_;0319002135A;0319002136_","CS","Castello","Riva San Biasio","2134","CS2134","Riva San Biasio 2134","Castello Riva San Biasio 2135;Castello Riva San Biasio 2135 A;Castello Riva San Biasio 2136","45.43240446","12.35014736"
"0278000291_","Store location - 0278000291_","","CN","Cannaregio","Campo San Geremia","291","CN291","Campo San Geremia 291","","45.44321407","12.32468052"
"0278001173_","Store location - 0278001173_","","CN","Cannaregio","Calle Del Forno","1173","CN1173","Calle Del Forno 1173","","45.44501182","12.32552111"
"0278002223_","Store location - 0278002223_","","CN","Cannaregio","Strada Nova","2223","CN2223","Strada Nova 2223","","45.4428362","12.33204279"
"0278005045B","Store location - 0278005045B","","CN","Cannaregio","Fondamente Nove","5045B","CN5045B","Fondamente Nove 5045B","","45.4426738","12.34117182"
"0278006124_","Store location - 0278006124_","","CN","Cannaregio","Calle De La Testa","6124","CN6124","Calle De La Testa 6124","","45.43922258","12.34037639"
"0319001310_","Store location - 0319001310_","","CS","Castello","Via Garibaldi","1310","CS1310","Via Garibaldi 1310","","45.43232434","12.35429849"
"0319001311_","Store location - 0319001311_","","CS","Castello","Via Garibaldi","1311","CS1311","Via Garibaldi 1311","","45.43232019","12.35425557"
"0319001476_","Store location - 0319001476_","","CS","Castello","Via Garibaldi","1476","CS1476","Via Garibaldi 1476","","45.4321861","12.35358186"
"0319003191_","Store location - 0319003191_","","CS","Castello","Salizada De Le Gatte","3191","CS3191","Salizada De Le Gatte 3191","","45.43666213","12.34756772"
"0319003304_","Store location - 0319003304_","","CS","Castello","Salizada Dei Greci","3304","CS3304","Salizada Dei Greci 3304","","45.43561647","12.34589113"
"0319003478A","Store location - 0319003478A","","CS","Castello","Salizada Sant'Antonin","3478A","CS3478A","Salizada Sant'Antonin 3478A","","45.43540007","12.3465261"
"0319003496_","Store location - 0319003496_","","CS","Castello","Salizada Sant'Antonin","3496","CS3496","Salizada Sant'Antonin 3496","","45.43543542","12.34666076"
"0319003800_","Store location - 0319003800_","","CS","Castello","Calle Del Dose","3800","CS3800","Calle Del Dose 3800","","45.43429166","12.34637223"
"0319003811_","Store location - 0319003811_","0319003811A","CS","Castello","Campo Bandiera E Moro","3811","CS3811","Campo Bandiera E Moro 3811","Castello Campo Bandiera E Moro 3811 A","45.43460656","12.34693599"
"0319003976_","Store location - 0319003976_","","CS","Castello","Calle De La Pescaria","3976","CS3976","Calle De La Pescaria 3976","","45.4338822","12.34750451"
"0319004685_","Store location - 0319004685_","","CS","Castello","Calle San Zaccaria","4685","CS4685","Calle San Zaccaria 4685","","45.43443784","12.34291022"
"0319004851B","Store location - 0319004851B","","CS","Castello","Ruga Giuffa","4851B","CS4851B","Ruga Giuffa 4851B","","45.43674382","12.3418586"
"0319004854_","Store location - 0319004854_","","CS","Castello","Ruga Giuffa","4854","CS4854","Ruga Giuffa 4854","","45.43682969","12.34180538"
"0319004922_","Store location - 0319004922_","","CS","Castello","Ruga Giuffa","4922","CS4922","Ruga Giuffa 4922","","45.43613784","12.3424644"
"0319004974_","Store location - 0319004974_","","CS","Castello","Fondamenta De L'Osmarin","4974","CS4974","Fondamenta De L'Osmarin 4974","","45.43561487","12.34369195"
"0319004976_","Store location - 0319004976_","","CS","Castello","Fondamenta De L'Osmarin","4976","CS4976","Fondamenta De L'Osmarin 4976","","45.43562846","12.34380033"
"0319004977_","Store location - 0319004977_","","CS","Castello","Fondamenta De L'Osmarin","4977","CS4977","Fondamenta De L'Osmarin 4977","","45.43565056","12.3440829"
"0319005029_","Store location - 0319005029_","","CS","Castello","Fondamenta San Lorenzo","5029","CS5029","Fondamenta San Lorenzo 5029","","45.43608108","12.3442735"
"0319005178_","Store location - 0319005178_","0319005177_","CS","Castello","Calle Longa Santa Maria Formosa","5178","CS5178","Calle Longa Santa Maria Formosa 5178","Castello Campiello De La Malvasia 5177","45.43782463","12.34220462"
"0319005483_","Store location - 0319005483_","","CS","Castello","Calle De La Malvasia","5483","CS5483","Calle De La Malvasia 5483","","45.437","12.33890566"
"0319005640_","Store location - 0319005640_","","CS","Castello","Calle Del Pistor","5640","CS5640","Calle Del Pistor 5640","","45.4378164","12.33833398"
"0319005672_","Store location - 0319005672_","","CS","Castello","Salizada San Lio","5672","CS5672","Salizada San Lio 5672","","45.43740388","12.33883131"
"0319005783_","Store location - 0319005783_","","CS","Castello","Salizada San Lio","5783","CS5783","Salizada San Lio 5783","","45.43700871","12.33964817"
"0319005889_","Store location - 0319005889_","0319005890_","CS","Castello","Calle Marcello O Pindemonte","5889","CS5889","Calle Marcello O Pindemonte 5889","Castello Calle Marcello O Pindemonte 5890","45.43822748","12.33972324"
"0319005902A","Store location - 0319005902A","0319005892B","CS","Castello","Campo Santa Marina","5902A","CS5902A","Campo Santa Marina 5902A","Castello Campo Santa Marina 5902 B","45.43827155","12.33948262"
"0319005928_","Store location - 0319005928_","0319005929_","CS","Castello","Calle Del Frutarol","5928","CS5928","Calle Del Frutarol 5928","Castello Calle Del Frutarol 5929","45.43819951","12.33891667"
"0319005944_","Store location - 0319005944_","","CS","Castello","Calle Del Frutarol","5944","CS5944","Calle Del Frutarol 5944","","45.43810059","12.33887382"
"0319005983_","Store location - 0319005983_","","CS","Castello","Calle Del Frutarol","5983","CS5983","Calle Del Frutarol 5983","","45.43810969","12.33884909"
"0319005989_","Store location - 0319005989_","0319005979_","CS","Castello","Calle Del Pistor","5989","CS5989","Calle Del Pistor 5989","Castello Calle Martinengo Dalle Palle 5979","45.43808412","12.33845492"
"0319006019_","Store location - 0319006019_","","CS","Castello","Calle De La Malvasia","6019","CS6019","Calle De La Malvasia 6019","","45.43818342","12.33862811"
"0319006022_","Store location - 0319006022_","","CS","Castello","Calle De La Malvasia","6022","CS6022","Calle De La Malvasia 6022","","45.43816036","12.33873743"
"0319006024A","Store location - 0319006024A","","CS","Castello","Calle Del Frutarol","6024A","CS6024A","Calle Del Frutarol 6024A","","45.43820216","12.33888012"
"0319006025_","Store location - 0319006025_","","CS","Castello","Calle Del Frutarol","6025","CS6025","Calle Del Frutarol 6025","","45.43822755","12.33888446"
"0319006040_","Store location - 0319006040_","","CS","Castello","Calle Scaleta","6040","CS6040","Calle Scaleta 6040","","45.43843529","12.33857652"
"0319006042A","Store location - 0319006042A","","CS","Castello","Campo Santa Marina","6042A","CS6042A","Campo Santa Marina 6042A","","45.43837927","12.33893969"
"0319006206_","Store location - 0319006206_","","CS","Castello","Calle Longa Santa Maria Formosa","6206","CS6206","Calle Longa Santa Maria Formosa 6206","","45.43766165","12.34168105"
"0319006336_","Store location - 0319006336_","","CS","Castello","Campo San Zanipolo","6336","CS6336","Campo San Zanipolo 6336","","45.43881736","12.34222884"
"0319006368_","Store location - 0319006368_","","CS","Castello","Salizada San Zanipolo","6368","CS6368","Salizada San Zanipolo 6368","","45.43878325","12.34259615"
"0319006377_","Store location - 0319006377_","","CS","Castello","Calle De L'Ospedaleto","6377","CS6377","Calle De L'Ospedaleto 6377","","45.43836928","12.34276288"
"0319006471_","Store location - 0319006471_","","CS","Castello","Calle Del Cafetier","6471","CS6471","Calle Del Cafetier 6471","","45.43852267","12.34445681"
"0319006487_","Store location - 0319006487_","","CS","Castello","Campo De Santa Giustina Detto De Barbaria","6487","CS6487","Campo De Santa Giustina Detto De Barbaria 6487","","45.43841164","12.3451853"
"0319006491_","Store location - 0319006491_","","CS","Castello","Campo De Santa Giustina Detto De Barbaria","6491","CS6491","Campo De Santa Giustina Detto De Barbaria 6491","","45.43828718","12.34515065"
"0319006553_","Store location - 0319006553_","","CS","Castello","Campo De Santa Giustina Detto De Barbaria","6553","CS6553","Campo De Santa Giustina Detto De Barbaria 6553","","45.43852422","12.3453747"
"1561000117A","Store location - 1561000117A","","SC","Santa Croce","Salizada San Pantalon","117A","SC117A","Salizada San Pantalon 117A","","45.43654677","12.32315436"
"1561000131_","Store location - 1561000131_","","SC","Santa Croce","Salizada San Pantalon","131","SC131","Salizada San Pantalon 131","","45.43660033","12.32293822"
"1561001173_","Store location - 1561001173_","","SC","Santa Croce","Lista Vechia Dei Bari","1173","SC1173","Lista Vechia Dei Bari 1173","","45.44111535","12.3258503"
"1561002035_","Store location - 1561002035_","","SC","Santa Croce","Campiello Del Spezier","2035","SC2035","Campiello Del Spezier 2035","","45.44026695","12.33003152"
"1600000790_","Store location - 1600000790_","","SM","San Marco","Marzaria San Zulian","790","SM790","Marzaria San Zulian 790","","45.43546211","12.33827103"
"1600000826_","Store location - 1600000826_","","SM","San Marco","Calle Fiubera","826","SM826","Calle Fiubera 826","","45.43492805","12.33742879"
"1600001669_","Store location - 1600001669_","","SM","San Marco","Calle De Piscina","1669","SM1669","Calle De Piscina 1669","","45.43411401","12.33578091"
"1600003455_","Store location - 1600003455_","1600003455B","SM","San Marco","Crosera De Le Boteghe","3455","SM3455","Crosera De Le Boteghe 3455","San Marco Piscina San Samuele 3455 B","45.43390667","12.33028376"
"1600003457_","Store location - 1600003457_","1600003456_;1600003458_","SM","San Marco","Crosera De Le Boteghe","3457","SM3457","Crosera De Le Boteghe 3457","San Marco Crosera De Le Boteghe 3456;San Marco Crosera De Le Boteghe 3458","45.43387458","12.33035274"
"1600004745_","Store location - 1600004745_","1600004744_;1600004746","SM","San Marco","Calle Dei Fabbri","4745","SM4745","Calle Dei Fabbri 4745","San Marco Calle Dei Fabbri 4744;4746","45.43629984","12.33560688"
"1600004782_","Store location - 1600004782_","","SM","San Marco","Calle Bembo","4782","SM4782","Calle Bembo 4782","","45.43664524","12.33530406"
"1600005191_","Store location - 1600005191_","","SM","San Marco","Calle Dei Stagneri","5191","SM5191","Calle Dei Stagneri 5191","","45.43711045","12.33705187"
"1621000051_","Store location - 1621000051_","","SP","San Polo","Sotoportego De Rialto","51","SP51","Sotoportego De Rialto 51","","45.43881032","12.33465958"
"1621000053_","Store location - 1621000053_","","SP","San Polo","Sotoportego De Rialto","53","SP53","Sotoportego De Rialto 53","","45.43876849","12.33472044"
"1621001034_","Store location - 1621001034_","","SP","San Polo","Rugheta Ravano","1034","SP1034","Rugheta Ravano 1034","","45.43800133","12.33313506"
"1621001592_","Store location - 1621001592_","","SP","San Polo","Calle Del Capeler","1592","SP1592","Calle Del Capeler 1592","","45.43938833","12.33308007"
"1621002423_","Store location - 1621002423_","","SP","San Polo","Calle De L'Ogio O Del Cafetier","2423","SP2423","Calle De L'Ogio O Del Cafetier 2423","","45.43868886","12.32633432"
"0278000967_","Store location - 0278000967_","","CN","Cannaregio","Fondamenta De Cannaregio","967","CN967","Fondamenta De Cannaregio 967","","45.44543561","12.32150354"
"0319001766_","Store location - 0319001766_","","CS","Castello","Via Garibaldi","1766","CS1766","Via Garibaldi 1766","","45.4322623","12.35238913"
"0319004293_","Store location - 0319004293_","","CS","Castello","Campo Santi Filippo E Giacomo","4293","CS4293","Campo Santi Filippo E Giacomo 4293","","45.43503376","12.34113636"
"0319004533_","Store location - 0319004533_","","CS","Castello","Calle De Le Rasse","4533","CS4533","Calle De Le Rasse 4533","","45.43471898","12.34180248"
"0319004588_","Store location - 0319004588_","","CS","Castello","Calle De Le Rasse","4588","CS4588","Calle De Le Rasse 4588","","45.4344624","12.34183329"
"0319005228_","Store location - 0319005228_","","CS","Castello","Calle Longa Santa Maria Formosa","5228","CS5228","Calle Longa Santa Maria Formosa 5228","","45.43761159","12.34163359"
"0319005269_","Store location - 0319005269_","","CS","Castello","Calle De Le Bande","5269","CS5269","Calle De Le Bande 5269","","45.43673253","12.34030555"
"0319005374_","Store location - 0319005374_","","CS","Castello","Calle Al Ponte De La Guerra","5374","CS5374","Calle Al Ponte De La Guerra 5374","","45.43647084","12.339584"
"0319005413_","Store location - 0319005413_","","CS","Castello","Salizada San Lio","5413","CS5413","Salizada San Lio 5413","","45.43697893","12.33963091"
"0319005414A","Store location - 0319005414A","","CS","Castello","Salizada San Lio","5414A","CS5414A","Salizada San Lio 5414A","","45.43701304","12.33958481"
"0319005514_","Store location - 0319005514_","","CS","Castello","Corte Rubbi","5514","CS5514","Corte Rubbi 5514","","45.43668368","12.33804941"
"0319005545_","Store location - 0319005545_","","CS","Castello","Salizada San Lio","5545","CS5545","Salizada San Lio 5545","","45.43734737","12.33882769"
"0319005705_","Store location - 0319005705_","","CS","Castello","Salizada San Lio","5705","CS5705","Salizada San Lio 5705","","45.43729516","12.33917665"
"0319006336_","Store location - 0319006336_","","CS","Castello","Campo San Zanipolo","6336","CS6336","Campo San Zanipolo 6336","","45.43881736","12.34222884"
"0319006662A","Store location - 0319006662A","","CS","Castello","Calle Del Cafetier","6662A","CS6662A","Calle Del Cafetier 6662A","","45.4385684","12.34436056"
"0707003110_","Store location - 0707003110_","","DD","Dorsoduro","Rio Terra' Canal","3110","DD3110","Rio Terra' Canal 3110","","45.43347132","12.3242814"
"1561000048_","Store location - 1561000048_","","SC","Santa Croce","Salizada San Pantalon","48","SC48","Salizada San Pantalon 48","","45.43652888","12.32290011"
"1600000044_","Store location - 1600000044_","","SM","San Marco","Piazza San Marco","44","SM44","Piazza San Marco 44","","45.43382972","12.3389588"
"1600000091_","Store location - 1600000091_","","SM","San Marco","Piazza San Marco","91","SM91","Piazza San Marco 91","","45.43408297","12.33741099"
"1600000108_","Store location - 1600000108_","","SM","San Marco","Corte Maruzzi","108","SM108","Corte Maruzzi 108","","45.4343225","12.33766018"
"1600000119_","Store location - 1600000119_","","SM","San Marco","Piazza San Marco","119","SM119","Piazza San Marco 119","","45.43431623","12.33795467"
"1600000282_","Store location - 1600000282_","","SM","San Marco","Calle Larga San Marco","282","SM282","Calle Larga San Marco 282","","45.43505904","12.33898265"
"1600000365_","Store location - 1600000365_","","SM","San Marco","Calle Larga San Marco","365","SM365","Calle Larga San Marco 365","","45.43512487","12.3393107"
"1600000634_","Store location - 1600000634_","","SM","San Marco","Calle Dei Spechieri","634","SM634","Calle Dei Spechieri 634","","45.43554626","12.33917091"
"1600000719_","Store location - 1600000719_","","SM","San Marco","Ponte Dei Bareteri","719","SM719","Ponte Dei Bareteri 719","","45.43607808","12.33769176"
"1600000737_","Store location - 1600000737_","","SM","San Marco","Marzaria San Zulian","737","SM737","Marzaria San Zulian 737","","45.43576394","12.33818551"
"1600001298_","Store location - 1600001298_","","SM","San Marco","Calle Seconda De L'Ascension","1298","SM1298","Calle Seconda De L'Ascension 1298","","45.43335186","12.33706475"
"1600001460_","Store location - 1600001460_","1600001459_;1600001459A","SM","San Marco","Campo San Moise'","1460","SM1460","Campo San Moise' 1460","San Marco Campo San Moise' 1459;San Marco Campo San Moise' 1459A","45.43297401","12.33568577"
"1600001845_","Store location - 1600001845_","","SM","San Marco","Calle Dal Frutarol","1845","SM1845","Calle Dal Frutarol 1845","","45.43413702","12.33458788"
"1600003798_","Store location - 1600003798_","","SM","San Marco","Rio Tera' De La Mandola","3798","SM3798","Rio Tera' De La Mandola 3798","","45.43480418","12.33246772"
"1600004464_","Store location - 1600004464_","","SM","San Marco","Calle Dei Fuseri","4464","SM4464","Calle Dei Fuseri 4464","","45.43541518","12.33532361"
"1600004606A","Store location - 1600004606A","","SM","San Marco","Calle Del Teatro","4606A","SM4606A","Calle Del Teatro 4606A","","45.436248","12.3353234"
"1600004609_","Store location - 1600004609_","","SM","San Marco","Calle Del Teatro","4609","SM4609","Calle Del Teatro 4609","","45.43638383","12.3354597"
"1600005207_","Store location - 1600005207_","","SM","San Marco","Calle Dei Stagneri","5207","SM5207","Calle Dei Stagneri 5207","","45.43690631","12.33694461"
"1600005414_","Store location - 1600005414_","","SM","San Marco","Sotoportego De La Bissa","5414","SM5414","Sotoportego De La Bissa 5414","","45.43775119","12.33715288"
"1600005468_","Store location - 1600005468_","","SM","San Marco","Calle De La Bissa","5468","SM5468","Calle De La Bissa 5468","","45.43772862","12.33757625"
"1621000060_","Store location - 1621000060_","","SP","San Polo","Sotoportego De Rialto","60","SP60","Sotoportego De Rialto 60","","45.4386179","12.33493682"
"1621000299_","Store location - 1621000299_","","SP","San Polo","Ruga Dei Speziali","299","SP299","Ruga Dei Speziali 299","","45.43929565","12.3339342"
"1621002562_","Store location - 1621002562_","","SP","San Polo","Fondamenta Dei Frari","2562","SP2562","Fondamenta Dei Frari 2562","","45.43737419","12.32721418"
"0319004523_","Store location - 0319004523_","","CS","Castello","Salizada San Provolo","4523","CS4523","Salizada San Provolo 4523","","45.43497977","12.34168944"
"0319004899_","Store location - 0319004899_","","CS","Castello","Ruga Giuffa","4899","CS4899","Ruga Giuffa 4899","","45.43638024","12.34228053"
"1600000831_","Store location - 1600000831_","","SM","San Marco","Calle Dei Fabbri","831","SM831","Calle Dei Fabbri 831","","45.43474063","12.33743476"
"1600001053_","Store location - 1600001053_","1600001053A;1600001053B;1600001054_","SM","San Marco","Calle Dei Fabbri","1053","SM1053","Calle Dei Fabbri 1053","San Marco Rio Tera' De Le Colone 1053 A;San Marco Rio Tera' De Le Colone 1053 B;San Marco Rio Tera' De Le Colone 1054","45.43521213","12.3368138"
"1600003632_","Store location - 1600003632_","","SM","San Marco","Calle De La Mandola","3632","SM3632","Calle De La Mandola 3632","","45.43460538","12.33250604"
"1600005019_","Store location - 1600005019_","","SM","San Marco","Marzaria San Salvador","5019","SM5019","Marzaria San Salvador 5019","","45.43676037","12.33705412"
"1600005021_","Store location - 1600005021_","","SM","San Marco","Marzaria San Salvador","5021","SM5021","Marzaria San Salvador 5021","","45.43678735","12.33693013"
"1621001590_","Store location - 1621001590_","","SP","San Polo","Ponte De Le Becarie","1590","SP1590","Ponte De Le Becarie 1590","","45.43936321","12.33318748"
"1600000999A","Store location - 1600000999A","","SM","San Marco","Calle Dei Fabbri","999A","SM999A","Calle Dei Fabbri 999A","","45.43520679","12.33684895"
"0319001081_","Store location - 0319001081_","","CS","Castello","Calle De Le Ancore","1081","CS1081","Calle De Le Ancore 1081","","45.43213859","12.35596942"
"0319002929_","Store location - 0319002929_","","CS","Castello","Salizada Santa Giustina","2929","CS2929","Salizada Santa Giustina 2929","","45.43739014","12.34692588"
"0319003230_","Store location - 0319003230_","","CS","Castello","Calle Dei Furlani","3230","CS3230","Calle Dei Furlani 3230","","45.43618207","12.34702818"
"0319003932_","Store location - 0319003932_","","CS","Castello","Calle Drio Erizzo","3932","CS3932","Calle Drio Erizzo 3932","","45.43447157","12.34797613"
"1561002137_","Store location - 1561002137_","","SC","Santa Croce","Calle Longa","2137","SC2137","Calle Longa 2137","","45.43930898","12.32989121"
"1561002156_","Store location - 1561002156_","","SC","Santa Croce","Calle Longa","2156","SC2156","Calle Longa 2156","","45.43930592","12.32992599"
"0319001592_","Store location - 0319001592_","","CS","Castello","Via Garibaldi","1592","CS1592","Via Garibaldi 1592","","45.432083","12.35233943"
"0319002476_","Store location - 0319002476_","","CS","Castello","Campo De Le Gorne","2476","CS2476","Campo De Le Gorne 2476","","45.43550336","12.34898281"
"0319003546_","Store location - 0319003546_","","CS","Castello","Salizada Del Pignater","3546","CS3546","Salizada Del Pignater 3546","","45.43496649","12.34708849"
"0319005268_","Store location - 0319005268_","","CS","Castello","Calle De Le Bande","5268","CS5268","Calle De Le Bande 5268","","45.4367483","12.34035093"
"0319001597_","Store location - 0319001597_","","CS","Castello","Via Garibaldi","1597","CS1597","Via Garibaldi 1597","","45.43206342","12.35204833"
"0319004976B","Store location - 0319004976B","","CS","Castello","Fondamenta De L'Osmarin","4976B","CS4976B","Fondamenta De L'Osmarin 4976B","","45.43563893","12.34393141"
"0319005610_","Store location - 0319005610_","","CS","Castello","Calle Al Ponte Sant'Antonio","5610","CS5610","Calle Al Ponte Sant'Antonio 5610","","45.43759342","12.33793971"
"0319005903_","Store location - 0319005903_","","CS","Castello","Campo Santa Marina","5903","CS5903","Campo Santa Marina 5903","","45.4382848","12.33940024"
"0319006368_","Store location - 0319006368_","","CS","Castello","Salizada San Zanipolo","6368","CS6368","Salizada San Zanipolo 6368","","45.43878325","12.34259615"
"1600000926A","Store location - 1600000926A","","SM","San Marco","Calle Dei Fabbri","926A","SM926A","Calle Dei Fabbri 926A","","45.43504662","12.33706223"
"1621001720_","Store location - 1621001720_","","SP","San Polo","Calle Dei Cristi","1720","SP1720","Calle Dei Cristi 1720","","45.43940954","12.33245099"
"0319002625_","Store location - 0319002625_","","CS","Castello","Calle Del Forno","2625","CS2625","Calle Del Forno 2625","","45.43586046","12.34824251"
"0319003266_","Store location - 0319003266_","","CS","Castello","Calle Dei Furlani","3266","CS3266","Calle Dei Furlani 3266","","45.43614248","12.3471954"
"0319006400_","Store location - 0319006400_","","CS","Castello","Calle De L'Ospedaleto","6400","CS6400","Calle De L'Ospedaleto 6400","","45.43854219","12.34289156"
"0319006417_","Store location - 0319006417_","","CS","Castello","Barbaria De Le Tole","6417","CS6417","Barbaria De Le Tole 6417","","45.43863696","12.34323214"
"0319006514_","Store location - 0319006514_","","CS","Castello","Calle Zon","6514","CS6514","Calle Zon 6514","","45.43824775","12.34562257"
"0319001795_","Store location - 0319001795_","","CS","Castello","Via Garibaldi","1795","CS1795","Via Garibaldi 1795","","45.43242709","12.35374607"
"0319003320_","Store location - 0319003320_","","CS","Castello","Salizada Dei Greci","3320","CS3320","Salizada Dei Greci 3320","","45.43572573","12.34511727"
"0319005470_","Store location - 0319005470_","","CS","Castello","Salizada San Lio","5470","CS5470","Salizada San Lio 5470","","45.43716634","12.33935267"
"0319006676_","Store location - 0319006676_","","CS","Castello","Barbaria De Le Tole","6676","CS6676","Barbaria De Le Tole 6676","","45.4386747","12.34326659"
"1561000161_","Store location - 1561000161_","","SC","Santa Croce","Fondamenta Minotto","161","SC161","Fondamenta Minotto 161","","45.43700678","12.32142338"
"1600001302_","Store location - 1600001302_","","SM","San Marco","Calle Seconda De L'Ascension","1302","SM1302","Calle Seconda De L'Ascension 1302","","45.4332675","12.3368068"
"0319006006A","Store location - 0319006006A","","CS","Castello","Sotoportego Spechiera","6006A","CS6006A","Sotoportego Spechiera 6006A","","45.4382547","12.33843535"
"0707003280_","Store location - 0707003280_","","DD","Dorsoduro","Calle Del Capeler","3280","DD3280","Calle Del Capeler 3280","","45.43381615","12.32547623"
"1600002380_","Store location - 1600002380_","","SM","San Marco","Calle Larga Ventidue Marzo","2380","SM2380","Calle Larga Ventidue Marzo 2380","","45.43291181","12.3344438"
"1621000369A","Store location - 1621000369A","","SP","San Polo","Calle De L'Anzolo","369A","SP369A","Calle De L'Anzolo 369A","","45.43923141","12.33359208"
"0278006041A","Store location - 0278006041A","","CN","Cannaregio","Campo Santa Maria Nova","6041A","CN6041A","Campo Santa Maria Nova 6041A","","45.43980756","12.33898607"
"0319005619A","Store location - 0319005619A","","CS","Castello","Calle Al Ponte Sant'Antonio","5619A","CS5619A","Calle Al Ponte Sant'Antonio 5619A","","45.43759887","12.33804415"
"0319006231_","Store location - 0319006231_","","CS","Castello","Calle Longa Santa Maria Formosa","6231","CS6231","Calle Longa Santa Maria Formosa 6231","","45.4377113","12.34183835"
"1600002799_","Store location - 1600002799_","1600002800_","SM","San Marco","Campo Santo Stefano","2799","SM2799","Campo Santo Stefano 2799","San Marco Calle Del Spezier 2768;San Marco Campo Santo Stefano 2800","45.43315475","12.33082453"
"0278001900_","Store location - 0278001900_","","CN","Cannaregio","Campiello De L'Anconeta","1900","CN1900","Campiello De L'Anconeta 1900","","45.44403682","12.32920311"
"0319001497_","Store location - 0319001497_","","CS","Castello","Via Garibaldi","1497","CS1497","Via Garibaldi 1497","","45.4322197","12.35334873"
"0319003447_","Store location - 0319003447_","","CS","Castello","Salizada Dei Greci","3447","CS3447","Salizada Dei Greci 3447","","45.43562064","12.34523653"
"0319004702_","Store location - 0319004702_","","CS","Castello","Campo San Provolo","4702","CS4702","Campo San Provolo 4702","","45.43510732","12.34264157"
"0319004900_","Store location - 0319004900_","","CS","Castello","Ruga Giuffa","4900","CS4900","Ruga Giuffa 4900","","45.43635399","12.34230106"
"0319005645A","Store location - 0319005645A","","CS","Castello","Calle Del Pistor","5645A","CS5645A","Calle Del Pistor 5645A","","45.43798229","12.33839882"
"0707003224_","Store location - 0707003224_","","DD","Dorsoduro","Calle Del Capeler","3224","DD3224","Calle Del Capeler 3224","","45.43413213","12.32562577"
"1561000180_","Store location - 1561000180_","","SC","Santa Croce","Fondamenta Dei Tolentini","180","SC180","Fondamenta Dei Tolentini 180","","45.43733361","12.32123031"
"1561000191A","Store location - 1561000191A","","SC","Santa Croce","Campazzo Dei Tolentini","191A","SC191A","Campazzo Dei Tolentini 191A","","45.43783898","12.32186687"
"1561000220_","Store location - 1561000220_","","SC","Santa Croce","Fondamenta Dei Tolentini","220","SC220","Fondamenta Dei Tolentini 220","","45.43856808","12.32146734"
"1561000664C","Store location - 1561000664C","","SC","Santa Croce","Calle Sechera","664C","SC664C","Calle Sechera 664C","","45.43922207","12.32325316"
"1561000730_","Store location - 1561000730_","","SC","Santa Croce","Fondamenta San Simon Picolo","730","SC730","Fondamenta San Simon Picolo 730","","45.44092129","12.32319143"
"1600001289_","Store location - 1600001289_","","SM","San Marco","Calle Seconda De L'Ascension","1289","SM1289","Calle Seconda De L'Ascension 1289","","45.43331751","12.33663392"
"0319002907A","Store location - 0319002907A","","CS","Castello","Salizada Santa Giustina","2907A","CS2907A","Salizada Santa Giustina 2907A","","45.43743499","12.34642762"
"0319003991_","Store location - 0319003991_","0319003990_","CS","Castello","Campiello Pescaria","3991","CS3991","Campiello Pescaria 3991","Castello Campiello Pescaria 3990","45.43413587","12.34787474"
"0319004118_","Store location - 0319004118_","","CS","Castello","Riva Dei Schiavoni","4118","CS4118","Riva Dei Schiavoni 4118","","45.43375118","12.34749537"
"0319004579_","Store location - 0319004579_","","CS","Castello","Calle De Le Rasse","4579","CS4579","Calle De Le Rasse 4579","","45.43425652","12.34185029"
"0278002533_","Store location - 0278002533_","","CN","Cannaregio","Corte Dei Fachini","2533","CN2533","Corte Dei Fachini 2533","","45.44478357","12.33276219"
"0319003143_","Store location - 0319003143_","","CS","Castello","Salizada De Le Gatte","3143","CS3143","Salizada De Le Gatte 3143","","45.43692604","12.34745092"
"0319003220_","Store location - 0319003220_","","CS","Castello","Campo De Le Gatte","3220","CS3220","Campo De Le Gatte 3220","","45.43642049","12.34750741"
"0319003962A","Store location - 0319003962A","","CS","Castello","Calle Crosera","3962A","CS3962A","Calle Crosera 3962A","","45.43434081","12.3476411"
"0319004516_","Store location - 0319004516_","","CS","Castello","Salizada San Provolo","4516","CS4516","Salizada San Provolo 4516","","45.4350141","12.34191154"
"0319006332_","Store location - 0319006332_","","CS","Castello","Campo San Zanipolo","6332","CS6332","Campo San Zanipolo 6332","","45.43887083","12.34200718"
"1561000280_","Store location - 1561000280_","1561000280A;1561000280B","SC","Santa Croce","Fondamenta Verso Treponti","280","SC280","Fondamenta Verso Treponti 280","Santa Croce Rio Tera' Dei Pensieri 280 A;Santa Croce Rio Tera' Dei Pensieri 280 B","45.43657787","12.32000507"
"1600002667_","Store location - 1600002667_","","SM","San Marco","Campo San Maurizio","2667","SM2667","Campo San Maurizio 2667","","45.43271348","12.3318496"
"1600003448A","Store location - 1600003448A","1600003448_;1600003449_","SM","San Marco","Crosera De Le Boteghe","3448A","SM3448A","Crosera De Le Boteghe 3448A","San Marco Crosera De Le Boteghe 3448;San Marco Crosera De Le Boteghe 3449","45.43425156","12.32989227"
"1600004577_","Store location - 1600004577_","","SM","San Marco","Calle San Luca","4577","SM4577","Calle San Luca 4577","","45.43607393","12.33558679"
"1621000715_","Store location - 1621000715_","","SP","San Polo","Calle Del Paradiso","715","SP715","Calle Del Paradiso 715","","45.43767143","12.33410915"
"1621001137_","Store location - 1621001137_","","SP","San Polo","Campo Sant'Aponal","1137","SP1137","Campo Sant'Aponal 1137","","45.43770994","12.33246148"
"1621002592_","Store location - 1621002592_","","SP","San Polo","Sotoportego Zen","2592","SP2592","Sotoportego Zen 2592","","45.43722364","12.32733774"
"0319006125_","Store location - 0319006125_","","CS","Castello","Campo Santa Maria Formosa","6125","CS6125","Campo Santa Maria Formosa 6125","","45.43759765","12.34102927"
"0278001858_","Store location - 0278001858_","","CN","Cannaregio","Calle De L'Aseo","1858","CN1858","Calle De L'Aseo 1858","","45.44461277","12.32955563"
"0319001476_","Store location - 0319001476_","","CS","Castello","Via Garibaldi","1476","CS1476","Via Garibaldi 1476","","45.4321861","12.35358186"
"0319001796_","Store location - 0319001796_","","CS","Castello","Via Garibaldi","1796","CS1796","Via Garibaldi 1796","","45.43243277","12.35378365"
"0319003146_","Store location - 0319003146_","","CS","Castello","Salizada San Francesco","3146","CS3146","Salizada San Francesco 3146","","45.43697511","12.34735147"
"0319003193_","Store location - 0319003193_","","CS","Castello","Salizada De Le Gatte","3193","CS3193","Salizada De Le Gatte 3193","","45.43664068","12.34758365"
"0319003247_","Store location - 0319003247_","","CS","Castello","Calle Dei Furlani","3247","CS3247","Calle Dei Furlani 3247","","45.43617253","12.34634296"
"0319003247A","Store location - 0319003247A","","CS","Castello","Calle Dei Furlani","3247A","CS3247A","Calle Dei Furlani 3247A","","45.43617223","12.34632226"
"0319003276_","Store location - 0319003276_","","CS","Castello","Calle Dei Furlani","3276","CS3276","Calle Dei Furlani 3276","","45.43612967","12.34656279"
"0319004507_","Store location - 0319004507_","","CS","Castello","Calle Rimpetto La Sacrestia","4507","CS4507","Calle Rimpetto La Sacrestia 4507","","45.43520484","12.34171023"
"0319004933_","Store location - 0319004933_","","CS","Castello","Salizada Zorzi","4933","CS4933","Salizada Zorzi 4933","","45.43610131","12.34291909"
"0319005268_","Store location - 0319005268_","","CS","Castello","Calle De Le Bande","5268","CS5268","Calle De Le Bande 5268","","45.4367483","12.34035093"
"0319005300_","Store location - 0319005300_","","CS","Castello","Calle De Casseleria","5300","CS5300","Calle De Casseleria 5300","","45.43624019","12.33996907"
"0319005362_","Store location - 0319005362_","","CS","Castello","Calle Al Ponte De La Guerra","5362","CS5362","Calle Al Ponte De La Guerra 5362","","45.43632846","12.33938516"
"0319005641_","Store location - 0319005641_","","CS","Castello","Calle Del Pistor","5641","CS5641","Calle Del Pistor 5641","","45.43785936","12.33835284"
"0319005752_","Store location - 0319005752_","","CS","Castello","Calle Del Paradiso","5752","CS5752","Calle Del Paradiso 5752","","45.43739058","12.33977223"
"0319005754_","Store location - 0319005754_","0319001830_","CS","Castello","Calle Del Paradiso","5754","CS5754","Calle Del Paradiso 5754","Castello Fondamentina 1830","45.43735516","12.33971628"
"0319006290_","Store location - 0319006290_","","CS","Castello","Corte Del Verier","6290","CS6290","Corte Del Verier 6290","","45.43875683","12.34216463"
"0319006384_","Store location - 0319006384_","","CS","Castello","Fondamenta San Giovanni Laterano","6384","CS6384","Fondamenta San Giovanni Laterano 6384","","45.43826517","12.34272865"
"0319006442_","Store location - 0319006442_","","CS","Castello","Barbaria De Le Tole","6442","CS6442","Barbaria De Le Tole 6442","","45.4385291","12.34406376"
"1561001006_","Store location - 1561001006_","","SC","Santa Croce","Campo Dei Tedeschi","1006","SC1006","Campo Dei Tedeschi 1006","","45.4397465","12.32572537"
"1561001101_","Store location - 1561001101_","","SC","Santa Croce","Calle Larga Dei Bari","1101","SC1101","Calle Larga Dei Bari 1101","","45.4402224","12.32521427"
"1600000783_","Store location - 1600000783_","","SM","San Marco","Marzaria San Zulian","783","SM783","Marzaria San Zulian 783","","45.43552779","12.33829176"
"1600002958_","Store location - 1600002958_","1600002967_","SM","San Marco","Campo Santo Stefano","2958","SM2958","Campo Santo Stefano 2958","San Marco Crosera De Le Boteghe 2967","45.43357469","12.33042661"
"1600003963A","Store location - 1600003963A","","SM","San Marco","Salizada Del Teatro","3963A","SM3963A","Salizada Del Teatro 3963A","","45.43534704","12.33265431"
"1600005239_","Store location - 1600005239_","","SM","San Marco","Calle Dei Stagneri","5239","SM5239","Calle Dei Stagneri 5239","","45.43712198","12.33747485"
"1621000838_","Store location - 1621000838_","","SP","San Polo","Calle De Le Spade","838","SP838","Calle De Le Spade 838","","45.43904182","12.33372817"
"1621001887_","Store location - 1621001887_","","SP","San Polo","Calle Dei Boteri","1887","SP1887","Calle Dei Boteri 1887","","45.43906466","12.3322286"
"1621002868_","Store location - 1621002868_","","SP","San Polo","Campo San Toma'","2868","SP2868","Campo San Toma' 2868","","45.43594481","12.32736952"
"1621002914_","Store location - 1621002914_","","SP","San Polo","Calle Del Cristo","2914","SP2914","Calle Del Cristo 2914","","45.43607618","12.32682826"
"0278000112_","Store location - 0278000112_","","CN","Cannaregio","Calle Priuli Ai Cavaleti","112","CN112","Calle Priuli Ai Cavaleti 112","","45.44164286","12.32236927"
"0278001175_","Store location - 0278001175_","","CN","Cannaregio","Calle Del Forno","1175","CN1175","Calle Del Forno 1175","","45.44500622","12.32552992"
"0278001252_","Store location - 0278001252_","","CN","Cannaregio","Calle Del Spezier","1252","CN1252","Calle Del Spezier 1252","","45.44407302","12.32528269"
"0278002519_","Store location - 0278002519_","","CN","Cannaregio","Fondamenta De La Misericordia","2519","CN2519","Fondamenta De La Misericordia 2519","","45.44428048","12.332623"
"0278005045C","Store location - 0278005045C","0278005045B;0278005045A","CN","Cannaregio","Fondamente Nove","5045C","CN5045C","Fondamente Nove 5045C","Cannaregio Fondamente Nove 5045 B;Cannaregio Fondamente Nove 5045 A","45.44264378","12.3412278"
"0319000143_","Store location - 0319000143_","","CS","Castello","Campo De Ruga","143","CS143","Campo De Ruga 143","","45.43380555","12.35709081"
"0319000876_","Store location - 0319000876_","","CS","Castello","Paludo Sant'Antonio","876","CS876","Paludo Sant'Antonio 876","","45.4299428","12.3579844"
"0319000900_","Store location - 0319000900_","","CS","Castello","Rio Tera' S. Isepo","900","CS900","Rio Tera' S. Isepo 900","","45.42985298","12.3570939"
"0319001138_","Store location - 0319001138_","","CS","Castello","Via Garibaldi","1138","CS1138","Via Garibaldi 1138","","45.43241556","12.35545277"
"0319001582_","Store location - 0319001582_","","CS","Castello","Via Garibaldi","1582","CS1582","Via Garibaldi 1582","","45.4320981","12.35243382"
"0319001645_","Store location - 0319001645_","","CS","Castello","Via Garibaldi","1645","CS1645","Via Garibaldi 1645","","45.43208527","12.35078666"
"0319002155_","Store location - 0319002155_","","CS","Castello","Calle San Biasio","2155","CS2155","Calle San Biasio 2155","","45.43294273","12.35070014"
"0319002184_","Store location - 0319002184_","0319002185_;0319002186_","CS","Castello","Riva De La Ca' Di Dio","2184","CS2184","Riva De La Ca' Di Dio 2184","Castello Riva De La Ca' Di Dio 2185;Castello Riva De La Ca' Di Dio 2186","45.4333328","12.34866416"
"0319002615_","Store location - 0319002615_","","CS","Castello","Calle De Le Muneghete","2615","CS2615","Calle De Le Muneghete 2615","","45.43593597","12.34856043"
"0319002877_","Store location - 0319002877_","","CS","Castello","Corte Nova","2877","CS2877","Corte Nova 2877","","45.43695635","12.34634078"
"0319003154_","Store location - 0319003154_","","CS","Castello","Salizada San Francesco","3154","CS3154","Salizada San Francesco 3154","","45.43720563","12.34732574"
"0319003210_","Store location - 0319003210_","0319003209_","CS","Castello","Campo De Le Gatte","3210","CS3210","Campo De Le Gatte 3210","Castello Calle Dei Scudi 3209","45.43633435","12.34758266"
"0319003219_","Store location - 0319003219_","","CS","Castello","Rielo Dei Furlani","3219","CS3219","Rielo Dei Furlani 3219","","45.43607416","12.34734172"
"0319003482_","Store location - 0319003482_","","CS","Castello","Salizada Sant'Antonin","3482","CS3482","Salizada Sant'Antonin 3482","","45.43532052","12.34672355"
"0319003770_","Store location - 0319003770_","","CS","Castello","Calle Del Forno","3770","CS3770","Calle Del Forno 3770","","45.43403621","12.34723615"
"0319003839_","Store location - 0319003839_","0319005582_","CS","Castello","Calle Dei Corazzieri","3839","CS3839","Calle Dei Corazzieri 3839","Castello Calle Seconda De La Fava 5582","45.4350182","12.34759043"
"0319003969_","Store location - 0319003969_","0319003968;0319003970_","CS","Castello","Campiello Pescaria","3969","CS3969","Campiello Pescaria 3969","Castello Campiello Pescaria 3968;Castello Campiello Pescaria 3970","45.43412081","12.34760803"
"0319003983_","Store location - 0319003983_","","CS","Castello","Campiello Pescaria","3983","CS3983","Campiello Pescaria 3983","","45.43425288","12.34773805"
"0319004237A","Store location - 0319004237A","","CS","Castello","Calle Dei Albanesi","4237A","CS4237A","Calle Dei Albanesi 4237A","","45.43487474","12.3415172"
"0319004359_","Store location - 0319004359_","","CS","Castello","Campo Santi Filippo E Giacomo","4359","CS4359","Campo Santi Filippo E Giacomo 4359","","45.43518868","12.34163671"
"0319004422A","Store location - 0319004422A","0319004422B","CS","Castello","Fondamenta Del Rimedio","4422A","CS4422A","Fondamenta Del Rimedio 4422A","Castello Fondamenta Del Rimedio 4422 B","45.43616444","12.34085292"
"0319004509_","Store location - 0319004509_","","CS","Castello","Campo Santi Filippo E Giacomo","4509","CS4509","Campo Santi Filippo E Giacomo 4509","","45.43514941","12.34170102"
"0319004612_","Store location - 0319004612_","0319004610_;0319004611_","CS","Castello","Calle De Le Rasse","4612","CS4612","Calle De Le Rasse 4612","Castello Calle De Le Rasse 4610;Castello Calle De Le Rasse 4611","45.43471801","12.34184169"
"0319004926_","Store location - 0319004926_","","CS","Castello","Salizada Zorzi","4926","CS4926","Salizada Zorzi 4926","","45.43605505","12.34261747"
"0319005225_","Store location - 0319005225_","","CS","Castello","Calle Longa Santa Maria Formosa","5225","CS5225","Calle Longa Santa Maria Formosa 5225","","45.43766083","12.34177709"
"0319005358_","Store location - 0319005358_","","CS","Castello","Calle Al Ponte De La Guerra","5358","CS5358","Calle Al Ponte De La Guerra 5358","","45.43638434","12.33947541"
"0319005409_","Store location - 0319005409_","0319005408_","CS","Castello","Salizada San Lio","5409","CS5409","Salizada San Lio 5409","Castello Salizada San Lio 5408","45.43684283","12.33978818"
"0319005410_","Store location - 0319005410_","","CS","Castello","Salizada San Lio","5410","CS5410","Salizada San Lio 5410","","45.43689046","12.33973929"
"0319005467_","Store location - 0319005467_","","CS","Castello","Salizada San Lio","5467","CS5467","Salizada San Lio 5467","","45.43707581","12.33948803"
"0319005547_","Store location - 0319005547_","","CS","Castello","Salizada San Lio","5547","CS5547","Salizada San Lio 5547","","45.4373665","12.33871034"
"0319005738_","Store location - 0319005738_","","CS","Castello","Calle Del Paradiso","5738","CS5738","Calle Del Paradiso 5738","","45.43735332","12.33966597"
"0319005746_","Store location - 0319005746_","","CS","Castello","Calle Del Paradiso","5746","CS5746","Calle Del Paradiso 5746","","45.437497","12.33989986"
"0319005747_","Store location - 0319005747_","","CS","Castello","Calle Del Paradiso","5747","CS5747","Calle Del Paradiso 5747","","45.43747701","12.33987608"
"0319005801_","Store location - 0319005801_","0319005801A","CS","Castello","Calle Del Mondo Novo","5801","CS5801","Calle Del Mondo Novo 5801","Castello Calle Del Mondo Novo 5801 A","45.4370678","12.3401929"
"0319005841_","Store location - 0319005841_","","CS","Castello","Fondamenta Dei Preti","5841","CS5841","Fondamenta Dei Preti 5841","","45.43749904","12.34019392"
"0319005911_","Store location - 0319005911_","0319005910_;0319005912_;0319005913_;0319005914_;0319005915_;0319005917_;0319005918_;0319005919_;0319006416_","CS","Castello","Campo Santa Marina","5911","CS5911","Campo Santa Marina 5911","Castello Campo Santa Marina 5910 ;Castello Campo Santa Marina 5912 ;Castello Calle Del Frutarol 5913 ;Castello Calle Del Frutarol 5914 ;Castello Calle Del Frutarol 5915 ;Castello Calle Del Frutarol 5917 ;Castello Calle Del Frutarol 5918 ;Castello Calle Del Frutarol 5919 ;Castello Barbaria De Le Tole 6416","45.43833999","12.33905366"
"0319006331_","Store location - 0319006331_","","CS","Castello","Campo San Zanipolo","6331","CS6331","Campo San Zanipolo 6331","","45.43888968","12.34191599"
"0319006342_","Store location - 0319006342_","","CS","Castello","Salizada San Zanipolo","6342","CS6342","Salizada San Zanipolo 6342","","45.43877682","12.34243413"
"0319006482_","Store location - 0319006482_","0319006481A;0319006483_;0319006491_","CS","Castello","Calle Del Cafetier","6482","CS6482","Calle Del Cafetier 6482","Castello Calle Del Cafetier 6481 A;Castello Calle Del Cafetier 6483;Castello Campo De Santa Giustina Detto De Barbaria 6491","45.43845469","12.34500694"
"0319006639_","Store location - 0319006639_","","CS","Castello","Campo De Santa Giustina Detto De Barbaria","6639","CS6639","Campo De Santa Giustina Detto De Barbaria 6639","","45.43850988","12.34521279"
"1561000081_","Store location - 1561000081_","1561000080A;1561000081A","SC","Santa Croce","Salizada San Pantalon","81","SC81","Salizada San Pantalon 81","Santa Croce Salizada San Pantalon 80 A;Santa Croce Salizada San Pantalon 81 A","45.43623209","12.32396983"
"1561000295_","Store location - 1561000295_","","SC","Santa Croce","Fondamenta De La Cazziola","295","SC295","Fondamenta De La Cazziola 295","","45.43577135","12.32025381"
"1561000463_","Store location - 1561000463_","1561000462_","SC","Santa Croce","Rio Tera' Sant'Andrea","463","SC463","Rio Tera' Sant'Andrea 463","Santa Croce Rio Tera' Sant'Andrea 462","45.43719884","12.31894511"
"1561000466A","Store location - 1561000466A","","SC","Santa Croce","Rio Tera' Sant'Andrea","466A","SC466A","Rio Tera' Sant'Andrea 466A","","45.43723768","12.31872139"
"1561000555A","Store location - 1561000555A","","SC","Santa Croce","Fondamenta San Simon Picolo","555A","SC555A","Fondamenta San Simon Picolo 555A","","45.43934051","12.32118332"
"1561001539_","Store location - 1561001539_","","SC","Santa Croce","Calle Del Tintor","1539","SC1539","Calle Del Tintor 1539","","45.43952094","12.32775699"
"1561002032_","Store location - 1561002032_","","SC","Santa Croce","Campiello Del Spezier","2032","SC2032","Campiello Del Spezier 2032","","45.44030978","12.32995654"
"1600000409_","Store location - 1600000409_","1600000404A;1600000405_;1600000406_;1600000407_;1600000408_","SM","San Marco","Calle Larga San Marco","409","SM409","Calle Larga San Marco 409","San Marco Calle Al Ponte De L'Anzolo 404 A;San Marco Calle Al Ponte De L'Anzolo 405;San Marco Calle Al Ponte De L'Anzolo 406;San Marco Calle Al Ponte De L'Anzolo 407;San Marco Calle Larga San Marco 408","45.43532855","12.33994687"
"1600000878_","Store location - 1600000878_","1600000879_","SM","San Marco","Calle Dei Fabbri","878","SM878","Calle Dei Fabbri 878","San Marco Calle Dei Fabbri 879","45.43458437","12.33770732"
"1600002801_","Store location - 1600002801_","","SM","San Marco","Campo Santo Stefano","2801","SM2801","Campo Santo Stefano 2801","","45.43305674","12.33068567"
"1600003709_","Store location - 1600003709_","","SM","San Marco","Calle De La Mandola","3709","SM3709","Calle De La Mandola 3709","","45.43486736","12.33309953"
"1600004423A","Store location - 1600004423A","","SM","San Marco","Calle Goldoni","4423A","SM4423A","Calle Goldoni 4423A","","45.43517997","12.33586361"
"1600004642_","Store location - 1600004642_","","SM","San Marco","Riva Del Carbon","4642","SM4642","Riva Del Carbon 4642","","45.4369279","12.33487909"
"1600005260_","Store location - 1600005260_","","SM","San Marco","Calle Galiazzo","5260","SM5260","Calle Galiazzo 5260","","45.43734098","12.33699232"
"1600005482_","Store location - 1600005482_","","SM","San Marco","Campo San Bortolomio","5482","SM5482","Campo San Bortolomio 5482","","45.43799451","12.33727686"
"1600005492_","Store location - 1600005492_","","SM","San Marco","Calle De L'Orso","5492","SM5492","Calle De L'Orso 5492","","45.4379061","12.33762468"
"1600005501_","Store location - 1600005501_","","SM","San Marco","Ramo De L'Orso","5501","SM5501","Ramo De L'Orso 5501","","45.43813882","12.33760888"
"1600005513_","Store location - 1600005513_","","SM","San Marco","Corte Del Tintor","5513","SM5513","Corte Del Tintor 5513","","45.43811218","12.33731729"
"1621000325_","Store location - 1621000325_","","SP","San Polo","Calle De Le Becarie O Panataria","325","SP325","Calle De Le Becarie O Panataria 325","","45.43967275","12.3340409"
"1621000746_","Store location - 1621000746_","1621000745_","SP","San Polo","Riva Del Vin","746","SP746","Riva Del Vin 746","San Polo Riva Del Vin 745","45.43736972","12.33425974"
"1621000767_","Store location - 1621000767_","","SP","San Polo","Calle Del Paradiso","767","SP767","Calle Del Paradiso 767","","45.43793935","12.33379915"
"1621001043_","Store location - 1621001043_","","SP","San Polo","Rugheta Ravano","1043","SP1043","Rugheta Ravano 1043","San Polo Rugheta Ravano 1044","45.43795398","12.33301683"
"1621001911_","Store location - 1621001911_","","SP","San Polo","Rio Tera' De Le Carampane","1911","SP1911","Rio Tera' De Le Carampane 1911","","45.43864539","12.33110556"
"1621002245A","Store location - 1621002245A","","SP","San Polo","Rio Tera' Secondo","2245A","SP2245A","Rio Tera' Secondo 2245A","","45.43900167","12.32891726"
"1621002304D","Store location - 1621002304D","","SP","San Polo","Ramo Sant'Agostin","2304D","SP2304D","Ramo Sant'Agostin 2304D","","45.43855193","12.32841986"
"1621002532_","Store location - 1621002532_","","SP","San Polo","Campo San Stin","2532","SP2532","Campo San Stin 2532","","45.43792605","12.3271258"
"1621002559_","Store location - 1621002559_","1621002558_","SP","San Polo","Fondamenta Dei Frari","2559","SP2559","Fondamenta Dei Frari 2559","San Polo Fondamenta Dei Frari 2558","45.43747571","12.32715883"
"1621002741A","Store location - 1621002741A","1621002742_;1621002742A","SP","San Polo","Ponte San","2741A","SP2741A","Ponte San 2741A","San Polo Calle Dei Saoneri 2742;2742 A","45.4368253","12.3290036"
"1621002925_","Store location - 1621002925_","","SP","San Polo","Fondamenta Del Forner","2925","SP2925","Fondamenta Del Forner 2925","","45.43587477","12.32647272"
"0319001763_","Store location - 0319001763_","","CS","Castello","Via Garibaldi","1763","CS1763","Via Garibaldi 1763","","45.43224745","12.35218741"
"0319003140_","Store location - 0319003140_","","CS","Castello","Salizada De Le Gatte","3140","CS3140","Salizada De Le Gatte 3140","","45.43687542","12.34747454"
"0319004229_","Store location - 0319004229_","","CS","Castello","Calle Dei Albanesi","4229","CS4229","Calle Dei Albanesi 4229","","45.43455268","12.34144946"
"0319004313_","Store location - 0319004313_","","CS","Castello","Ruga Giuffa Santa Apollonia","4313","CS4313","Ruga Giuffa Santa Apollonia 4313","","45.43499916","12.34073857"
"0319004537_","Store location - 0319004537_","","CS","Castello","Calle De Le Rasse","4537","CS4537","Calle De Le Rasse 4537","","45.4345418","12.34178391"
"0319004716B","Store location - 0319004716B","","CS","Castello","Calle San Provolo","4716B","CS4716B","Calle San Provolo 4716B","","45.43535485","12.34282895"
"0319005540_","Store location - 0319005540_","","CS","Castello","Salizada San Lio","5540","CS5540","Salizada San Lio 5540","","45.43729824","12.33899205"
"0319005608_","Store location - 0319005608_","","CS","Castello","Calle Al Ponte Sant'Antonio","5608","CS5608","Calle Al Ponte Sant'Antonio 5608","","45.43756449","12.33806522"
"0707001182_","Store location - 0707001182_","","DD","Dorsoduro","Calle Seconda De La Toleta","1182","DD1182","Calle Seconda De La Toleta 1182","","45.43182741","12.32606971"
"1600000819_","Store location - 1600000819_","1600000820_","SM","San Marco","Calle Fiubera","819","SM819","Calle Fiubera 819","San Marco Calle Fiubera 820","45.43503884","12.33762605"
"1600001165C","Store location - 1600001165C","","SM","San Marco","Fondamenta Orseolo","1165C","SM1165C","Fondamenta Orseolo 1165C","","45.43445213","12.3364384"
"1600001588_","Store location - 1600001588_","","SM","San Marco","Calle De Le Piere Vive O Bognolo","1588","SM1588","Calle De Le Piere Vive O Bognolo 1588","","45.4339377","12.33628171"
"1600004365_","Store location - 1600004365_","","SM","San Marco","Calle Dei Fuseri","4365","SM4365","Calle Dei Fuseri 4365","","45.43480491","12.33531608"
"1600005245_","Store location - 1600005245_","","SM","San Marco","Calle Dei Stagneri","5245","SM5245","Calle Dei Stagneri 5245","","45.4372153","12.33715464"
"1621001971_","Store location - 1621001971_","","SP","San Polo","Calle De La Madoneta","1971","SP1971","Calle De La Madoneta 1971","","45.43718863","12.33067278"
"0278000054_","Store location - 0278000054_","","CN","Cannaregio","Fondamenta Santa Lucia","54","CN54","Fondamenta Santa Lucia 54","","45.44134482","12.32180657"
"0278005993_","Store location - 0278005993_","","CN","Cannaregio","Campiello Bruno Crovato Gia' San Canzian","5993","CN5993","Campiello Bruno Crovato Gia' San Canzian 5993","","45.43977781","12.33861912"
"0319000454_","Store location - 0319000454_","","CS","Castello","Fondamenta San Gioachin","454","CS454","Fondamenta San Gioachin 454","","45.43258024","12.35626817"
"0319001592_","Store location - 0319001592_","","CS","Castello","Via Garibaldi","1592","CS1592","Via Garibaldi 1592","","45.432083","12.35233943"
"0319001639_","Store location - 0319001639_","","CS","Castello","Via Garibaldi","1639","CS1639","Via Garibaldi 1639","","45.43199092","12.35153014"
"0319002139_","Store location - 0319002139_","","CS","Castello","Riva San Biasio","2139","CS2139","Riva San Biasio 2139","","45.43231987","12.35021768"
"0319002145_","Store location - 0319002145_","","CS","Castello","Riva San Biasio","2145","CS2145","Riva San Biasio 2145","","45.43221354","12.35056454"
"0319003309_","Store location - 0319003309_","","CS","Castello","Salizada Dei Greci","3309","CS3309","Salizada Dei Greci 3309","","45.43561057","12.34563753"
"0319003314_","Store location - 0319003314_","","CS","Castello","Salizada Dei Greci","3314","CS3314","Salizada Dei Greci 3314","","45.43563026","12.34537514"
"0319003315_","Store location - 0319003315_","","CS","Castello","Salizada Dei Greci","3315","CS3315","Salizada Dei Greci 3315","","45.43564871","12.34530744"
"0319003317_","Store location - 0319003317_","","CS","Castello","Salizada Dei Greci","3317","CS3317","Salizada Dei Greci 3317","","45.43567306","12.34523223"
"0319003446_","Store location - 0319003446_","","CS","Castello","Salizada Dei Greci","3446","CS3446","Salizada Dei Greci 3446","","45.43563113","12.34520937"
"0319003537_","Store location - 0319003537_","","CS","Castello","Salizada Sant'Antonin","3537","CS3537","Salizada Sant'Antonin 3537","","45.43530723","12.34684104"
"0319004138_","Store location - 0319004138_","","CS","Castello","Riva Dei Schiavoni","4138","CS4138","Riva Dei Schiavoni 4138","","45.43388581","12.3465115"
"0319004140_","Store location - 0319004140_","","CS","Castello","Riva Dei Schiavoni","4140","CS4140","Riva Dei Schiavoni 4140","","45.43389641","12.3463905"
"0319004191_","Store location - 0319004191_","0319004192_","CS","Castello","Riva Dei Schiavoni","4191","CS4191","Riva Dei Schiavoni 4191","Castello Riva Dei Schiavoni 4192","45.43395461","12.34247758"
"0319004297_","Store location - 0319004297_","","CS","Castello","Ruga Giuffa Santa Apollonia","4297","CS4297","Ruga Giuffa Santa Apollonia 4297","","45.43502185","12.34097076"
"0319004308_","Store location - 0319004308_","","CS","Castello","Fondamenta Santa Apollonia","4308","CS4308","Fondamenta Santa Apollonia 4308","","45.43487371","12.34073677"
"0319004316_","Store location - 0319004316_","","CS","Castello","Ruga Giuffa Santa Apollonia","4316","CS4316","Ruga Giuffa Santa Apollonia 4316","","45.43501211","12.34080586"
"0319004319_","Store location - 0319004319_","","CS","Castello","Ruga Giuffa Santa Apollonia","4319","CS4319","Ruga Giuffa Santa Apollonia 4319","","45.43503157","12.34090515"
"0319004506_","Store location - 0319004506_","","CS","Castello","Calle Rimpetto La Sacrestia","4506","CS4506","Calle Rimpetto La Sacrestia 4506","","45.43523152","12.34171214"
"0319004508_","Store location - 0319004508_","","CS","Castello","Campo Santi Filippo E Giacomo","4508","CS4508","Campo Santi Filippo E Giacomo 4508","","45.43518933","12.34170685"
"0319004516_","Store location - 0319004516_","","CS","Castello","Salizada San Provolo","4516","CS4516","Salizada San Provolo 4516","","45.4350141","12.34191154"
"0319004520_","Store location - 0319004520_","0319004521_","CS","Castello","Campo Santi Filippo E Giacomo","4520","CS4520","Campo Santi Filippo E Giacomo 4520","Castello Campo Santi Filippo E Giacomo 4521","45.43499324","12.3415508"
"0319004531_","Store location - 0319004531_","","CS","Castello","Calle De Le Rasse","4531","CS4531","Calle De Le Rasse 4531","","45.43478138","12.34180956"
"0319004589_","Store location - 0319004589_","","CS","Castello","Calle De Le Rasse","4589","CS4589","Calle De Le Rasse 4589","","45.43450408","12.34182997"
"0319004618_","Store location - 0319004618_","","CS","Castello","Calle De Le Rasse","4618","CS4618","Calle De Le Rasse 4618","","45.43487812","12.34185778"
"0319004624_","Store location - 0319004624_","","CS","Castello","Salizada San Provolo","4624","CS4624","Salizada San Provolo 4624","","45.4349475","12.34208325"
"0319004697A","Store location - 0319004697A","0319004697_","CS","Castello","Calle S. Zaccaria","4697A","CS4697A","Calle S. Zaccaria 4697A","Castello Calle S. Zaccaria 4697","45.43492836","12.34281365"
"0319004702_","Store location - 0319004702_","","CS","Castello","Campo San Provolo","4702","CS4702","Campo San Provolo 4702","","45.43510732","12.34264157"
"0319004719_","Store location - 0319004719_","","CS","Castello","Calle San Provolo","4719","CS4719","Calle San Provolo 4719","","45.43546554","12.34292533"
"0319004745_","Store location - 0319004745_","03190047745A","CS","Castello","Ruga Giuffa","4745","CS4745","Ruga Giuffa 4745","Castello Calle De La Corona 4745 A","45.43604247","12.34253688"
"0319004964_","Store location - 0319004964_","","CS","Castello","Fondamenta De L'Osmarin","4964","CS4964","Fondamenta De L'Osmarin 4964","","45.43549381","12.34307656"
"0319005032_","Store location - 0319005032_","","CS","Castello","Fondamenta San Lorenzo","5032","CS5032","Fondamenta San Lorenzo 5032","","45.43624301","12.3442611"
"0319005174_","Store location - 0319005174_","","CS","Castello","Fondamenta Tetta","5174","CS5174","Fondamenta Tetta 5174","","45.4379612","12.34251213"
"0319005324_","Store location - 0319005324_","","CS","Castello","Calle De Casseleria","5324","CS5324","Calle De Casseleria 5324","","45.43618441","12.33981513"
"0319005350_","Store location - 0319005350_","","CS","Castello","Calle Al Ponte De La Guerra","5350","CS5350","Calle Al Ponte De La Guerra 5350","","45.43653531","12.33977649"
"0319005352_","Store location - 0319005352_","","CS","Castello","Calle Al Ponte De La Guerra","5352","CS5352","Calle Al Ponte De La Guerra 5352","","45.43648077","12.33966261"
"0319005369_","Store location - 0319005369_","","CS","Castello","Calle Al Ponte De La Guerra","5369","CS5369","Calle Al Ponte De La Guerra 5369","","45.43642507","12.33949712"
"0319005413_","Store location - 0319005413_","","CS","Castello","Salizada San Lio","5413","CS5413","Salizada San Lio 5413","","45.43697893","12.33963091"
"0319005415_","Store location - 0319005415_","0319005415A","CS","Castello","Salizada San Lio","5415","CS5415","Salizada San Lio 5415","Castello Calle Sant'Antonio 5415 A","45.43702718","12.33956"
"0319005543_","Store location - 0319005543_","","CS","Castello","Salizada San Lio","5543","CS5543","Salizada San Lio 5543","","45.43732477","12.33890235"
"0319005609_","Store location - 0319005609_","","CS","Castello","Calle Al Ponte Sant'Antonio","5609","CS5609","Calle Al Ponte Sant'Antonio 5609","","45.43758551","12.33797293"
"0319005662_","Store location - 0319005662_","","CS","Castello","Salizada San Lio","5662","CS5662","Salizada San Lio 5662","","45.43741931","12.33875183"
"0319005706_","Store location - 0319005706_","","CS","Castello","Salizada San Lio","5706","CS5706","Salizada San Lio 5706","","45.43727481","12.33923201"
"0319005904_","Store location - 0319005904_","0319005905_","CS","Castello","Campo Santa Marina","5904","CS5904","Campo Santa Marina 5904","Castello Campo Santa Marina 5905","45.4382956","12.33933294"
"0319005907_","Store location - 0319005907_","","CS","Castello","Campo Santa Marina","5907","CS5907","Campo Santa Marina 5907","","45.43831333","12.33922662"
"0319006106_","Store location - 0319006106_","","CS","Castello","Ponte Marcello O Pindemonte","6106","CS6106","Ponte Marcello O Pindemonte 6106","","45.43823779","12.33983151"
"0319006341_","Store location - 0319006341_","","CS","Castello","Salizada San Zanipolo","6341","CS6341","Salizada San Zanipolo 6341","","45.43878707","12.34238499"
"0319006359_","Store location - 0319006359_","","CS","Castello","Barbaria De Le Tole","6359","CS6359","Barbaria De Le Tole 6359","","45.43871733","12.34271011"
"0319006360A","Store location - 0319006360A","","CS","Castello","Barbaria De Le Tole","6360A","CS6360A","Barbaria De Le Tole 6360A","","45.43870768","12.34276955"
"0319006416_","Store location - 0319006416_","","CS","Castello","Barbaria De Le Tole","6416","CS6416","Barbaria De Le Tole 6416","","45.43864571","12.3431652"
"0319006417_","Store location - 0319006417_","","CS","Castello","Barbaria De Le Tole","6417","CS6417","Barbaria De Le Tole 6417","","45.43863696","12.34323214"
"0319006468_","Store location - 0319006468_","","CS","Castello","Barbaria De Le Tole","6468","CS6468","Barbaria De Le Tole 6468","","45.43850911","12.34425301"
"0319006657_","Store location - 0319006657_","","CS","Castello","Calle Del Cafetier","6657","CS6657","Calle Del Cafetier 6657","","45.43853229","12.34465758"
"0319006662_","Store location - 0319006662_","","CS","Castello","Calle Del Cafetier","6662","CS6662","Calle Del Cafetier 6662","","45.43857166","12.34432087"
"0707001752_","Store location - 0707001752_","","DD","Dorsoduro","Fondamenta De La Pescaria","1752","DD1752","Fondamenta De La Pescaria 1752","","45.4325137","12.31836043"
"0707003187_","Store location - 0707003187_","","DD","Dorsoduro","Calle De Le Boteghe","3187","DD3187","Calle De Le Boteghe 3187","","45.43368468","12.32519827"
"1561000201A","Store location - 1561000201A","","SC","Santa Croce","Fondamenta Dei Tolentini","201A","SC201A","Fondamenta Dei Tolentini 201A","","45.43800394","12.32167281"
"1561000742A","Store location - 1561000742A","","SC","Santa Croce","Calle Longa","742A","SC742A","Calle Longa 742A","","45.44041311","12.32347896"
"1561000746A","Store location - 1561000746A","","SC","Santa Croce","Calle Longa","746A","SC746A","Calle Longa 746A","","45.44067695","12.32315891"
"1561000975A","Store location - 1561000975A","","SC","Santa Croce","Calle Larga Dei Bari","975A","SC975A","Calle Larga Dei Bari 975A","","45.44038054","12.32501506"
"1561001165_","Store location - 1561001165_","","SC","Santa Croce","Lista Vechia Dei Bari","1165","SC1165","Lista Vechia Dei Bari 1165","","45.44085366","12.32519212"
"1561001840_","Store location - 1561001840_","","SC","Santa Croce","Calle Del Tintor","1840","SC1840","Calle Del Tintor 1840","","45.44068828","12.329184"
"1600000071_","Store location - 1600000071_","","SM","San Marco","Piazza San Marco","71","SM71","Piazza San Marco 71","","45.4334247","12.33748656"
"1600000289_","Store location - 1600000289_","","SM","San Marco","Piazzetta Dei Leoni","289","SM289","Piazzetta Dei Leoni 289","","45.43480655","12.33912135"
"1600000298_","Store location - 1600000298_","","SM","San Marco","Marzaria De L'Orologio","298","SM298","Marzaria De L'Orologio 298","","45.43486372","12.33885963"
"1600000345_","Store location - 1600000345_","","SM","San Marco","Calle De Canonica","345","SM345","Calle De Canonica 345","","45.43517992","12.34009155"
"1600000380_","Store location - 1600000380_","","SM","San Marco","Calle Larga San Marco","380","SM380","Calle Larga San Marco 380","","45.43534055","12.3402743"
"1600000416_","Store location - 1600000416_","1600000417_","SM","San Marco","Calle Larga San Marco","416","SM416","Calle Larga San Marco 416","San Marco Calle Larga San Marco 417","45.43527735","12.33969999"
"1600000514_","Store location - 1600000514_","","SM","San Marco","Campo De La Guerra","514","SM514","Campo De La Guerra 514","","45.43614236","12.33924288"
"1600000515_","Store location - 1600000515_","","SM","San Marco","Campo De La Guerra","515","SM515","Campo De La Guerra 515","","45.43618969","12.33911667"
"1600000619_","Store location - 1600000619_","","SM","San Marco","Calle Dei Segretari","619","SM619","Calle Dei Segretari 619","","45.435778","12.33886755"
"1600000654_","Store location - 1600000654_","","SM","San Marco","Calle Larga San Marco","654","SM654","Calle Larga San Marco 654","","45.43521855","12.33942032"
"1600000711_","Store location - 1600000711_","1600000582_","SM","San Marco","Marzaria San Zulian","711","SM711","Marzaria San Zulian 711","San Marco Corte Lucatella 582","45.43591805","12.33798627"
"1600000714_","Store location - 1600000714_","","SM","San Marco","Marzaria San Zulian","714","SM714","Marzaria San Zulian 714","","45.43599052","12.33785619"
"1600000818_","Store location - 1600000818_","","SM","San Marco","Calle Fiubera","818","SM818","Calle Fiubera 818","","45.43505128","12.33764592"
"1600000943_","Store location - 1600000943_","","SM","San Marco","Calle Fiubera","943","SM943","Calle Fiubera 943","","45.43506771","12.33761168"
"1600001007_","Store location - 1600001007_","","SM","San Marco","Calle Dei Fabbri","1007","SM1007","Calle Dei Fabbri 1007","","45.43528037","12.33677785"
"1600001236_","Store location - 1600001236_","","SM","San Marco","Bocca De Piazza","1236","SM1236","Bocca De Piazza 1236","","45.43374185","12.33665707"
"1600001342_","Store location - 1600001342_","1600001343_","SM","San Marco","Calle Vallaresso","1342","SM1342","Calle Vallaresso 1342","San Marco Calle Seconda De L'Ascension 1343","45.43309812","12.33680423"
"1600001588_","Store location - 1600001588_","","SM","San Marco","Calle De Le Piere Vive O Bognolo","1588","SM1588","Calle De Le Piere Vive O Bognolo 1588","","45.4339377","12.33628171"
"1600001801_","Store location - 1600001801_","","SM","San Marco","Ramo Dei Fuseri","1801","SM1801","Ramo Dei Fuseri 1801","","45.43443684","12.33552486"
"1600001803_","Store location - 1600001803_","","SM","San Marco","Ramo Dei Fuseri","1803","SM1803","Ramo Dei Fuseri 1803","","45.43447","12.33550338"
"1600002360A","Store location - 1600002360A","","SM","San Marco","Calle De Le Ostreghe","2360A","SM2360A","Calle De Le Ostreghe 2360A","","45.43267982","12.3338068"
"1600002627_","Store location - 1600002627_","","SM","San Marco","Calle Zaguri","2627","SM2627","Calle Zaguri 2627","","45.43275392","12.33196677"
"1600002630_","Store location - 1600002630_","","SM","San Marco","Calle Zaguri","2630","SM2630","Calle Zaguri 2630","","45.43271606","12.33219142"
"1600002668A","Store location - 1600002668A","","SM","San Marco","Campo San Maurizio","2668A","SM2668A","Campo San Maurizio 2668A","","45.43255645","12.33177715"
"1600002674_","Store location - 1600002674_","","SM","San Marco","Campo San Maurizio","2674","SM2674","Campo San Maurizio 2674","","45.43258505","12.33136628"
"1600003149_","Store location - 1600003149_","","SM","San Marco","Salizada San Samuele","3149","SM3149","Salizada San Samuele 3149","","45.43419499","12.32951267"
"1600003211A","Store location - 1600003211A","","SM","San Marco","Salizada Malipiero","3211A","SM3211A","Salizada Malipiero 3211A","","45.43377417","12.32889765"
"1600003602_","Store location - 1600003602_","","SM","San Marco","Calle De La Madona","3602","SM3602","Calle De La Madona 3602","","45.43448386","12.33270923"
"1600003715_","Store location - 1600003715_","","SM","San Marco","Calle De La Cortesia","3715","SM3715","Calle De La Cortesia 3715","","45.43498352","12.33339494"
"1600003721_","Store location - 1600003721_","","SM","San Marco","Calle De La Cortesia","3721","SM3721","Calle De La Cortesia 3721","","45.43497717","12.33328127"
"1600003805A","Store location - 1600003805A","","SM","San Marco","Calle De La Mandola","3805A","SM3805A","Calle De La Mandola 3805A","","45.43459645","12.33243007"
"1600004269_","Store location - 1600004269_","","SM","San Marco","Calle Dei Fuseri","4269","SM4269","Calle Dei Fuseri 4269","","45.43562279","12.33527108"
"1600004372_","Store location - 1600004372_","","SM","San Marco","Calle Dei Fuseri","4372","SM4372","Calle Dei Fuseri 4372","","45.43501044","12.33531873"
"1600004488B","Store location - 1600004488B","","SM","San Marco","Calle Goldoni","4488B","SM4488B","Calle Goldoni 4488B","","45.4354047","12.33577117"
"1600004640_","Store location - 1600004640_","","SM","San Marco","Riva Del Carbon","4640","SM4640","Riva Del Carbon 4640","","45.43687703","12.334774"
"1600004936_","Store location - 1600004936_","","SM","San Marco","Sotoportego De Le Acque","4936","SM4936","Sotoportego De Le Acque 4936","","45.43635481","12.33776451"
"1600005006_","Store location - 1600005006_","","SM","San Marco","Calle De Le Acque","5006","SM5006","Calle De Le Acque 5006","","45.43644704","12.3377908"
"1600005536_","Store location - 1600005536_","","SM","San Marco","Salizada Del Fontego Dei Tedeschi","5536","SM5536","Salizada Del Fontego Dei Tedeschi 5536","","45.43799591","12.33694125"
"1600005540_","Store location - 1600005540_","","SM","San Marco","Salizada Del Fontego Dei Tedeschi","5540","SM5540","Salizada Del Fontego Dei Tedeschi 5540","","45.43808731","12.33698988"
"1621000033_","Store location - 1621000033_","","SP","San Polo","Ruga Dei Oresi","33","SP33","Ruga Dei Oresi 33","","45.43858651","12.33508638"
"1621000373_","Store location - 1621000373_","","SP","San Polo","Ruga Dei Speziali","373","SP373","Ruga Dei Speziali 373","","45.43930584","12.33383883"
"1621001035_","Store location - 1621001035_","","SP","San Polo","Rugheta Ravano","1035","SP1035","Rugheta Ravano 1035","","45.4379916","12.33310937"
"1621001075_","Store location - 1621001075_","","SP","San Polo","Calle De L'Ogio Detta Rugheta","1075","SP1075","Calle De L'Ogio Detta Rugheta 1075","","45.43785134","12.33270711"
"1621001130_","Store location - 1621001130_","","SP","San Polo","Calle Del Luganegher O Del Tragheto","1130","SP1130","Calle Del Luganegher O Del Tragheto 1130","","45.43755912","12.33271082"
"1621001247_","Store location - 1621001247_","1621001246A","SP","San Polo","Calle De Mezzo","1247","SP1247","Calle De Mezzo 1247","San Polo Calle De Mezzo 1246 A","45.43764588","12.33204651"
"1621001271_","Store location - 1621001271_","1621001272_","SP","San Polo","Campo Sant'Aponal","1271","SP1271","Campo Sant'Aponal 1271","San Polo Campo Sant'Aponal 1272","45.43794859","12.33230489"
"1621001723_","Store location - 1621001723_","","SP","San Polo","Calle Dei Cristi","1723","SP1723","Calle Dei Cristi 1723","","45.43948841","12.33232507"
"1621001736_","Store location - 1621001736_","","SP","San Polo","Calle Dei Boteri","1736","SP1736","Calle Dei Boteri 1736","","45.43922657","12.33243315"
"1621001970_","Store location - 1621001970_","","SP","San Polo","Calle De La Madoneta","1970","SP1970","Calle De La Madoneta 1970","","45.43719144","12.3307046"
"1621002207_","Store location - 1621002207_","","SP","San Polo","Calle Del Scaleter","2207","SP2207","Calle Del Scaleter 2207","","45.43869355","12.32936261"
"1621002740A","Store location - 1621002740A","","SP","San Polo","Ponte San","2740A","SP2740A","Ponte San 2740A","","45.4368639","12.3289871"
"1621003018_","Store location - 1621003018_","","SP","San Polo","Salizada San Rocco","3018","SP3018","Salizada San Rocco 3018","","45.43641838","12.32644161"
"1621003028_","Store location - 1621003028_","1621003027A","SP","San Polo","Salizada San Rocco","3028","SP3028","Salizada San Rocco 3028","San Polo Calle Stretta Lipoli 3027 A","45.43640271","12.32636022"
"1621003045_","Store location - 1621003045_","","SP","San Polo","Salizada San Rocco","3045","SP3045","Salizada San Rocco 3045","","45.43651186","12.32598489"
"1621003130_","Store location - 1621003130_","","SP","San Polo","Campiello San Rocco","3130","SP3130","Campiello San Rocco 3130","","45.43628237","12.32559699"
"0319003371A","Store location - 0319003371A","","CS","Castello","Fondamenta San Giorgio Dei Schiavoni","3371A","CS3371A","Fondamenta San Giorgio Dei Schiavoni 3371A","","45.4360875","12.34570889"
"0319004976A","Store location - 0319004976A","","CS","Castello","Fondamenta De L'Osmarin","4976A","CS4976A","Fondamenta De L'Osmarin 4976A","","45.43564624","12.34403861"
"0319006135_","Store location - 0319006135_","","CS","Castello","Calle Longa Santa Maria Formosa","6135","CS6135","Calle Longa Santa Maria Formosa 6135","","45.43752497","12.34137872"
"1600001747_","Store location - 1600001747_","1600001746_","SM","San Marco","Fondamenta Goldoni","1747","SM1747","Fondamenta Goldoni 1747","San Marco Fondamenta Goldoni 1746","45.43477796","12.33605086"
"1600002253_","Store location - 1600002253_","","SM","San Marco","Calle Larga Ventidue Marzo","2253","SM2253","Calle Larga Ventidue Marzo 2253","","45.43283739","12.33446122"
"1600005461_","Store location - 1600005461_","","SM","San Marco","Calle De La Bissa","5461","SM5461","Calle De La Bissa 5461","","45.43770202","12.33760697"
"0319005065G","Store location - 0319005065G","","CS","Castello","Sotoportego San Giorgio Dei Schiavoni","5065G","CS5065G","Sotoportego San Giorgio Dei Schiavoni 5065G","","45.43682092","12.34579341"
"0319005640_","Store location - 0319005640_","","CS","Castello","Calle Del Pistor","5640","CS5640","Calle Del Pistor 5640","","45.4378164","12.33833398"
"1561000551_","Store location - 1561000551_","","SC","Santa Croce","Ponte De La Croce","551","SC551","Ponte De La Croce 551","","45.43922394","12.32103848"
"1600000042_","Store location - 1600000042_","","SM","San Marco","Piazza San Marco","42","SM42","Piazza San Marco 42","","45.43384809","12.33902873"
"1600000723_","Store location - 1600000723_","","SM","San Marco","Marzaria San Zulian","723","SM723","Marzaria San Zulian 723","","45.43602899","12.3377072"
"1600001292_","Store location - 1600001292_","","SM","San Marco","Calle Seconda De L'Ascension","1292","SM1292","Calle Seconda De L'Ascension 1292","","45.43332681","12.33685677"
"0278000946_","Store location - 0278000946_","","CN","Cannaregio","Fondamenta De Cannaregio","946","CN946","Fondamenta De Cannaregio 946","","45.44570141","12.32088605"
"0319000145_","Store location - 0319000145_","","CS","Castello","Campo De Ruga","145","CS145","Campo De Ruga 145","","45.43373658","12.35710484"
"0319001699_","Store location - 0319001699_","0319001698A_","CS","Castello","Via Garibaldi","1699","CS1699","Via Garibaldi 1699","Castello Via Garibaldi 1698 A","45.43215503","12.35159004"
"0319001782_","Store location - 0319001782_","","CS","Castello","Via Garibaldi","1782","CS1782","Via Garibaldi 1782","","45.43232623","12.3530581"
"0319005415_","Store location - 0319005415_","0319005415A","CS","Castello","Salizada San Lio","5415","CS5415","Salizada San Lio 5415","Castello Calle Sant'Antonio 5415 A","45.43702718","12.33956"
"0707000190_","Store location - 0707000190_","","DD","Dorsoduro","Calle Del Bastion","190","DD190","Calle Del Bastion 190","","45.43068465","12.3328147"
"0707002977_","Store location - 0707002977_","0707002976A;0707002978;0707002978A","DD","Dorsoduro","Calle Del Forno","2977","DD2977","Calle Del Forno 2977","Dorsoduro Calle Del Forno 2976 A;2978;2978 A","45.43461518","12.32363049"
"1561001517B","Store location - 1561001517B","","SC","Santa Croce","Campo San Giacomo Dall'Orio","1517B","SC1517B","Campo San Giacomo Dall'Orio 1517B","","45.4397413","12.3275809"
"1600003331_","Store location - 1600003331_","","SM","San Marco","Calle Ca' Vechia","3331","SM3331","Calle Ca' Vechia 3331","","45.43423637","12.32894658"
"1600004556_","Store location - 1600004556_","","SM","San Marco","Calle Goldoni","4556","SM4556","Calle Goldoni 4556","","45.43580717","12.33552091"
"1600005469_","Store location - 1600005469_","","SM","San Marco","Calle De La Bissa","5469","SM5469","Calle De La Bissa 5469","","45.43773547","12.33754572"
"1621002288_","Store location - 1621002288_","","SP","San Polo","Rio Tera' Secondo","2288","SP2288","Rio Tera' Secondo 2288","","45.43875298","12.32861586"
"1621002424_","Store location - 1621002424_","","SP","San Polo","Calle De L'Ogio O Del Cafetier","2424","SP2424","Calle De L'Ogio O Del Cafetier 2424","","45.43874622","12.32632191"
"0319001058C","Store location - 0319001058C","","CS","Castello","Calle De Le Ancore","1058C","CS1058C","Calle De Le Ancore 1058C","","45.43112939","12.35618582"
"0319001765_","Store location - 0319001765_","","CS","Castello","Via Garibaldi","1765","CS1765","Via Garibaldi 1765","","45.43225376","12.35228506"
"0319002924A","Store location - 0319002924A","","CS","Castello","Salizada Santa Giustina","2924A","CS2924A","Salizada Santa Giustina 2924A","","45.43736059","12.34681224"
"0319003449_","Store location - 0319003449_","0319003450_","CS","Castello","Salizada Dei Greci","3449","CS3449","Salizada Dei Greci 3449","Castello Salizada Dei Greci 3450","45.43560126","12.34530655"
"0319005379_","Store location - 0319005379_","","CS","Castello","Calle De Le Bande","5379","CS5379","Calle De Le Bande 5379","","45.43656613","12.33977863"
"0319006369_","Store location - 0319006369_","","CS","Castello","Calle De L'Ospedaleto","6369","CS6369","Calle De L'Ospedaleto 6369","","45.43866615","12.34289918"
"0319006491_","Store location - 0319006491_","","CS","Castello","Campo De Santa Giustina Detto De Barbaria","6491","CS6491","Campo De Santa Giustina Detto De Barbaria 6491","","45.43828718","12.34515065"
"1561000004B","Store location - 1561000004B","","SC","Santa Croce","Ramo Campiello Mosc","4B","SC4B","Ramo Campiello Mosc 4B","","45.43582997","12.32399602"
"1600005545_","Store location - 1600005545_","","SM","San Marco","Salizada Del Fontego Dei Tedeschi","5545","SM5545","Salizada Del Fontego Dei Tedeschi 5545","","45.4382729","12.33706217"
"1621003044_","Store location - 1621003044_","","SP","San Polo","Salizada San Rocco","3044","SP3044","Salizada San Rocco 3044","","45.43650202","12.32602431"
"0319003476_","Store location - 0319003476_","","CS","Castello","Salizada Sant'Antonin","3476","CS3476","Salizada Sant'Antonin 3476","","45.4354253","12.34635686"
"0319003741_","Store location - 0319003741_","","CS","Castello","Calle Del Dose","3741","CS3741","Calle Del Dose 3741","","45.43421531","12.34636716"
"1600001261_","Store location - 1600001261_","1600001262_","SM","San Marco","Bocca De Piazza","1261","SM1261","Bocca De Piazza 1261","San Marco Bocca De Piazza 1262","45.43372634","12.33672927"
"1600001264_","Store location - 1600001264_","","SM","San Marco","Calle Dei Preti","1264","SM1264","Calle Dei Preti 1264","","45.43355451","12.33672982"
"1600001865_","Store location - 1600001865_","1600001864_","SM","San Marco","Calle Minelli","1865","SM1865","Calle Minelli 1865","San Marco Calle Dal Frutarol 1864","45.43407031","12.33429978"
"1600004265_","Store location - 1600004265_","","SM","San Marco","Rio Tera' San Paternian","4265","SM4265","Rio Tera' San Paternian 4265","","45.43559962","12.33504181"
"1600004674_","Store location - 1600004674_","","SM","San Marco","Calle Dei Fabbri","4674","SM4674","Calle Dei Fabbri 4674","","45.43578851","12.33607476"
"0319003224_","Store location - 0319003224_","","CS","Castello","Campo De Le Gatte","3224","CS3224","Campo De Le Gatte 3224","","45.43627518","12.34720093"
"0319005386_","Store location - 0319005386_","","CS","Castello","Salizada San Lio","5386","CS5386","Salizada San Lio 5386","","45.43673502","12.33989689"
"0319005417_","Store location - 0319005417_","","CS","Castello","Ramo Sant'Antonio","5417","CS5417","Ramo Sant'Antonio 5417","","45.43692214","12.33950337"
"0319005784_","Store location - 0319005784_","","CS","Castello","Salizada San Lio","5784","CS5784","Salizada San Lio 5784","","45.43698086","12.33968295"
"1600000522_","Store location - 1600000522_","","SM","San Marco","Campo De La Guerra","522","SM522","Campo De La Guerra 522","","45.43606128","12.33894569"
"1600004374_","Store location - 1600004374_","","SM","San Marco","Calle Dei Fuseri","4374","SM4374","Calle Dei Fuseri 4374","","45.43508343","12.33532452"
"1621000418_","Store location - 1621000418_","","SP","San Polo","Ruga Vechia San Giovanni","418","SP418","Ruga Vechia San Giovanni 418","","45.43866803","12.3341699"
"1621000784_","Store location - 1621000784_","","SP","San Polo","Rugheta Ravano","784","SP784","Rugheta Ravano 784","","45.43831494","12.33379864"
"1621002915_","Store location - 1621002915_","","SP","San Polo","Calle Del Cristo","2915","SP2915","Calle Del Cristo 2915","","45.43610261","12.326854"
"0319003156_","Store location - 0319003156_","","CS","Castello","Salizada San Francesco","3156","CS3156","Salizada San Francesco 3156","","45.43730755","12.34731421"
"0319003301_","Store location - 0319003301_","","CS","Castello","Fondamenta Dei Furlani","3301","CS3301","Fondamenta Dei Furlani 3301","","45.43573872","12.34613442"
"0319005244_","Store location - 0319005244_","","CS","Castello","Campo Santa Maria Formosa","5244","CS5244","Campo Santa Maria Formosa 5244","","45.43735736","12.34129798"
"0319006096_","Store location - 0319006096_","","CS","Castello","Campo Santa Marina","6096","CS6096","Campo Santa Marina 6096","","45.43839459","12.33962207"
"1600003722_","Store location - 1600003722_","","SM","San Marco","Calle De La Mandola","3722","SM3722","Calle De La Mandola 3722","","45.43490853","12.33313591"
"1600005529_","Store location - 1600005529_","","SM","San Marco","Calle De L'Orso","5529","SM5529","Calle De L'Orso 5529","","45.4380548","12.33714919"
"0319000270_","Store location - 0319000270_","","CS","Castello","Calle Crosera","270","CS270","Calle Crosera 270","","45.4331476","12.35737898"
"0319000793_","Store location - 0319000793_","","CS","Castello","Rio Tera' S. Isepo","793","CS793","Rio Tera' S. Isepo 793","","45.4302018","12.35813381"
"0319000925_","Store location - 0319000925_","","CS","Castello","Fondamenta S. Isepo","925","CS925","Fondamenta S. Isepo 925","","45.43061355","12.35656555"
"0319002912_","Store location - 0319002912_","","CS","Castello","Salizada Santa Giustina","2912","CS2912","Salizada Santa Giustina 2912","","45.43743029","12.34651398"
"0319003197_","Store location - 0319003197_","","CS","Castello","Salizada De Le Gatte","3197","CS3197","Salizada De Le Gatte 3197","","45.43656702","12.34762421"
"0319005742_","Store location - 0319005742_","","CS","Castello","Calle Del Paradiso","5742","CS5742","Calle Del Paradiso 5742","","45.43744336","12.33977808"
"0319006220_","Store location - 0319006220_","","CS","Castello","Calle Trevisan O Cicogna","6220","CS6220","Calle Trevisan O Cicogna 6220","","45.43808268","12.34159928"
