"primary_address_id","wiki_friendly_title","secondary_address_id","setiere_code","sestiere_name","street_name","street_number","sestiere_address","street_and_number","accessory_addresses","latitude","longitude"
"0278000126_","Store location - 0278000126_","","CN","Cannaregio","Rio Tera' Lista De Spagna","126","CN126","Rio Tera' Lista De Spagna 126","","45.4418541","12.32297062"
"0278003686_","Store location - 0278003686_","","CN","Cannaregio","Campo San Felice","3686","CN3686","Campo San Felice 3686","","45.44176871","12.3330655"
"1600001339_","Store location - 1600001339_","1600001340_","SM","San Marco","Calle Vallaresso","1339","SM1339","Calle Vallaresso 1339","San Marco Calle Vallaresso 1340","45.43296496","12.33686579"
"1600001491_","Store location - 1600001491_","","SM","San Marco","Salizada San Moise'","1491","SM1491","Salizada San Moise' 1491","","45.43329718","12.33639482"
"1600002253_","Store location - 1600002253_","","SM","San Marco","Calle Larga Ventidue Marzo","2253","SM2253","Calle Larga Ventidue Marzo 2253","","45.43283739","12.33446122"
"1600002511_","Store location - 1600002511_","","SM","San Marco","Campiello De La Feltrina","2511","SM2511","Campiello De La Feltrina 2511","","45.43259152","12.33240577"
"1600002806A","Store location - 1600002806A","1600002806_;1600002806C","SM","San Marco","Campo Santo Stefano","2806A","SM2806A","Campo Santo Stefano 2806A","San Marco Campo Santo Stefano 2806;San Marco Campo Santo Stefano 2806 C","45.43284584","12.33031851"
"1600003715_","Store location - 1600003715_","","SM","San Marco","Calle De La Cortesia","3715","SM3715","Calle De La Cortesia 3715","","45.43498352","12.33339494"
"1600004365_","Store location - 1600004365_","","SM","San Marco","Calle Dei Fuseri","4365","SM4365","Calle Dei Fuseri 4365","","45.43480491","12.33531608"
"1600004944_","Store location - 1600004944_","","SM","San Marco","Marzaria Del Capitelo","4944","SM4944","Marzaria Del Capitelo 4944","","45.43623916","12.33750416"
"1600004954_","Store location - 1600004954_","1600004955_;1600004956_","SM","San Marco","Marzaria Del Capitelo","4954","SM4954","Marzaria Del Capitelo 4954","San Marco Marzaria Del Capitelo 4955;Ramo Marzaria San Salvador 4956","45.43648925","12.33702328"
"0278001889D","Store location - 0278001889D","","CN","Cannaregio","Calle De L'Aseo","1889D","CN1889D","Calle De L'Aseo 1889D","","45.44425932","12.32931387"
"0278005404B","Store location - 0278005404B","","CN","Cannaregio","Campiello Widmann Gia' Biri","5404B","CN5404B","Campiello Widmann Gia' Biri 5404B","","45.44054553","12.33986092"
"1600003965_","Store location - 1600003965_","","SM","San Marco","Salizada Del Teatro","3965","SM3965","Salizada Del Teatro 3965","","45.43526405","12.33277129"
"1600004280_","Store location - 1600004280_","","SM","San Marco","Calle Dei Fuseri","4280","SM4280","Calle Dei Fuseri 4280","","45.43530591","12.33530187"
"1600000044_","Store location - 1600000044_","","SM","San Marco","Piazza San Marco","44","SM44","Piazza San Marco 44","","45.43382972","12.3389588"
"1600002360A","Store location - 1600002360A","","SM","San Marco","Calle De Le Ostreghe","2360A","SM2360A","Calle De Le Ostreghe 2360A","","45.43267982","12.3338068"
"1600002401_","Store location - 1600002401_","","SM","San Marco","Calle Larga Ventidue Marzo","2401","SM2401","Calle Larga Ventidue Marzo 2401","","45.43284758","12.33406693"
"1600002513A","Store location - 1600002513A","","SM","San Marco","Campiello De La Feltrina","2513A","SM2513A","Campiello De La Feltrina 2513A","","45.43267347","12.33253105"
"1600002606_","Store location - 1600002606_","","SM","San Marco","Campo San Maurizio","2606","SM2606","Campo San Maurizio 2606","","45.43293085","12.33173762"
"1600004371_","Store location - 1600004371_","","SM","San Marco","Calle Dei Fuseri","4371","SM4371","Calle Dei Fuseri 4371","","45.434995","12.33531651"
"1600004470_","Store location - 1600004470_","","SM","San Marco","Calle Dei Fuseri","4470","SM4470","Calle Dei Fuseri 4470","","45.43554556","12.3353132"
"1600004578B","Store location - 1600004578B","","SM","San Marco","Calle San Luca","4578B","SM4578B","Calle San Luca 4578B","","45.43610571","12.33560269"
"1600004606B","Store location - 1600004606B","","SM","San Marco","Calle Del Teatro","4606B","SM4606B","Calle Del Teatro 4606B","","45.43621446","12.33524954"
"0278001979_","Store location - 0278001979_","","CN","Cannaregio","Calle De L'Anconeta","1979","CN1979","Calle De L'Anconeta 1979","","45.44383144","12.32961618"
"0278003832A","Store location - 0278003832A","","CN","Cannaregio","Strada Nova","3832A","CN3832A","Strada Nova 3832A","","45.44137128","12.33372394"
"0278003843_","Store location - 0278003843_","","CN","Cannaregio","Strada Nova","3843","CN3843","Strada Nova 3843","","45.4412774","12.33395643"
"0278006055A","Store location - 0278006055A","","CN","Cannaregio","Ramo Del Campanile","6055A","CN6055A","Ramo Del Campanile 6055A","","45.44011209","12.33889435"
"1600004820_","Store location - 1600004820_","","SM","San Marco","Calle Del Lovo","4820","SM4820","Calle Del Lovo 4820","","45.43663966","12.33594998"
"1600005541A","Store location - 1600005541A","","SM","San Marco","Salizada Del Fontego Dei Tedeschi","5541A","SM5541A","Salizada Del Fontego Dei Tedeschi 5541A","","45.43821862","12.33704221"
"0278005548_","Store location - 0278005548_","","CN","Cannaregio","Salizada San Canzian","5548","CN5548","Salizada San Canzian 5548","","45.43984957","12.33819954"
"1600004717_","Store location - 1600004717_","","SM","San Marco","Calle Dei Fabbri","4717","SM4717","Calle Dei Fabbri 4717","","45.4359534","12.33595013"
"1600004747_","Store location - 1600004747_","","SM","San Marco","Calle Dei Fabbri","4747","SM4747","Calle Dei Fabbri 4747","","45.43636869","12.33556273"
"1600004819_","Store location - 1600004819_","","SM","San Marco","Calle Del Lovo","4819","SM4819","Calle Del Lovo 4819","","45.43659516","12.33589588"
"1600005397_","Store location - 1600005397_","","SM","San Marco","Campo San Bortolomio","5397","SM5397","Campo San Bortolomio 5397","","45.43777467","12.33698076"
"1600005481_","Store location - 1600005481_","","SM","San Marco","Calle De La Bissa","5481","SM5481","Calle De La Bissa 5481","","45.43788965","12.33727067"
"0278001250_","Store location - 0278001250_","","CN","Cannaregio","Fondamenta De Cannaregio","1250","CN1250","Fondamenta De Cannaregio 1250","","45.44403809","12.3251672"
"1600001346_","Store location - 1600001346_","1600001351_","SM","San Marco","Salizada San Moise'","1346","SM1346","Salizada San Moise' 1346","San Marco Calle Del Ridotto 1351","45.43326593","12.33648844"
"1600002663_","Store location - 1600002663_","","SM","San Marco","Campo San Maurizio","2663","SM2663","Campo San Maurizio 2663","","45.43279847","12.33186473"
"1600003717D","Store location - 1600003717D","","SM","San Marco","Calle De La Cortesia","3717D","SM3717D","Calle De La Cortesia 3717D","","45.43509496","12.33376786"
"1600004119_","Store location - 1600004119_","","SM","San Marco","Calle Sant'Antonio","4119","SM4119","Calle Sant'Antonio 4119","","45.43573051","12.33455768"
"0278002290B","Store location - 0278002290B","","CN","Cannaregio","Strada Nova","2290B","CN2290B","Strada Nova 2290B","","45.44249667","12.33252127"
"0278004001A","Store location - 0278004001A","","CN","Cannaregio","Strada Nova","4001A","CN4001A","Strada Nova 4001A","","45.44095157","12.33464485"
"0278006376_","Store location - 0278006376_","","CN","Cannaregio","Calle Larga Giacinto Gallina","6376","CN6376","Calle Larga Giacinto Gallina 6376","","45.43964492","12.34092805"
"0278006381B","Store location - 0278006381B","","CN","Cannaregio","Calle Larga Giacinto Gallina","6381B","CN6381B","Calle Larga Giacinto Gallina 6381B","","45.4396386","12.34075728"
"1600000071G","Store location - 1600000071G","","SM","San Marco","Calle Larga De L'Ascension","71G","SM71G","Calle Larga De L'Ascension 71G","","45.43313604","12.33732287"
"1600000101_","Store location - 1600000101_","","SM","San Marco","Piazza San Marco","101","SM101","Piazza San Marco 101","","45.43415648","12.3375896"
"1600000119_","Store location - 1600000119_","","SM","San Marco","Piazza San Marco","119","SM119","Piazza San Marco 119","","45.43431623","12.33795467"
"1600000127_","Store location - 1600000127_","","SM","San Marco","Piazza San Marco","127","SM127","Piazza San Marco 127","","45.43444662","12.33825722"
"1600000307_","Store location - 1600000307_","","SM","San Marco","Calle San Basso","307","SM307","Calle San Basso 307","","45.43492287","12.33919474"
"1600000399_","Store location - 1600000399_","","SM","San Marco","Ramo De L'Anzolo","399","SM399","Ramo De L'Anzolo 399","","45.43565681","12.33999876"
"1600001053_","Store location - 1600001053_","1600001053A;1600001053B;1600001054_","SM","San Marco","Calle Dei Fabbri","1053","SM1053","Calle Dei Fabbri 1053","San Marco Rio Tera' De Le Colone 1053 A;San Marco Rio Tera' De Le Colone 1053 B;San Marco Rio Tera' De Le Colone 1054","45.43521213","12.3368138"
"1600001053B","Store location - 1600001053B","","SM","San Marco","Rio Tera' De Le Colone","1053B","SM1053B","Rio Tera' De Le Colone 1053B","","45.43515661","12.33678305"
"1600001298_","Store location - 1600001298_","","SM","San Marco","Calle Seconda De L'Ascension","1298","SM1298","Calle Seconda De L'Ascension 1298","","45.43335186","12.33706475"
"1600001471_","Store location - 1600001471_","","SM","San Marco","Salizada San Moise'","1471","SM1471","Salizada San Moise' 1471","","45.43325092","12.33600519"
"1600001657_","Store location - 1600001657_","","SM","San Marco","Corte De Piscina De Frezzaria","1657","SM1657","Corte De Piscina De Frezzaria 1657","","45.43403411","12.33548262"
"1600002378A","Store location - 1600002378A","1600002308_;1600002309_","SM","San Marco","Calle Larga Ventidue Marzo","2378A","SM2378A","Calle Larga Ventidue Marzo 2378A","San Marco Calle Del Pestrin 2308;San Marco Calle Del Pestrin 2309","45.43249464","12.33405488"
"1600002953_","Store location - 1600002953_","","SM","San Marco","Campo Santo Stefano","2953","SM2953","Campo Santo Stefano 2953","","45.43344018","12.33029738"
"1600003131_","Store location - 1600003131_","","SM","San Marco","Crosera De Le Boteghe","3131","SM3131","Crosera De Le Boteghe 3131","","45.43419487","12.32987149"
"1600003145_","Store location - 1600003145_","","SM","San Marco","Salizada San Samuele","3145","SM3145","Salizada San Samuele 3145","","45.43426012","12.32963689"
"1600003151_","Store location - 1600003151_","","SM","San Marco","Salizada San Samuele","3151","SM3151","Salizada San Samuele 3151","","45.43416044","12.32945178"
"1600003448A","Store location - 1600003448A","1600003448_;1600003449_","SM","San Marco","Crosera De Le Boteghe","3448A","SM3448A","Crosera De Le Boteghe 3448A","San Marco Crosera De Le Boteghe 3448;San Marco Crosera De Le Boteghe 3449","45.43425156","12.32989227"
"1600003718C","Store location - 1600003718C","","SM","San Marco","Calle De La Cortesia","3718C","SM3718C","Calle De La Cortesia 3718C","","45.43505368","12.33353012"
"1600004000_","Store location - 1600004000_","","SM","San Marco","Salizada Del Teatro","4000","SM4000","Salizada Del Teatro 4000","","45.43508858","12.33307471"
"1600004251_","Store location - 1600004251_","","SM","San Marco","Campo Manin","4251","SM4251","Campo Manin 4251","","45.43526651","12.3344429"
"1600004271_","Store location - 1600004271_","","SM","San Marco","Calle Dei Fuseri","4271","SM4271","Calle Dei Fuseri 4271","","45.43558808","12.3352744"
"1600004353A","Store location - 1600004353A","","SM","San Marco","Corte Coppo","4353A","SM4353A","Corte Coppo 4353A","","45.43493937","12.335137"
"1600004488B","Store location - 1600004488B","","SM","San Marco","Calle Goldoni","4488B","SM4488B","Calle Goldoni 4488B","","45.4354047","12.33577117"
"1600004534_","Store location - 1600004534_","","SM","San Marco","Calle Del Mettivia","4534","SM4534","Calle Del Mettivia 4534","","45.43564123","12.33588776"
"1600004642_","Store location - 1600004642_","","SM","San Marco","Riva Del Carbon","4642","SM4642","Riva Del Carbon 4642","","45.4369279","12.33487909"
"1600004647_","Store location - 1600004647_","","SM","San Marco","Calle Bembo","4647","SM4647","Calle Bembo 4647","","45.43671906","12.33519715"
"1600004789_","Store location - 1600004789_","","SM","San Marco","Calle Bembo","4789","SM4789","Calle Bembo 4789","","45.43693754","12.33498349"
"1600004816_","Store location - 1600004816_","1600004817_","SM","San Marco","Calle Del Lovo","4816","SM4816","Calle Del Lovo 4816","San Marco Calle Del Lovo 4817","45.43664578","12.33591332"
"1600004842_","Store location - 1600004842_","","SM","San Marco","Marzaria San Salvador","4842","SM4842","Marzaria San Salvador 4842","","45.43678728","12.33682459"
"1600004854_","Store location - 1600004854_","1600004855_;1600004856_","SM","San Marco","Marzaria Del Capitelo","4854","SM4854","Marzaria Del Capitelo 4854","San Marco Marzaria Del Capitelo 4855;4856","45.4365276","12.33686349"
"1600004950_","Store location - 1600004950_","","SM","San Marco","Marzaria Del Capitelo","4950","SM4950","Marzaria Del Capitelo 4950","","45.43643201","12.33714443"
"1600004957_","Store location - 1600004957_","","SM","San Marco","Ramo Marzaria San Salvador","4957","SM4957","Ramo Marzaria San Salvador 4957","","45.43655018","12.33698478"
"1600004992_","Store location - 1600004992_","","SM","San Marco","Calle De Le Acque","4992","SM4992","Calle De Le Acque 4992","","45.43655481","12.33749759"
"1600005006_","Store location - 1600005006_","","SM","San Marco","Calle De Le Acque","5006","SM5006","Calle De Le Acque 5006","","45.43644704","12.3377908"
"1600005041_","Store location - 1600005041_","","SM","San Marco","Marzaria Due Aprile","5041","SM5041","Marzaria Due Aprile 5041","","45.43723417","12.33662659"
"1600005113_","Store location - 1600005113_","","SM","San Marco","Calle Larga Mazzini","5113","SM5113","Calle Larga Mazzini 5113","","45.43720412","12.33585556"
"1600005168_","Store location - 1600005168_","","SM","San Marco","Salizada Pio Decimo","5168","SM5168","Salizada Pio Decimo 5168","","45.43766772","12.33644862"
"1600005169_","Store location - 1600005169_","","SM","San Marco","Salizada Pio Decimo","5169","SM5169","Salizada Pio Decimo 5169","","45.43765895","12.33647781"
"1600005176_","Store location - 1600005176_","","SM","San Marco","Campo San Bortolomio","5176","SM5176","Campo San Bortolomio 5176","","45.4374638","12.33666708"
"1600005184_","Store location - 1600005184_","","SM","San Marco","Calle Dei Stagneri","5184","SM5184","Calle Dei Stagneri 5184","","45.43727633","12.33688697"
"1600005187_","Store location - 1600005187_","","SM","San Marco","Calle Dei Stagneri","5187","SM5187","Calle Dei Stagneri 5187","","45.43723261","12.33702862"
"1600005192_","Store location - 1600005192_","","SM","San Marco","Calle Dei Stagneri","5192","SM5192","Calle Dei Stagneri 5192","","45.4370581","12.33702624"
"1600005337_","Store location - 1600005337_","1600005338_","SM","San Marco","Fondamenta Del Traghetto Del Buso","5337","SM5337","Fondamenta Del Traghetto Del Buso 5337","San Marco Fondamenta Del Traghetto Del Buso 5338","45.43802397","12.33634465"
"1600005453_","Store location - 1600005453_","1600005453A","SM","San Marco","Calle De La Bissa","5453","SM5453","Calle De La Bissa 5453","San Marco Calle De La Bissa 5453 A;5454","45.43770417","12.33737112"
"1600005542_","Store location - 1600005542_","","SM","San Marco","Salizada Del Fontego Dei Tedeschi","5542","SM5542","Salizada Del Fontego Dei Tedeschi 5542","","45.43825334","12.33705497"
"0278000054A","Store location - 0278000054A","","CN","Cannaregio","Fondamenta Santa Lucia","54A","CN54A","Fondamenta Santa Lucia 54A","","45.44129564","12.32187005"
"0278000287_","Store location - 0278000287_","","CN","Cannaregio","Calle Del Boter","287","CN287","Calle Del Boter 287","","45.44327251","12.32446323"
"0278000318_","Store location - 0278000318_","0278000317_","CN","Cannaregio","Salizada San Geremia","318","CN318","Salizada San Geremia 318","Cannaregio Salizada San Geremia 319","45.44350665","12.32513407"
"0278001297_","Store location - 0278001297_","","CN","Cannaregio","Ponte De Cannaregio O De Le Guglie","1297","CN1297","Ponte De Cannaregio O De Le Guglie 1297","","45.4438014","12.32562052"
"0278001353A","Store location - 0278001353A","","CN","Cannaregio","Rio Tera' San Leonardo","1353A","CN1353A","Rio Tera' San Leonardo 1353A","","45.443776","12.32701454"
"0278001369_","Store location - 0278001369_","","CN","Cannaregio","Rio Tera' San Leonardo","1369","CN1369","Rio Tera' San Leonardo 1369","","45.44379609","12.3274785"
"0278001403_","Store location - 0278001403_","","CN","Cannaregio","Rio Tera' San Leonardo","1403","CN1403","Rio Tera' San Leonardo 1403","","45.4439542","12.32828537"
"0278001706_","Store location - 0278001706_","","CN","Cannaregio","Rio Tera' San Leonardo","1706","CN1706","Rio Tera' San Leonardo 1706","","45.44384524","12.32825962"
"0278001815_","Store location - 0278001815_","0278001815A","CN","Cannaregio","Calle Del Pistor","1815","CN1815","Calle Del Pistor 1815","Cannaregio Calle Del Pistor 1815 A","45.44392541","12.32862827"
"0278002365_","Store location - 0278002365_","0278002366_","CN","Cannaregio","Rio Tera' De La Maddalena","2365","CN2365","Rio Tera' De La Maddalena 2365","Cannaregio Rio Tera' De La Maddalena 2366","45.44364322","12.33018028"
"0278003844_","Store location - 0278003844_","","CN","Cannaregio","Strada Nova","3844","CN3844","Strada Nova 3844","","45.44130609","12.33412905"
"0278004270_","Store location - 0278004270_","","CN","Cannaregio","Strada Nova","4270","CN4270","Strada Nova 4270","","45.44082227","12.33516227"
"0278004383_","Store location - 0278004383_","","CN","Cannaregio","Strada Nova","4383","CN4383","Strada Nova 4383","","45.44057306","12.33570167"
"0278004555_","Store location - 0278004555_","0278004554_","CN","Cannaregio","Salizada Del Pistor","4555","CN4555","Salizada Del Pistor 4555","Cannaregio Calle Dei Preti 4554","45.44093846","12.3365896"
"0278005601_","Store location - 0278005601_","","CN","Cannaregio","Campiello Flaminio Corner","5601","CN5601","Campiello Flaminio Corner 5601","","45.43971651","12.33708216"
"0278005671_","Store location - 0278005671_","0278005672_","CN","Cannaregio","Campiello Riccardo Selvatico","5671","CN5671","Campiello Riccardo Selvatico 5671","Cannaregio Campiello Riccardo Selvatico 5672","45.43968008","12.33684021"
"0278005784_","Store location - 0278005784_","","CN","Cannaregio","Salizada San Giovanni Grisostomo","5784","CN5784","Salizada San Giovanni Grisostomo 5784","","45.43856183","12.33701952"
"0278005904A","Store location - 0278005904A","","CN","Cannaregio","Salizada San Canzian","5904A","CN5904A","Salizada San Canzian 5904A","","45.43964147","12.33737237"
"0278005905_","Store location - 0278005905_","","CN","Cannaregio","Salizada San Canzian","5905","CN5905","Salizada San Canzian 5905","","45.43964872","12.33743445"
"0278005917_","Store location - 0278005917_","","CN","Cannaregio","Sotoportego Corner","5917","CN5917","Sotoportego Corner 5917","","45.43960817","12.33761744"
"0278005988_","Store location - 0278005988_","","CN","Cannaregio","Salizada San Canzian","5988","CN5988","Salizada San Canzian 5988","","45.4399007","12.33842609"
"0278006029C","Store location - 0278006029C","","CN","Cannaregio","Campo Santa Maria Nova","6029C","CN6029C","Campo Santa Maria Nova 6029C","","45.43973064","12.33911447"
"0278006029D","Store location - 0278006029D","","CN","Cannaregio","Campo Santa Maria Nova","6029D","CN6029D","Campo Santa Maria Nova 6029D","","45.4397696","12.33905059"
"1600000080_","Store location - 1600000080_","","SM","San Marco","Piazza San Marco","80","SM80","Piazza San Marco 80","","45.43398422","12.33718017"
"1600000513_","Store location - 1600000513_","","SM","San Marco","Campo De La Guerra","513","SM513","Campo De La Guerra 513","","45.43611769","12.33919581"
"1600000621_","Store location - 1600000621_","","SM","San Marco","Calle Dei Spechieri","621","SM621","Calle Dei Spechieri 621","","45.43571591","12.33897037"
"1600000944_","Store location - 1600000944_","","SM","San Marco","Calle Fiubera","944","SM944","Calle Fiubera 944","","45.43508111","12.33763224"
"1600001065_","Store location - 1600001065_","","SM","San Marco","Calle Dei Fabbri","1065","SM1065","Calle Dei Fabbri 1065","","45.43507696","12.33698352"
"1600001066_","Store location - 1600001066_","1600001066A","SM","San Marco","Calle Dei Fabbri","1066","SM1066","Calle Dei Fabbri 1066","San Marco Calle San Gallo 1066 A","45.43503559","12.33702163"
"1600001292_","Store location - 1600001292_","","SM","San Marco","Calle Seconda De L'Ascension","1292","SM1292","Calle Seconda De L'Ascension 1292","","45.43332681","12.33685677"
"1600001317_","Store location - 1600001317_","","SM","San Marco","Calle Vallaresso","1317","SM1317","Calle Vallaresso 1317","","45.4326824","12.3370485"
"1600001349_","Store location - 1600001349_","","SM","San Marco","Salizada San Moise'","1349","SM1349","Salizada San Moise' 1349","","45.43326593","12.33648844"
"1600001388A","Store location - 1600001388A","","SM","San Marco","Calle Del Ridotto","1388A","SM1388A","Calle Del Ridotto 1388A","","45.43295438","12.33644685"
"1600001691_","Store location - 1600001691_","1600001690_","SM","San Marco","Frezzaria","1691","SM1691","Frezzaria 1691","San Marco Calle Brentana 1690","45.43431021","12.33605859"
"1600001814_","Store location - 1600001814_","","SM","San Marco","Ramo Dei Fuseri","1814","SM1814","Ramo Dei Fuseri 1814","","45.43443376","12.33547013"
"1600001894_","Store location - 1600001894_","","SM","San Marco","Campo San Fantin","1894","SM1894","Campo San Fantin 1894","","45.43405324","12.33417771"
"1600002629_","Store location - 1600002629_","","SM","San Marco","Calle Zaguri","2629","SM2629","Calle Zaguri 2629","","45.43273793","12.33205861"
"1600003127_","Store location - 1600003127_","","SM","San Marco","Crosera De Le Boteghe","3127","SM3127","Crosera De Le Boteghe 3127","","45.43409261","12.32992977"
"1600003655_","Store location - 1600003655_","","SM","San Marco","Calle Dei Assassini","3655","SM3655","Calle Dei Assassini 3655","","45.43478933","12.33294701"
"1600003716A","Store location - 1600003716A","","SM","San Marco","Calle De La Cortesia","3716A","SM3716A","Calle De La Cortesia 3716A","","45.43500719","12.33348755"
"1600004273_","Store location - 1600004273_","","SM","San Marco","Calle Dei Fuseri","4273","SM4273","Calle Dei Fuseri 4273","","45.43554684","12.33527908"
"1600004357_","Store location - 1600004357_","","SM","San Marco","Calle Dei Fuseri","4357","SM4357","Calle Dei Fuseri 4357","","45.43492849","12.33528364"
"1600004459_","Store location - 1600004459_","","SM","San Marco","Calle Dei Fuseri","4459","SM4459","Calle Dei Fuseri 4459","","45.43526498","12.33533342"
"1600004461_","Store location - 1600004461_","","SM","San Marco","Calle Dei Fuseri","4461","SM4461","Calle Dei Fuseri 4461","","45.43529211","12.33533325"
"1600004468_","Store location - 1600004468_","","SM","San Marco","Calle Dei Fuseri","4468","SM4468","Calle Dei Fuseri 4468","","45.43550664","12.33531714"
"1600004485_","Store location - 1600004485_","","SM","San Marco","Calle Goldoni","4485","SM4485","Calle Goldoni 4485","","45.43543154","12.33571835"
"1600004488C","Store location - 1600004488C","","SM","San Marco","Calle Goldoni","4488C","SM4488C","Calle Goldoni 4488C","","45.43546284","12.33576748"
"1600004715_","Store location - 1600004715_","","SM","San Marco","Calle Dei Fabbri","4715","SM4715","Calle Dei Fabbri 4715","","45.43590368","12.33600044"
"1600004858_","Store location - 1600004858_","","SM","San Marco","Marzaria Del Capitelo","4858","SM4858","Marzaria Del Capitelo 4858","","45.43648052","12.33696918"
"1600004918_","Store location - 1600004918_","","SM","San Marco","Marzaria Del Capitelo","4918","SM4918","Marzaria Del Capitelo 4918","","45.43637833","12.33717942"
"1600005381_","Store location - 1600005381_","","SM","San Marco","Campo San Bortolomio","5381","SM5381","Campo San Bortolomio 5381","","45.43782141","12.3367774"
"1600005417_","Store location - 1600005417_","","SM","San Marco","Calle De La Bissa","5417","SM5417","Calle De La Bissa 5417","","45.43768501","12.33719184"
"0278004273_","Store location - 0278004273_","","CN","Cannaregio","Calle De La Pegola","4273","CN4273","Calle De La Pegola 4273","","45.44066673","12.33515172"
"1600005465_","Store location - 1600005465_","","SM","San Marco","Sotoportego De La Bissa","5465","SM5465","Sotoportego De La Bissa 5465","","45.43771441","12.33769237"
"0278001414_","Store location - 0278001414_","","CN","Cannaregio","Rio Tera' Farsetti","1414","CN1414","Rio Tera' Farsetti 1414","","45.44422177","12.32863594"
"0278001618A","Store location - 0278001618A","","CN","Cannaregio","Rio Tera' San Leonardo","1618A","CN1618A","Rio Tera' San Leonardo 1618A","","45.44371237","12.3275968"
"0278001998_","Store location - 0278001998_","","CN","Cannaregio","Calle De L'Anconeta","1998","CN1998","Calle De L'Anconeta 1998","","45.44383009","12.32971431"
"0278002332_","Store location - 0278002332_","","CN","Cannaregio","Rio Tera' De La Maddalena","2332","CN2332","Rio Tera' De La Maddalena 2332","","45.44333727","12.33140015"
"0278002680_","Store location - 0278002680_","","CN","Cannaregio","Fondamenta Dei Ormesini","2680","CN2680","Fondamenta Dei Ormesini 2680","","45.44530276","12.32938961"
"0278004302_","Store location - 0278004302_","","CN","Cannaregio","Strada Nova","4302","CN4302","Strada Nova 4302","","45.44069527","12.33543163"
"1600003713_","Store location - 1600003713_","","SM","San Marco","Calle De La Cortesia","3713","SM3713","Calle De La Cortesia 3713","","45.43494401","12.333289"
"1600004177_","Store location - 1600004177_","","SM","San Marco","Calle Del Carbon","4177","SM4177","Calle Del Carbon 4177","","45.43649284","12.33437717"
"1600005192_","Store location - 1600005192_","","SM","San Marco","Calle Dei Stagneri","5192","SM5192","Calle Dei Stagneri 5192","","45.4370581","12.33702624"
"1600005244_","Store location - 1600005244_","","SM","San Marco","Calle Dei Stagneri","5244","SM5244","Calle Dei Stagneri 5244","","45.43720184","12.3372023"
"1600005248_","Store location - 1600005248_","","SM","San Marco","Calle Dei Stagneri","5248","SM5248","Calle Dei Stagneri 5248","","45.43723602","12.33707802"
"1600005368_","Store location - 1600005368_","","SM","San Marco","Ramo Del Fontego Dei Tedeschi","5368","SM5368","Ramo Del Fontego Dei Tedeschi 5368","","45.43781593","12.33657174"
"1600004668_","Store location - 1600004668_","","SM","San Marco","Calle Dei Fabbri","4668","SM4668","Calle Dei Fabbri 4668","","45.43605436","12.33581454"
"0278002500_","Store location - 0278002500_","","CN","Cannaregio","Fondamenta De La Misericordia","2500","CN2500","Fondamenta De La Misericordia 2500","","45.44410361","12.33295501"
"0278001373B","Store location - 0278001373B","","CN","Cannaregio","Rio Tera' San Leonardo","1373B","CN1373B","Rio Tera' San Leonardo 1373B","","45.4438328","12.32774158"
"0278002675A","Store location - 0278002675A","","CN","Cannaregio","Calle Del Forno","2675A","CN2675A","Calle Del Forno 2675A","","45.44535728","12.32957758"
"1600000939_","Store location - 1600000939_","1600000938A","SM","San Marco","Calle Fiubera","939","SM939","Calle Fiubera 939","San Marco Calle Fiubera 938 A","45.43498022","12.33746645"
"1600001291_","Store location - 1600001291_","","SM","San Marco","Calle Seconda De L'Ascension","1291","SM1291","Calle Seconda De L'Ascension 1291","","45.43332449","12.33676326"
"1600003724_","Store location - 1600003724_","","SM","San Marco","Calle De La Mandola","3724","SM3724","Calle De La Mandola 3724","","45.43487877","12.33306003"
"1600004772_","Store location - 1600004772_","","SM","San Marco","Calle Del Lovo","4772","SM4772","Calle Del Lovo 4772","","45.43648214","12.33565955"
"1600005017_","Store location - 1600005017_","","SM","San Marco","Marzaria San Salvador","5017","SM5017","Marzaria San Salvador 5017","","45.43674481","12.3371316"
"0278002659A","Store location - 0278002659A","","CN","Cannaregio","Calle Del Forno","2659A","CN2659A","Calle Del Forno 2659A","","45.44563105","12.32975067"
"0278002684_","Store location - 0278002684_","","CN","Cannaregio","Fondamenta Dei Ormesini","2684","CN2684","Fondamenta Dei Ormesini 2684","","45.44533663","12.32925062"
"0278003845A","Store location - 0278003845A","0278003845_","CN","Cannaregio","Strada Nova","3845A","CN3845A","Strada Nova 3845A","Cannaregio Strada Nova 3845","45.44135997","12.33400288"
"0278004799_","Store location - 0278004799_","","CN","Cannaregio","Salizada Del Spezier","4799","CN4799","Salizada Del Spezier 4799","","45.44194244","12.3377965"
"1600003722_","Store location - 1600003722_","","SM","San Marco","Calle De La Mandola","3722","SM3722","Calle De La Mandola 3722","","45.43490853","12.33313591"
"1600004676_","Store location - 1600004676_","","SM","San Marco","Calle Dei Fabbri","4676","SM4676","Calle Dei Fabbri 4676","","45.4357166","12.3361675"
"1600004713_","Store location - 1600004713_","","SM","San Marco","Calle Dei Fabbri","4713","SM4713","Calle Dei Fabbri 4713","","45.43585534","12.33605037"
"0278002502_","Store location - 0278002502_","","CN","Cannaregio","Fondamenta De La Misericordia","2502","CN2502","Fondamenta De La Misericordia 2502","","45.44413876","12.33289583"
"0278004792_","Store location - 0278004792_","","CN","Cannaregio","Salizada Del Spezier","4792","CN4792","Salizada Del Spezier 4792","","45.44183539","12.33775014"
"0278000152_","Store location - 0278000152_","","CN","Cannaregio","Rio Tera' Lista De Spagna","152","CN152","Rio Tera' Lista De Spagna 152","","45.44211667","12.32332203"
"0278000184_","Store location - 0278000184_","","CN","Cannaregio","Rio Tera' Lista De Spagna","184","CN184","Rio Tera' Lista De Spagna 184","","45.44241206","12.32395647"
"0278000388_","Store location - 0278000388_","","CN","Cannaregio","Calle De La Misericordia","388","CN388","Calle De La Misericordia 388","","45.44295546","12.32206457"
"0278004173_","Store location - 0278004173_","","CN","Cannaregio","Ruga Dei Do Pozzi","4173","CN4173","Ruga Dei Do Pozzi 4173","","45.44173669","12.33607095"
"1600004320_","Store location - 1600004320_","","SM","San Marco","Calle Coppo","4320","SM4320","Calle Coppo 4320","","45.43500482","12.33486408"
"1600004719_","Store location - 1600004719_","","SM","San Marco","Calle Dei Fabbri","4719","SM4719","Calle Dei Fabbri 4719","","45.43603139","12.33586976"
"0278001815E","Store location - 0278001815E","","CN","Cannaregio","Calle Del Pistor","1815E","CN1815E","Calle Del Pistor 1815E","","45.4439081","12.32887124"
"0278001889C","Store location - 0278001889C","","CN","Cannaregio","Calle De L'Aseo","1889C","CN1889C","Calle De L'Aseo 1889C","","45.4443006","12.32933781"
"0278002100A","Store location - 0278002100A","","CN","Cannaregio","Rio Tera' De La Maddalena","2100A","CN2100A","Rio Tera' De La Maddalena 2100A","","45.44342238","12.33090419"
"0278002433B","Store location - 0278002433B","","CN","Cannaregio","Calle Zancani","2433B","CN2433B","Calle Zancani 2433B","","45.44352764","12.33244308"
"0278002627_","Store location - 0278002627_","","CN","Cannaregio","Ponte Dei Lustraferi","2627","CN2627","Ponte Dei Lustraferi 2627","","45.4451585","12.32990948"
"0278005581_","Store location - 0278005581_","","CN","Cannaregio","Salizada San Canzian","5581","CN5581","Salizada San Canzian 5581","","45.43966208","12.33741495"
"1600000217_","Store location - 1600000217_","","SM","San Marco","Marzaria De L'Orologio","217","SM217","Marzaria De L'Orologio 217","","45.43517012","12.33857263"
"1600000298_","Store location - 1600000298_","","SM","San Marco","Marzaria De L'Orologio","298","SM298","Marzaria De L'Orologio 298","","45.43486372","12.33885963"
"1600000833_","Store location - 1600000833_","1600000832_","SM","San Marco","Calle Dei Fabbri","833","SM833","Calle Dei Fabbri 833","San Marco Calle Dei Fabbri 832","45.4346905","12.3375711"
"1600000932_","Store location - 1600000932_","","SM","San Marco","Calle Dei Fabbri","932","SM932","Calle Dei Fabbri 932","","45.43493825","12.33717766"
"1600001904_","Store location - 1600001904_","","SM","San Marco","Calle De La Verona","1904","SM1904","Calle De La Verona 1904","","45.43430508","12.33358199"
"1600003084_","Store location - 1600003084_","","SM","San Marco","Calle Malipiero","3084","SM3084","Calle Malipiero 3084","","45.43325961","12.32862612"
"1600003211A","Store location - 1600003211A","","SM","San Marco","Salizada Malipiero","3211A","SM3211A","Salizada Malipiero 3211A","","45.43377417","12.32889765"
"1600003357_","Store location - 1600003357_","","SM","San Marco","Salizada San Samuele","3357","SM3357","Salizada San Samuele 3357","","45.43431435","12.32958895"
"1600003722A","Store location - 1600003722A","1600004004_","SM","San Marco","Calle De La Mandola","3722A","SM3722A","Calle De La Mandola 3722A","San Marco Salizada Del Teatro 4004","45.43493322","12.3331951"
"1600004150_","Store location - 1600004150_","","SM","San Marco","Salizada San Luca","4150","SM4150","Salizada San Luca 4150","","45.43577842","12.33474999"
"1600004264A","Store location - 1600004264A","","SM","San Marco","Rio Tera' San Paternian","4264A","SM4264A","Rio Tera' San Paternian 4264A","","45.4355244","12.3350754"
"1600004296_","Store location - 1600004296_","","SM","San Marco","Calle De La Vida O De Le Locande","4296","SM4296","Calle De La Vida O De Le Locande 4296","","45.43508592","12.33437518"
"1600004338_","Store location - 1600004338_","","SM","San Marco","Calle Dei Fuseri","4338","SM4338","Calle Dei Fuseri 4338","","45.4351561","12.33529785"
"1600004350_","Store location - 1600004350_","","SM","San Marco","Corte Coppo","4350","SM4350","Corte Coppo 4350","","45.43493892","12.33506169"
"1600004662_","Store location - 1600004662_","","SM","San Marco","Calle Dei Fabbri","4662","SM4662","Calle Dei Fabbri 4662","","45.43628368","12.33558361"
"1600005206_","Store location - 1600005206_","","SM","San Marco","Calle Dei Stagneri","5206","SM5206","Calle Dei Stagneri 5206","","45.43696787","12.33697951"
"0278000314_","Store location - 0278000314_","","CN","Cannaregio","Salizada San Geremia","314","CN314","Salizada San Geremia 314","","45.44342387","12.32497728"
"0278000322_","Store location - 0278000322_","0278000321_;0278000336_","CN","Cannaregio","Salizada San Geremia","322","CN322","Salizada San Geremia 322","","45.44337736","12.32497606"
"0278001523A","Store location - 0278001523A","","CN","Cannaregio","Rio Tera' San Leonardo","1523A","CN1523A","Rio Tera' San Leonardo 1523A","","45.44364686","12.32657055"
"0278005692_","Store location - 0278005692_","","CN","Cannaregio","Salizada San Giovanni Grisostomo","5692","CN5692","Salizada San Giovanni Grisostomo 5692","","45.43941261","12.33701559"
"0278006019_","Store location - 0278006019_","","CN","Cannaregio","Ponte Dei Miracoli","6019","CN6019","Ponte Dei Miracoli 6019","","45.43933623","12.33892367"
"1600000051_","Store location - 1600000051_","","SM","San Marco","Piazza San Marco","51","SM51","Piazza San Marco 51","","45.43372768","12.33859261"
"1600000136_","Store location - 1600000136_","1600000137_","SM","San Marco","Piazza San Marco","136","SM136","Piazza San Marco 136","San Marco Piazza San Marco 137","45.43457573","12.33855652"
"1600000228_","Store location - 1600000228_","1600000227_","SM","San Marco","Marzaria De L'Orologio","228","SM228","Marzaria De L'Orologio 228","San Marco Marzaria De L'Orologio 227","45.43544307","12.33838868"
"1600000229_","Store location - 1600000229_","","SM","San Marco","Marzaria De L'Orologio","229","SM229","Marzaria De L'Orologio 229","","45.4354617","12.3383769"
"1600000234A","Store location - 1600000234A","","SM","San Marco","Campo San Zulian","234A","SM234A","Campo San Zulian 234A","","45.43559694","12.33856141"
"1600000256_","Store location - 1600000256_","","SM","San Marco","Marzaria De L'Orologio","256","SM256","Marzaria De L'Orologio 256","","45.43546422","12.33842338"
"1600000738_","Store location - 1600000738_","","SM","San Marco","Marzaria San Zulian","738","SM738","Marzaria San Zulian 738","","45.43574076","12.33822777"
"1600001651_","Store location - 1600001651_","","SM","San Marco","Calle De Piscina","1651","SM1651","Calle De Piscina 1651","","45.43411263","12.33586827"
"1600002973_","Store location - 1600002973_","","SM","San Marco","Crosera De Le Boteghe","2973","SM2973","Crosera De Le Boteghe 2973","","45.43395525","12.33013866"
"1600004340_","Store location - 1600004340_","","SM","San Marco","Calle Dei Fuseri","4340","SM4340","Calle Dei Fuseri 4340","","45.43512287","12.33529293"
"1600004578A","Store location - 1600004578A","","SM","San Marco","Calle San Luca","4578A","SM4578A","Calle San Luca 4578A","","45.43608684","12.33556752"
"1600004606A","Store location - 1600004606A","","SM","San Marco","Calle Del Teatro","4606A","SM4606A","Calle Del Teatro 4606A","","45.436248","12.3353234"
"1600004609_","Store location - 1600004609_","","SM","San Marco","Calle Del Teatro","4609","SM4609","Calle Del Teatro 4609","","45.43638383","12.3354597"
"1600004840_","Store location - 1600004840_","","SM","San Marco","Marzaria San Salvador","4840","SM4840","Marzaria San Salvador 4840","","45.43679871","12.3367841"
"0278001511_","Store location - 0278001511_","","CN","Cannaregio","Rio Tera' San Leonardo","1511","CN1511","Rio Tera' San Leonardo 1511","","45.44361368","12.32591668"
"1600000712_","Store location - 1600000712_","","SM","San Marco","Marzaria San Zulian","712","SM712","Marzaria San Zulian 712","","45.43594754","12.33793496"
"1600001472_","Store location - 1600001472_","","SM","San Marco","Salizada San Moise'","1472","SM1472","Salizada San Moise' 1472","","45.43325185","12.33601416"
"0278006375_","Store location - 0278006375_","0278006375B","CN","Cannaregio","Calle Larga Giacinto Gallina","6375","CN6375","Calle Larga Giacinto Gallina 6375","Cannaregio Calle Larga Giacinto Gallina 6375 B","45.43966741","12.34083105"
"0278000548A","Store location - 0278000548A","0278000548B","CN","Cannaregio","Fondamenta San Giobbe","548A","CN548A","Fondamenta San Giobbe 548A","Cannaregio Fondamenta San Giobbe 548 B","45.44490685","12.32200868"
"0278004309A","Store location - 0278004309A","","CN","Cannaregio","Strada Nova","4309A","CN4309A","Strada Nova 4309A","","45.44064636","12.33554175"
"1600004373_","Store location - 1600004373_","","SM","San Marco","Calle Dei Fuseri","4373","SM4373","Calle Dei Fuseri 4373","","45.43505356","12.33532134"
"0278004391B","Store location - 0278004391B","","CN","Cannaregio","Strada Nova","4391B","CN4391B","Strada Nova 4391B","","45.44043499","12.33573764"
"1600004372_","Store location - 1600004372_","","SM","San Marco","Calle Dei Fuseri","4372","SM4372","Calle Dei Fuseri 4372","","45.43501044","12.33531873"
"1600000263_","Store location - 1600000263_","","SM","San Marco","Marzaria De L'Orologio","263","SM263","Marzaria De L'Orologio 263","","45.43521561","12.33858952"
"0278001896_","Store location - 0278001896_","","CN","Cannaregio","Calle De L'Aseo","1896","CN1896","Calle De L'Aseo 1896","","45.44410671","12.32928596"
"1600003711_","Store location - 1600003711_","","SM","San Marco","Calle De La Mandola","3711","SM3711","Calle De La Mandola 3711","","45.43490665","12.33320352"
"0278000408_","Store location - 0278000408_","","CN","Cannaregio","Fondamenta Savorgnan","408","CN408","Fondamenta Savorgnan 408","","45.44427736","12.32403863"
"0278001858_","Store location - 0278001858_","","CN","Cannaregio","Calle De L'Aseo","1858","CN1858","Calle De L'Aseo 1858","","45.44461277","12.32955563"
"0278002314_","Store location - 0278002314_","","CN","Cannaregio","Campiello De La Chiesa","2314","CN2314","Campiello De La Chiesa 2314","","45.44294783","12.3325911"
"0278002345_","Store location - 0278002345_","","CN","Cannaregio","Rio Tera' De La Maddalena","2345","CN2345","Rio Tera' De La Maddalena 2345","","45.44350106","12.33083405"
"0278002737_","Store location - 0278002737_","","CN","Cannaregio","Fondamenta Dei Ormesini","2737","CN2737","Fondamenta Dei Ormesini 2737","","45.44549912","12.32863546"
"0278004000_","Store location - 0278004000_","","CN","Cannaregio","Strada Nova","4000","CN4000","Strada Nova 4000","","45.440988","12.33457239"
"0278004371_","Store location - 0278004371_","","CN","Cannaregio","Calle De L'Oca","4371","CN4371","Calle De L'Oca 4371","","45.44076772","12.33607593"
"0278004556A","Store location - 0278004556A","","CN","Cannaregio","Salizada Del Pistor","4556A","CN4556A","Salizada Del Pistor 4556A","","45.44096174","12.33654591"
"0278005906A","Store location - 0278005906A","","CN","Cannaregio","Salizada San Canzian","5906A","CN5906A","Salizada San Canzian 5906A","","45.43965595","12.33750528"
"0278006381A","Store location - 0278006381A","","CN","Cannaregio","Calle Larga Giacinto Gallina","6381A","CN6381A","Calle Larga Giacinto Gallina 6381A","","45.43962533","12.34081563"
"1600000367B","Store location - 1600000367B","","SM","San Marco","Calle Larga San","367B","SM367B","Calle Larga San 367B","","45.43516345","12.33942902"
"1600000523_","Store location - 1600000523_","","SM","San Marco","Campo De La Guerra","523","SM523","Campo De La Guerra 523","","45.43604239","12.33891711"
"1600001345_","Store location - 1600001345_","1600001344_;1600001346_;1600001349_;1600001350_;1600001351_;1600001352_;1600001353_1600001354_","SM","San Marco","Salizada San Moise'","1345","SM1345","Salizada San Moise' 1345","San Marco Calle Seconda De L'Ascension 1344;San Marco Salizada San Moise' 1346;San Marco Salizada San Moise' 1349;San Marco Salizada San Moise' 1350;San Marco Calle Del Ridotto 1351;San Marco Calle Del Ridotto 1352;San Marco Calle Del Ridotto 1353;San Marco Calle Del Ridotto 1354","45.43327229","12.33653742"
"1600002667_","Store location - 1600002667_","","SM","San Marco","Campo San Maurizio","2667","SM2667","Campo San Maurizio 2667","","45.43271348","12.3318496"
"1600004346A","Store location - 1600004346A","","SM","San Marco","Corte Coppo","4346A","SM4346A","Corte Coppo 4346A","","45.43503452","12.33506452"
"1600004473_","Store location - 1600004473_","","SM","San Marco","Calle Dei Fuseri","4473","SM4473","Calle Dei Fuseri 4473","","45.43567766","12.33529686"
"1600004475_","Store location - 1600004475_","1600004474_;1600004476_;1600004476A","SM","San Marco","Campo San Luca","4475","SM4475","Campo San Luca 4475","San Marco Campo San Luca 4474;4476;4476A","45.43578304","12.33535251"
"1600005301_","Store location - 1600005301_","","SM","San Marco","Calle De L'Aquila Nera","5301","SM5301","Calle De L'Aquila Nera 5301","","45.43750782","12.33726766"
"1600005420_","Store location - 1600005420_","","SM","San Marco","Calle De La Bissa","5420","SM5420","Calle De La Bissa 5420","","45.4376146","12.33718472"
"1600005512_","Store location - 1600005512_","","SM","San Marco","Calle De L'Orso","5512","SM5512","Calle De L'Orso 5512","","45.43802175","12.33729513"
"1600004336_","Store location - 1600004336_","","SM","San Marco","Calle Dei Fuseri","4336","SM4336","Calle Dei Fuseri 4336","","45.43523541","12.33530229"
"0278000122D","Store location - 0278000122D","","CN","Cannaregio","Rio Tera' Lista De Spagna","122D","CN122D","Rio Tera' Lista De Spagna 122D","","45.4417626","12.32297553"
"0278000325_","Store location - 0278000325_","","CN","Cannaregio","Salizada San Geremia","325","CN325","Salizada San Geremia 325","","45.44343586","12.32508738"
"0278001293_","Store location - 0278001293_","","CN","Cannaregio","Fondamenta De Cannaregio","1293","CN1293","Fondamenta De Cannaregio 1293","","45.44386903","12.32551288"
"0278001591_","Store location - 0278001591_","","CN","Cannaregio","Rio Tera' San Leonardo","1591","CN1591","Rio Tera' San Leonardo 1591","","45.44367922","12.32711486"
"0278001649_","Store location - 0278001649_","","CN","Cannaregio","Rio Tera' San Leonardo","1649","CN1649","Rio Tera' San Leonardo 1649","","45.44374948","12.3277848"
"0278002105_","Store location - 0278002105_","","CN","Cannaregio","Rio Tera' De La Maddalena","2105","CN2105","Rio Tera' De La Maddalena 2105","","45.44335169","12.33115679"
"0278002328_","Store location - 0278002328_","","CN","Cannaregio","Strada Nova","2328","CN2328","Strada Nova 2328","","45.44325187","12.33172578"
"0278002738_","Store location - 0278002738_","","CN","Cannaregio","Fondamenta Dei Ormesini","2738","CN2738","Fondamenta Dei Ormesini 2738","","45.44551414","12.32857328"
"0278004291_","Store location - 0278004291_","","CN","Cannaregio","Strada Nova","4291","CN4291","Strada Nova 4291","","45.44066581","12.33526817"
"0278004311_","Store location - 0278004311_","","CN","Cannaregio","Strada Nova","4311","CN4311","Strada Nova 4311","","45.44060352","12.33540459"
"0278004453_","Store location - 0278004453_","","CN","Cannaregio","Campo Santi Apostoli","4453","CN4453","Campo Santi Apostoli 4453","","45.4401189","12.33662776"
"0278005401D","Store location - 0278005401D","","CN","Cannaregio","Calle Larga Giacinto Gallina","5401D","CN5401D","Calle Larga Giacinto Gallina 5401D","","45.43982367","12.33986265"
"0278005419B","Store location - 0278005419B","","CN","Cannaregio","Campiello Widmann Gia' Biri","5419B","CN5419B","Campiello Widmann Gia' Biri 5419B","","45.44068753","12.33995478"
"0278005577_","Store location - 0278005577_","","CN","Cannaregio","Salizada San Canzian","5577","CN5577","Salizada San Canzian 5577","","45.43969512","12.33758335"
"0278005648A","Store location - 0278005648A","","CN","Cannaregio","Calle Dolfin","5648A","CN5648A","Calle Dolfin 5648A","","45.43989707","12.33668054"
"0278006043B","Store location - 0278006043B","","CN","Cannaregio","Campo Santa Maria Nova","6043B","CN6043B","Campo Santa Maria Nova 6043B","","45.43989255","12.33885997"
"0278006060A","Store location - 0278006060A","0278006060B","CN","Cannaregio","Campo Santa Maria Nova","6060A","CN6060A","Campo Santa Maria Nova 6060A","Cannaregio Calle Larga Widmann 6060 B","45.43998631","12.33902136"
"0278006420_","Store location - 0278006420_","","CN","Cannaregio","Calle De Le Erbe","6420","CN6420","Calle De Le Erbe 6420","","45.43890202","12.34049847"
"1600000047_","Store location - 1600000047_","","SM","San Marco","Piazza San Marco","47","SM47","Piazza San Marco 47","","45.43378986","12.33881851"
"1600000257_","Store location - 1600000257_","","SM","San Marco","Marzaria De L'Orologio","257","SM257","Marzaria De L'Orologio 257","","45.43542133","12.33845423"
"1600000261_","Store location - 1600000261_","","SM","San Marco","Marzaria De L'Orologio","261","SM261","Marzaria De L'Orologio 261","","45.43526097","12.33856061"
"1600000360_","Store location - 1600000360_","1600000311_","SM","San Marco","Calle Larga San Marco","360","SM360","Calle Larga San Marco 360","San Marco Calle San Basso 311","45.43507929","12.33916983"
"1600000364_","Store location - 1600000364_","","SM","San Marco","Calle Larga San Marco","364","SM364","Calle Larga San Marco 364","","45.43511684","12.33928662"
"1600000366_","Store location - 1600000366_","","SM","San Marco","Calle Larga San Marco","366","SM366","Calle Larga San Marco 366","","45.43513705","12.33934292"
"1600000533A","Store location - 1600000533A","","SM","San Marco","Calle Dei Spechieri","533A","SM533A","Calle Dei Spechieri 533A","","45.43605938","12.33854947"
"1600000633_","Store location - 1600000633_","","SM","San Marco","Calle Dei Spechieri","633","SM633","Calle Dei Spechieri 633","","45.43557385","12.33914215"
"1600000634_","Store location - 1600000634_","","SM","San Marco","Calle Dei Spechieri","634","SM634","Calle Dei Spechieri 634","","45.43554626","12.33917091"
"1600000706_","Store location - 1600000706_","","SM","San Marco","Marzaria San Zulian","706","SM706","Marzaria San Zulian 706","","45.43581107","12.33816879"
"1600000715_","Store location - 1600000715_","","SM","San Marco","Marzaria San Zulian","715","SM715","Marzaria San Zulian 715","","45.43600028","12.33783459"
"1600000737_","Store location - 1600000737_","","SM","San Marco","Marzaria San Zulian","737","SM737","Marzaria San Zulian 737","","45.43576394","12.33818551"
"1600000787_","Store location - 1600000787_","","SM","San Marco","Marzaria San Zulian","787","SM787","Marzaria San Zulian 787","","45.43561509","12.33843252"
"1600000922_","Store location - 1600000922_","","SM","San Marco","Calle Dei Fabbri","922","SM922","Calle Dei Fabbri 922","","45.43514208","12.33696876"
"1600000989_","Store location - 1600000989_","","SM","San Marco","Rio Tera' De Le Colone","989","SM989","Rio Tera' De Le Colone 989","","45.43519765","12.33687964"
"1600001018_","Store location - 1600001018_","","SM","San Marco","Calle Dei Fabbri","1018","SM1018","Calle Dei Fabbri 1018","","45.43541861","12.33661236"
"1600001037_","Store location - 1600001037_","","SM","San Marco","Calle Dei Fabbri","1037","SM1037","Calle Dei Fabbri 1037","","45.43530952","12.33671576"
"1600001234A","Store location - 1600001234A","","SM","San Marco","Bocca De Piazza","1234A","SM1234A","Bocca De Piazza 1234A","","45.43372594","12.33656936"
"1600001289_","Store location - 1600001289_","","SM","San Marco","Calle Seconda De L'Ascension","1289","SM1289","Calle Seconda De L'Ascension 1289","","45.43331751","12.33663392"
"1600001320_","Store location - 1600001320_","","SM","San Marco","Calle Vallaresso","1320","SM1320","Calle Vallaresso 1320","","45.43252753","12.33712784"
"1600001344_","Store location - 1600001344_","","SM","San Marco","Calle Seconda De L'Ascension","1344","SM1344","Calle Seconda De L'Ascension 1344","","45.43327153","12.33661863"
"1600001845_","Store location - 1600001845_","","SM","San Marco","Calle Dal Frutarol","1845","SM1845","Calle Dal Frutarol 1845","","45.43413702","12.33458788"
"1600002355_","Store location - 1600002355_","","SM","San Marco","Calle De Le Ostreghe","2355","SM2355","Calle De Le Ostreghe 2355","","45.43250426","12.33372103"
"1600002423_","Store location - 1600002423_","","SM","San Marco","Calle Larga Ventidue Marzo","2423","SM2423","Calle Larga Ventidue Marzo 2423","","45.43277537","12.33378037"
"1600002995_","Store location - 1600002995_","1600002996_","SM","San Marco","Crosera De Le Boteghe","2995","SM2995","Crosera De Le Boteghe 2995","San Marco Crosera De Le Boteghe 2996","45.43402711","12.33001145"
"1600003282A","Store location - 1600003282A","1600003283_","SM","San Marco","Calle De Le Carozze","3282A","SM3282A","Calle De Le Carozze 3282A","San Marco Calle De Le Carozze 3283","45.43398326","12.32898119"
"1600003457_","Store location - 1600003457_","1600003456_;1600003458_","SM","San Marco","Crosera De Le Boteghe","3457","SM3457","Crosera De Le Boteghe 3457","San Marco Crosera De Le Boteghe 3456;San Marco Crosera De Le Boteghe 3458","45.43387458","12.33035274"
"1600003633_","Store location - 1600003633_","","SM","San Marco","Calle De La Mandola","3633","SM3633","Calle De La Mandola 3633","","45.4346318","12.33255076"
"1600003710_","Store location - 1600003710_","","SM","San Marco","Calle De La Mandola","3710","SM3710","Calle De La Mandola 3710","","45.43488252","12.33314172"
"1600003712_","Store location - 1600003712_","","SM","San Marco","Calle De La Mandola","3712","SM3712","Calle De La Mandola 3712","","45.4349209","12.33323796"
"1600003728_","Store location - 1600003728_","","SM","San Marco","Calle De La Mandola","3728","SM3728","Calle De La Mandola 3728","","45.43482099","12.33290393"
"1600003821_","Store location - 1600003821_","","SM","San Marco","Fondamenta Dei Frati","3821","SM3821","Fondamenta Dei Frati 3821","","45.4342659","12.3315043"
"1600004268_","Store location - 1600004268_","","SM","San Marco","Calle Dei Fuseri","4268","SM4268","Calle Dei Fuseri 4268","","45.43565363","12.3352663"
"1600004487B","Store location - 1600004487B","","SM","San Marco","Calle Goldoni","4487B","SM4487B","Calle Goldoni 4487B","","45.43524239","12.33572884"
"1600004638_","Store location - 1600004638_","","SM","San Marco","Riva Del Carbon","4638","SM4638","Riva Del Carbon 4638","","45.4368453","12.33474112"
"1600004818_","Store location - 1600004818_","","SM","San Marco","Calle Del Lovo","4818","SM4818","Calle Del Lovo 4818","","45.43660656","12.33586398"
"1600004837_","Store location - 1600004837_","","SM","San Marco","Marzaria San Salvador","4837","SM4837","Marzaria San Salvador 4837","","45.43681976","12.33669528"
"1600004843_","Store location - 1600004843_","","SM","San Marco","Marzaria San Salvador","4843","SM4843","Marzaria San Salvador 4843","","45.43676693","12.33690731"
"1600004862_","Store location - 1600004862_","","SM","San Marco","Marzaria Del Capitelo","4862","SM4862","Marzaria Del Capitelo 4862","","45.43641237","12.33711093"
"1600004989_","Store location - 1600004989_","","SM","San Marco","Calle De Le Acque","4989","SM4989","Calle De Le Acque 4989","","45.43658365","12.33744156"
"1600005317_","Store location - 1600005317_","","SM","San Marco","Salizada Pio Decimo","5317","SM5317","Salizada Pio Decimo 5317","","45.43778502","12.33645395"
"1600005318_","Store location - 1600005318_","","SM","San Marco","Salizada Pio Decimo","5318","SM5318","Salizada Pio Decimo 5318","","45.43782544","12.33638304"
"1600005336_","Store location - 1600005336_","","SM","San Marco","Fondamenta Del Traghetto Del Buso","5336","SM5336","Fondamenta Del Traghetto Del Buso 5336","","45.43799407","12.3363109"
"1600005365_","Store location - 1600005365_","","SM","San Marco","Ramo Del Fontego Dei Tedeschi","5365","SM5365","Ramo Del Fontego Dei Tedeschi 5365","","45.43784493","12.33655119"
"1600005402_","Store location - 1600005402_","","SM","San Marco","Calle De La Bissa","5402","SM5402","Calle De La Bissa 5402","","45.4379135","12.33709711"
"1600005468_","Store location - 1600005468_","","SM","San Marco","Calle De La Bissa","5468","SM5468","Calle De La Bissa 5468","","45.43772862","12.33757625"
"1600005473_","Store location - 1600005473_","1600005472_","SM","San Marco","Calle De La Bissa","5473","SM5473","Calle De La Bissa 5473","San Marco Ramo De La Bissa 5472","45.43775376","12.33745988"
"1600000367A","Store location - 1600000367A","","SM","San Marco","Calle Larga San","367A","SM367A","Calle Larga San 367A","","45.43515511","12.33940158"
"1600004156B","Store location - 1600004156B","","SM","San Marco","Calle Del Carbon","4156B","SM4156B","Calle Del Carbon 4156B","","45.43591825","12.33487999"
"1600005369_","Store location - 1600005369_","","SM","San Marco","Ramo Del Fontego Dei Tedeschi","5369","SM5369","Ramo Del Fontego Dei Tedeschi 5369","","45.43786004","12.33659328"
"0278000412_","Store location - 0278000412_","","CN","Cannaregio","Fondamenta Savorgnan","412","CN412","Fondamenta Savorgnan 412","","45.44434212","12.32391436"
"0278001514_","Store location - 0278001514_","","CN","Cannaregio","Rio Tera' San Leonardo","1514","CN1514","Rio Tera' San Leonardo 1514","","45.44362949","12.32604062"
"0278002433_","Store location - 0278002433_","","CN","Cannaregio","Calle Zancani","2433","CN2433","Calle Zancani 2433","","45.44356328","12.33248932"
"1600001862_","Store location - 1600001862_","","SM","San Marco","Calle Dal Frutarol","1862","SM1862","Calle Dal Frutarol 1862","","45.43408726","12.33435697"
"1600005163_","Store location - 1600005163_","","SM","San Marco","Salizada Pio Decimo","5163","SM5163","Salizada Pio Decimo 5163","","45.43782464","12.33625445"
"1600004543_","Store location - 1600004543_","1600004543A;1600004544_","SM","San Marco","Calle Del Magazen","4543","SM4543","Calle Del Magazen 4543","San Marco Calle Del Magazen 4543 A;4544","45.43585611","12.33595798"
"1600004952_","Store location - 1600004952_","1600004953_","SM","San Marco","Marzaria Del Capitelo","4952","SM4952","Marzaria Del Capitelo 4952","San Marco Marzaria Del Capitelo 4953","45.43645929","12.33708705"
"0278001889A","Store location - 0278001889A","","CN","Cannaregio","Calle De L'Aseo","1889A","CN1889A","Calle De L'Aseo 1889A","","45.4443579","12.32937111"
"1600001035_","Store location - 1600001035_","1600001036_","SM","San Marco","Calle Dei Fabbri","1035","SM1035","Calle Dei Fabbri 1035","San Marco Calle Dei Fabbri 1036","45.4353557","12.3366722"
"1600005529_","Store location - 1600005529_","","SM","San Marco","Calle De L'Orso","5529","SM5529","Calle De L'Orso 5529","","45.4380548","12.33714919"
